Region Cd,Region Name,Sch Cd,School Name,Start Gr,End Gr,Mailing Address,City,Postal Code,Civic Address,City.1,Postal Code.1,School Email,Phone,Fax,Principal
51,Cape Breton Victoria Regional Centre for Education,96,Baddeck Academy,PP,12,PO Box 310 ,Baddeck NS,B0E 1B0,320 Shore Rd ,Baddeck NS,B0E 1B0,barbmac@gnspes.ca,902-295-2359,902-295-1263,Barbara MacDonald
51,Cape Breton Victoria Regional Centre for Education,93,Boularderie Elementary School,PP,5,12065 Kempt Rd ,Boularderie NS,B1X 1J9,12065 Kempt Rd ,Boularderie NS,B1X 1J9,laveryb1@gnspes.ca,902-674-2716,902-674-0117,Brenda Lavery
51,Cape Breton Victoria Regional Centre for Education,101,Bras d'Or Elementary School,PP,5,10 Alder Pt. Rd ,Bras d`Or NS,B1Y 2K1,10 Alder Pt. Rd ,Bras d`Or NS,B1Y 2K1,kubleks@gnspes.ca,902-736-4000,902-736-1091,Sheila Kublek
51,Cape Breton Victoria Regional Centre for Education,640,Breton Education Centre,06,12,667 8th St ,New Waterford NS,B1H 3T4,667 8th St ,New Waterford NS,B1H 3T4,daucoin@gnspes.ca,902-862-6432,902-862-7330,Danielle Aucoin-Coleman
51,Cape Breton Victoria Regional Centre for Education,995,Brookland Elementary School ,PP,5,153 Cottage Rd ,Sydney NS,B1P 2E5,153 Cottage Rd ,Sydney NS,B1P 2E5,jlively@gnspes.ca,902-562-0768,902-563-4560,Francis Lively
51,Cape Breton Victoria Regional Centre for Education,107,Cabot Education Centre,06,12,32039 Cabot Trail ,Neil's Harbour NS,B0C 1N0,32039 Cabot Trail ,Neil's Harbour NS,B0C 1N0,simmsdj@gnspes.ca,902-336-2266,902-336-2525,Donald Simms
51,Cape Breton Victoria Regional Centre for Education,962,Cape Smokey Elementary School ,PR,5,PO Box 269 ,Ingonish NS,B0C 1K0,39 Brandon Lane ,Ingonish NS,B0C 1K0,hardym2@gnspes.ca,902-285-2638,902-285-2892,Maxine Hardy
51,Cape Breton Victoria Regional Centre for Education,1169,CBVRCE Adult High School,10,12,290 Whitney Ave ,Sydney NS,B1P 5A6,290 Whitney Ave ,Sydney NS,B1P 5A6,hpatters@gnspes.ca,902-562-5178,902-562-1605,Heather Patterson
51,Cape Breton Victoria Regional Centre for Education,186,Coxheath Elementary School ,PP,5,30 Mt. Florence St ,Coxheath NS,B1R 1T8,30 Mt. Florence St ,Coxheath NS,B1R 1T8,tleblan1@gnspes.ca,902-562-4961,902-562-6192,Trevor LeBlanc
51,Cape Breton Victoria Regional Centre for Education,1101,Cusack School,PP,5,500 Birch Hill Dr ,Sydney NS,B1P 3V9,500 Birch Hill Dr ,Sydney NS,B1P 3V9,orychoa1@gnspes.ca,902-564-0431,902-562-6871,Amber Orychock
51,Cape Breton Victoria Regional Centre for Education,996,Donkin School,PP,8,81 Centre Ave ,Donkin NS,B0A 1G0,81 Centre Ave ,Donkin NS,B0A 1G0,jacksonbm@gnspes.ca,902-737-2120,902-737-1018,Brenda Jackson
51,Cape Breton Victoria Regional Centre for Education,98,Dr. T.L. Sullivan School,PP,8,256 Park Rd ,Florence NS,B1Y 1N2,256 Park Rd ,Florence NS,B1Y 1N2,yorkec1@gnspes.ca,902-736-6273,902-736-8844,Charles Yorke
51,Cape Breton Victoria Regional Centre for Education,1153,Ferrisview Elementary School ,PP,5,83 Archibald Ave ,North Sydney NS,B2A 2W9,83 Archibald Ave ,North Sydney NS,B2A 2W9,boutj@gnspes.ca,902-794-7137,902-794-6237,John Boutilier
51,Cape Breton Victoria Regional Centre for Education,416,Glace Bay Elementary School ,PP,5,135 Brookside St ,Glace Bay NS,B1A 1K8,135 Brookside St ,Glace Bay NS,B1A 1K8,shepardr@gnspes.ca,902-849-3256,902-849-3261,Roberta Sheppard
51,Cape Breton Victoria Regional Centre for Education,8,Glace Bay High School ,09,12,201 Reserve St ,Glace Bay NS,B1A 4W3,201 Reserve St ,Glace Bay NS,B1A 4W3,gbh@gnspes.ca,902-849-4247,902-849-2700,Donald Holland
51,Cape Breton Victoria Regional Centre for Education,963,Greenfield Elementary School,PP,5,25 James St ,River Ryan NS,B1H 1B8,25 James St ,River Ryan NS,B1H 1B8,macdous13@gnspes.ca,902-862-4000,902-862-4005,Stephen MacDougall
51,Cape Breton Victoria Regional Centre for Education,964,Harbourside Elementary School ,PP,5,15 Church St ,Sydney NS,B1N 2R3,15 Church St ,Sydney NS,B1N 2R3,dbeaton@gnspes.ca,902-563-4520,902-563-4523,Daniel Beaton
51,Cape Breton Victoria Regional Centre for Education,549,John Bernard Croak V.C. Memorial School ,PP,5,10 Second St ,Glace Bay NS,B1A 5Z4,10 Second St ,Glace Bay NS,B1A 5Z4,rmuller@gnspes.ca,902-849-2003,902-842-2212,Ronald Muller
51,Cape Breton Victoria Regional Centre for Education,960,Jubilee Elementary School ,PP,5,755 Main St ,Sydney Mines NS,B1V 2L4,755 Main St ,Sydney Mines NS,B1V 2L4,imackaycarroll@gnspes.ca,902-736-3310,902-736-7510,Lori MacKay-Carroll
51,Cape Breton Victoria Regional Centre for Education,202,Malcolm Munroe Middle School,06,8,125 Kenwood Dr ,Sydney NS,B1S 1T8,125 Kenwood Dr ,Sydney NS,B1S 1T8,smcampbell@gnspes.ca,902-564-4587,902-564-1666,Stephanie Campbell
51,Cape Breton Victoria Regional Centre for Education,183,Marion Bridge School,PR,5,3845 Gabarus Hwy ,Marion Bridge NS,B1K 1A6,3845 Gabarus Hwy ,Marion Bridge NS,B1K 1A6,ruthclarke@gnspes.ca,902-727-2980,902-727-2765,Arlene Clarke
51,Cape Breton Victoria Regional Centre for Education,82,Memorial Composite High School,09,12,300 Memorial Dr ,Sydney Mines NS,B1V 2Y5,300 Memorial Dr ,Sydney Mines NS,B1V 2Y5,nicholc7@gnspes.ca,902-736-6233,902-736-3895,Christopher Nicholson
51,Cape Breton Victoria Regional Centre for Education,83,Middle River Consolidated,PR,5,2248 Cabot Trail ,Middle River NS,B0E 1B0,2248 Cabot Trail ,Middle River NS,B0E 1B0,rcordy@gnspes.ca,902-295-2842,902-295-2842,Ryan Cordy
51,Cape Breton Victoria Regional Centre for Education,997,Mountainview Elementary School ,PP,5,21 Delta Dr ,Howie Centre NS,B1L 1G9,21 Delta Dr ,Howie Centre NS,B1L 1G9,paul3@gnspes.ca,902-562-8880,902-562-7271,Michael Mombourquette
51,Cape Breton Victoria Regional Centre for Education,961,North Highlands Elementary School ,PP,5,1363 Bay St. Lawrence Rd ,Aspy Bay NS,B0C 1G0,1363 Bay St. Lawrence Rd ,Aspy Bay NS,B0C 1G0,angelacurrie@gnspes.ca,902-383-2186,902-383-2381,Angela Currie-Simms
51,Cape Breton Victoria Regional Centre for Education,1154,Oceanview Education Centre,06,8,60 Wallaces Rd ,Glace Bay NS,B1A 4N5,60 Wallaces Rd ,Glace Bay NS,B1A 4N5,goneill@gnspes.ca,902-842-4488,902-849-5541,Paul O'Neill
51,Cape Breton Victoria Regional Centre for Education,1142,Rankin School of the Narrows,PP,12,4144 Hwy 223 ,Iona NS,B2C 1A4,4144 Hwy 223 ,Iona NS,B2C 1A4,macneilt@gnspes.ca,902-725-2210,902-725-1255,Mary MacNeil
51,Cape Breton Victoria Regional Centre for Education,973,Riverside School,PP,8,7430 Hornes Rd ,Albert Bridge NS,B0A 1P0,7430 Hornes Rd ,Albert Bridge NS,B0A 1P0,browns5@gnspes.ca,902-563-4535,902-563-4539,Suzanne Brown
51,Cape Breton Victoria Regional Centre for Education,203,Riverview High School,09,12,57 Coxheath Rd ,Sydney NS,B1R 1R4,57 Coxheath Rd ,Sydney NS,B1R 1R4,joemc@gnspes.ca,902-564-5411,902-567-2575,Joseph Chisholm
51,Cape Breton Victoria Regional Centre for Education,182,Robin Foote Elementary School ,PP,5,125 Sunnydale Dr ,Westmount NS,B1R 1J4,125 Sunnydale Dr ,Westmount NS,B1R 1J4,lastephen@gnspes.ca,902-539-3031,902-562-6816,Lee Ann Astephen
51,Cape Breton Victoria Regional Centre for Education,113,Seton Elementary School ,PR,5,25 Wilkie Ave ,North Sydney NS,B2A 1Y5,25 Wilkie Ave ,North Sydney NS,B2A 1Y5,briggsj1@gnspes.ca,902-794-2419,902-794-6241,Janet Briggs
51,Cape Breton Victoria Regional Centre for Education,646,Sherwood Park Education Centre,06,8,500 Terrace St ,Sydney NS,B1P 6N1,500 Terrace St ,Sydney NS,B1P 6N1,gartland@gnspes.ca,902-563-7732,902-562-6834,Terrance Gartland
51,Cape Breton Victoria Regional Centre for Education,972,Shipyard Elementary School ,PP,5,30 Mt. Kemmel St ,Sydney NS,B1S 3V6,30 Mt. Kemmel St ,Sydney NS,B1S 3V6,oliverg@gnspes.ca,902-562-8878,902-562-8674,Blaine Oliver
51,Cape Breton Victoria Regional Centre for Education,561,St. Anne's Elementary School ,PP,5,30 Official Row ,Glace Bay NS,B1A 2W9,30 Official Row ,Glace Bay NS,B1A 2W9,tettinger@gnspes.ca,902-849-5661,902-849-1645,Tamalah Ettinger
51,Cape Breton Victoria Regional Centre for Education,688,Sydney Academy,09,12,49 Terrace St ,Sydney NS,B1P 2L4,49 Terrace St ,Sydney NS,B1P 2L4,kdeveaux@gnspes.ca,902-562-5464,902-564-4472,Kevin Deveaux
51,Cape Breton Victoria Regional Centre for Education,117,Sydney Mines Middle School,06,8,596 Main St ,Sydney Mines NS,B1V 2K8,596 Main St ,Sydney Mines NS,B1V 2K8,lisaml@gnspes.ca,902-736-8549,902-736-0945,Lisa MacLean
51,Cape Breton Victoria Regional Centre for Education,185,Sydney River Elementary School ,PP,5,35 Phillips St ,Sydney River NS,B1S 1M8,35 Phillips St ,Sydney River NS,B1S 1M8,kmcnenly@gnspes.ca,902-567-2144,902-567-0079,Kelly McNenly
51,Cape Breton Victoria Regional Centre for Education,175,Tompkins Memorial Elementary School ,PP,5,60 Main St ,Reserve Mines NS,B1E 1E5,60 Main St ,Reserve Mines NS,B1E 1E5,mcleodm2@gnspes.ca,902-849-3803,902-849-1586,Mary McLeod
51,Cape Breton Victoria Regional Centre for Education,667,Whitney Pier Memorial Middle School,06,8,199 Jamieson St ,Whitney Pier NS,B1N 2P7,199 Jamieson St ,Whitney Pier NS,B1N 2P7,delm@gnspes.ca,902-562-6130,902-562-6720,Marilyn Delaney
52,Strait Regional Centre for Education,934,Antigonish Education Centre,PP,4,30 Appleseed Dr ,Antigonish NS,B2G 3B6,30 Appleseed Dr ,Antigonish NS,B2G 3B6,april.weaver@srce.ca,902-867-8800,902-867-8804,April Weaver
52,Strait Regional Centre for Education,932,Bayview Education Centre,PP,8,PO Box 148 ,Port Hood NS,B0E 2W0,133 Company Rd ,Port Hood NS,B0E 2W0,lisa.maceachern@srce.ca,902-787-5220,902-787-5224,Lisa MacEachern
52,Strait Regional Centre for Education,974,Cape Breton Highlands Education Centre/Academy,PP,12,PO Box 3 ,Margaree Harbour NS,B0E 2B0,11070 Cabot Trail ,Terre Noire NS,B0E 1C0,angela.mackinnon@srce.ca,902-235-7500,902-235-7504,Angela MacKinnon-Poirier
52,Strait Regional Centre for Education,986,Chedabucto Ed Centre/Guysborough Academy,PP,12,PO Box 19 ,Guysborough NS,B0H 1N0,27 Green St ,Guysborough NS,B0H 1N0,barbara.avery@srce.ca,902-533-4006,902-533-3554,Barbara Avery
52,Strait Regional Centre for Education,930,Dalbrae Academy,08,12,PO Box 220 ,Mabou NS,B0E 1X0,11156 Hwy 19 SW Mabou ,Mabou NS,B0E 1X0,carol.smith@srce.ca,902-945-5325,902-945-5329,Carol Smith
52,Strait Regional Centre for Education,707,Dr. John Hugh Gillis Regional High,09,12,105 Braemore Ave ,Antigonish NS,B2G 1L3,105 Braemore Ave ,Antigonish NS,B2G 1L3,jack.macdonald@srce.ca,902-863-1620,902-863-8284,John MacDonald
52,Strait Regional Centre for Education,975,East Antigonish Education Centre/Academy,PP,12,10128 Rte 4 ,Monastery NS,B0H 1W0,10128 Rte 4 ,Monastery NS,B0H 1W0,richard.britten@srce.ca,902-232-2810,902-232-3829,Richard Britten
52,Strait Regional Centre for Education,484,East Richmond Education Centre,PP,8,PO Box 219 ,St. Peter`s NS,B0E 3B0,9359 Pepperell St ,St. Peter`s NS,B0E 3B0,sonya.sauve@srce.ca,902-535-2066,902-535-3166,Sonya Sauve
52,Strait Regional Centre for Education,266,Fanning Education Centre/Canso Academy,PP,12,129 Tickle Rd ,Guysborough NS,B0H 1H0,129 Tickle Rd ,Guysborough NS,B0H 1H0,jeff.george@srce.ca,902-366-2225,902-366-3502,Jeffrey George
52,Strait Regional Centre for Education,471,Felix Marchand Education Centre,PP,4,PO Box 767 ,Louisdale NS,B0E 1V0,380 Main St ,Louisdale NS,B0E 1V0,lois.landry@srce.ca,902-345-2560,902-345-2868,Lois Landry
52,Strait Regional Centre for Education,143,H.M. MacDonald Elementary School,PP,6,RR3 2811 Hwy 245 ,Maryvale NS,B2G 2J1,2811 Hwy 245 ,Maryvale NS,B2G 2J1,trevor.macisaac@srce.ca,902-863-2096,902-863-0616,Trevor MacIsaac
52,Strait Regional Centre for Education,1106,Inverness Education Centre/Academy,PP,12,PO Box 580 ,Inverness NS,B0E 1N0,59 Veterans Memorial Crt ,Inverness NS,B0E 1N0,peter.goosens@srce.ca,902-258-3700,902-258-3899,Peter Goosens
52,Strait Regional Centre for Education,390,Pleasant Bay School,PR,6,456 Pleasant Bay Rd ,Pleasant Bay NS,B0E 2P0,456 Pleasant Bay Rd ,Pleasant Bay NS,B0E 2P0,angela.mackinnon@srce.ca,902-224-2365,902-224-2080,Angela MacKinnon-Poirier
52,Strait Regional Centre for Education,931,Richmond Education Centre/Academy,05,12,PO Box 599 ,Louisdale NS,B0E 1V0,3238 Whiteside Rd ,Louisdale NS,B0E 1V0,lois.landry@srce.ca,902-345-4949,902-345-4948,Lois Landry
52,Strait Regional Centre for Education,152,St. Andrew Junior School,05,8,2 Appleseed Dr ,Antigonish NS,B2G 3B6,2 Appleseed Dr ,Antigonish NS,B2G 3B6,glenn.austen@srce.ca,902-863-3046,902-863-2273,Glenn Austen
52,Strait Regional Centre for Education,149,St. Andrews Consolidated School,PP,6,3892 Hwy 316 ,St. Andrews NS,B0H 1X0,3892 Hwy 316 ,St. Andrews NS,B0H 1X0,kirk.johnstone@srce.ca,902-863-2512,902-863-6840,Kirk Johnstone
52,Strait Regional Centre for Education,1160,St. Mary's Education Centre/Academy,PP,12,PO Box 292 ,Sherbrooke NS,B0J 3C0,121 Old Rd Hill ,Sherbrooke NS,B0J 3C0,mike.macisaac@srce.ca,902-522-2035,902-522-2336,Michael MacIsaac
52,Strait Regional Centre for Education,655,Strait Area Education and Recreation Centre,09,12,304 Pitt St Unit 1 ,Port Hawkesbury NS,B9A 2T9,304 Pitt St Unit 1 ,Port Hawkesbury NS,B9A 2T9,rob.allen@srce.ca,902-625-1929,902-625-1868,Robert Allen
52,Strait Regional Centre for Education,936,Tamarac Education Centre,PP,8,57 Tamarac Dr ,Port Hawkesbury NS,B9A 3G2,57 Tamarac Dr ,Port Hawkesbury NS,B9A 3G2,melaniem.macdonald@srce.ca,902-625-6650,902-625-6654,Melanie MacDonald
52,Strait Regional Centre for Education,388,Whycocomagh Education Centre,PP,8,PO Box 160 ,Whycocomagh NS,B0E 3M0,50 Norman McLeod Rd ,Whycocomagh NS,B0E 3M0,rick.welton@srce.ca,902-756-2441,902-756-3882,Richard Welton
53,Chignecto Central Regional Centre for Education,639,A. G. Baillie Memorial School,PP,6,477 Victoria Ave Ext ,New Glasgow NS,B2H 1X1,477 Victoria Ave Ext ,New Glasgow NS,B2H 1X1,mcneilap@ccrce.ca,902-755-8240,902-755-8255,Allison McNeil-Wilson
53,Chignecto Central Regional Centre for Education,248,Advocate District School,PR,12,PO Box 62 ,Advocate Harbour NS,B0M 1A0,3521 Hwy 209 ,Advocate NS,B0M 1A0,dickinsond@ccrce.ca,902-392-3400,902-392-3401,Denise Dickinson
53,Chignecto Central Regional Centre for Education,705,Amherst Regional High School ,09,12,190 Willow St ,Amherst NS,B4H 3W5,190 Willow St ,Amherst NS,B4H 3W5,stubberta@ccrce.ca,902-661-2540,902-661-2535,Aaron Stubbert
53,Chignecto Central Regional Centre for Education,1194,Bible Hill Consolidated School,PP,4,103 Pictou Rd ,Truro NS,B2N 2S2,103 Pictou Rd ,Truro NS,B2N 2S2,fougerekj@ccrce.ca,902-896-5511,902-896-5516,Kathleen Fougere
53,Chignecto Central Regional Centre for Education,7,Bible Hill Junior High School,08,9,741 College Rd ,Truro NS,B2N 5Y9,741 College Rd ,Truro NS,B2N 5Y9,thomsontw@ccrce.ca,902-896-5500,902-896-5504,Thomas Thomson
53,Chignecto Central Regional Centre for Education,16,Brookfield Elementary School,PP,6,233 Hwy 289 ,Brookfield NS,B0N 1C0,233 Hwy 289 ,Brookfield NS,B0N 1C0,weatherbeekl@ccrce.ca,902-673-5050,902-673-5052,Kathy Weatherbee
53,Chignecto Central Regional Centre for Education,1198,CCRCE Alternate High School,08,12,PO Box 10 ,Trenton NS,B0K 1X0,37 Dickie St ,Trenton NS,B0K 1X0,callaghank@ccrce.ca,902-755-8165,902-755-8155,Keah Callaghan
53,Chignecto Central Regional Centre for Education,20,Central Colchester Junior High School ,06,9,61 Onslow Rd ,Central Onslow NS,B6L 5K4,61 Onslow Rd ,Central Onslow NS,B6L 5K4,macphersonc@ccrce.ca,902-896-5570,902-896-5575,Chad MacPherson
53,Chignecto Central Regional Centre for Education,27,Chiganois Elementary School,PP,5,11145 Hwy 2 ,Masstown NS,B0M 1G0,11145 Hwy 2 ,Masstown NS,B0M 1G0,harnishk@ccrce.ca,902-662-4420,902-662-4422,Kevin Harnish
53,Chignecto Central Regional Centre for Education,14,Cobequid Consolidated Elementary School,PP,5,2998 Hwy 236 ,Old Barns NS,B6L 1K3,2998 Hwy 236 ,Old Barns NS,B6L 1K3,mcinnisnd@ccrce.ca,902-896-5560,902-896-5565,Natalie McInnis
53,Chignecto Central Regional Centre for Education,36,Cobequid District Elementary School,PP,6,8993 Hwy 354 ,Noel NS,B0N 2C0,8993 Hwy 354 ,Noel NS,B0N 2C0,eikelenboomn@ccrce.ca,902-369-2960,902-369-2961,Nicole Eikelenboom
53,Chignecto Central Regional Centre for Education,44,Cobequid Educational Centre,10,12,34 Lorne St ,Truro NS,B2N 3K3,34 Lorne St ,Truro NS,B2N 3K3,kaulbachw@ccrce.ca,902-896-5700,902-896-5707,John Kaulbach
53,Chignecto Central Regional Centre for Education,1104,Cumberland North Academy,PP,6,RR3 ,Brookdale NS,B4H 3Y1,879 Hwy 204 ,Brookdale NS,B4H 3Y1,wellsk@ccrce.ca,902-661-2464,902-661-2438,Kathy Wells
53,Chignecto Central Regional Centre for Education,230,Cyrus Eaton Elementary School,PP,6,PO Box 129 ,Pugwash NS,B0K 1L0,171 Queen St ,Pugwash NS,B0K 1L0,wellsse@ccrce.ca,902-243-3900,902-243-3903,Steven Wells
53,Chignecto Central Regional Centre for Education,28,Debert Elementary School,PP,6,PO Box 279 ,Debert NS,B0M 1G0,1320 Masstown Rd ,Debert NS,B0M 1G0,coxbl@ccrce.ca,902-662-4400,902-662-4404,Brenda Cox 
53,Chignecto Central Regional Centre for Education,408,Dr. W.A. MacLeod Consolidated School,PR,8,6193 Trafalgar Rd ,Riverton NS,B0K 1S0,6193 Trafalgar Rd ,Riverton NS,B0K 1S0,staceyrl@ccrce.ca,902-755-8450,902-755-8455,Rhonda Stacey
53,Chignecto Central Regional Centre for Education,750,E. B. Chandler Junior High School,07,8,PO Box 790 ,Amherst NS,B4H 4B9,28 Dickey St ,Amherst NS,B4H 4B9,beeds@ccrce.ca,902-661-2450,902-661-2455,Sherri Beed
53,Chignecto Central Regional Centre for Education,432,East Pictou Middle School,07,8,163 School Rd ,Thorburn NS,B0K 1W0,163 School Rd ,Thorburn NS,B0K 1W0,doylenm@ccrce.ca,902-922-3800,902-922-3808,Nancy Doyle
53,Chignecto Central Regional Centre for Education,31,Elmsdale District Elementary School,PR,5,75 MacMillan Dr ,Elmsdale NS,B2S 1A5,75 MacMillan Dr ,Elmsdale NS,B2S 1A5,langilleld@ccrce.ca,902-883-5350,902-883-5353,Laura Langille
53,Chignecto Central Regional Centre for Education,30,Enfield District School,PR,5,29 Catherine St ,Enfield NS,B2T 1L4,29 Catherine St ,Enfield NS,B2T 1L4,knolt@ccrce.ca,902-883-5300,902-883-5302,Christina Knol
53,Chignecto Central Regional Centre for Education,414,F.H. MacDonald Elementary School,PP,6,123 School Rd ,Thorburn NS,B0K 1W0,123 School Rd ,Thorburn NS,B0K 1W0,doylenm@ccrce.ca,902-922-3800,902-922-3828,Nancy Doyle
53,Chignecto Central Regional Centre for Education,665,G.R. Saunders Elementary School,PR,6,PO Box 1030 ,Stellarton NS,B0K 1S0,71 Bridge Avenue ,Stellarton NS,B0K 1S0,cormierel@ccrce.ca,902-755-8230,902-755-8238,Erin Cormier
53,Chignecto Central Regional Centre for Education,26,Great Village Elementary School,PP,4,8849 Hwy 2 ,Great Village NS,B0M 1L0,8849 Hwy 2 ,Great Village NS,B0M 1L0,fultzs@ccrce.ca,902-668-6500,902-668-6506,Stephen Fultz
53,Chignecto Central Regional Centre for Education,42,Hants East Rural High School,09,12,2331 Hwy 2 ,Milford NS,B0N 1Y0,2331 Hwy 2 ,Milford NS,B0N 1Y0,smithmt@ccrce.ca,902-758-4620,902-758-4626,Michael Smith
53,Chignecto Central Regional Centre for Education,41,Hants North Rural High School,07,12,4369 Hwy 236 ,Kennetcook NS,B0N 1P0,4369 Hwy 236 ,Kennetcook NS,B0N 1P0,peverilmf@ccrce.ca,902-362-3300,902-362-3303,Mark Peveril
53,Chignecto Central Regional Centre for Education,1145,Harmony Heights Elementary School,PR,5,25 Cedar Dr ,Truro NS,B2N 5W3,25 Cedar Dr ,Truro NS,B2N 5W3,fitzgeraldd@ccrce.ca,902-896-5798,902-897-8922,Darrell Fitzgerald
53,Chignecto Central Regional Centre for Education,15,Hilden Elementary School,PP,6,1737 Truro Rd ,Hilden NS,B0N 1C0,1737 Truro Rd ,Hilden NS,B0N 1C0,kaulbachl@ccrce.ca,902-896-5750,902-896-5751,Lynn Kaulbach
53,Chignecto Central Regional Centre for Education,661,Junction Road Elementary School,PP,6,PO Box 2139 ,Springhill NS,B0M 1X0,19 Junction Rd ,Springhill NS,B0M 1X0,maddisonalicks@ccrce.ca,902-597-4240,902-597-4247,Sheila Maddison-Alick
53,Chignecto Central Regional Centre for Education,38,Kennetcook District Elementary School,PP,6,4369 Hwy 236 ,Kennetcook NS,B0N 1P0,4369 Hwy 236 ,Kennetcook NS,B0N 1P0,peverilmf@ccrce.ca,902-362-3300,902-362-3303,Mark Peveril
53,Chignecto Central Regional Centre for Education,949,Maple Ridge Elementary School,PR,5,1066 Hwy 2 ,Lantz NS,B2S 1M8,1066 Hwy 2 ,Lantz NS,B2S 1M8,isenorr@ccrce.ca,902-883-5361,902-883-5360,Robin Isenor
53,Chignecto Central Regional Centre for Education,971,McCulloch Education Centre,PR,8,350 Wellington St ,Pictou NS,B0K 1H0,350 Wellington St ,Pictou NS,B0K 1H0,mcneillfa@ccrce.ca,902-485-7991,902-485-7992,Francis McNeill
53,Chignecto Central Regional Centre for Education,1189,New Glasgow Academy,PP,8,93 Albert St ,New Glasgow NS,B2H 5W8,93 Albert St ,New Glasgow NS,B2H 5W8,francisa@ccrce.ca,902-755-8400,902-755-8438,Andrew Francis
53,Chignecto Central Regional Centre for Education,988,North Nova Education Centre,09,12,343 Park St ,New Glasgow NS,B2H 6B2,343 Park St ,New Glasgow NS,B2H 6B2,lewislk@ccrce.ca,902-755-8180,902-755-8185,Lia Lewis
53,Chignecto Central Regional Centre for Education,9,North River Elementary School,PP,6,80 Mountain Lee Rd ,North River NS,B6L 6M2,80 Mountain Lee Rd ,North River NS,B6L 6M2,bishopameroha@ccrce.ca,902-896-5530,902-896-5532,Heather Bishop-Amero
53,Chignecto Central Regional Centre for Education,231,Northport Consolidated Elementary School,PR,6,7110 Hwy 366 ,Northport NS,B0L 1E0,7110 Hwy 366 ,Northport NS,B0L 1E0,trenholma@ccrce.ca,902-661-2490,902-661-2491,Angela Trenholm
53,Chignecto Central Regional Centre for Education,989,Northumberland Regional High School,09,12,104 Alma Rd ,Alma NS,B0K 2A0,104 Alma Rd ,Alma NS,B0K 2A0,otoolem@ccrce.ca,902-396-2750,902-396-2755,Matthew O'Toole
53,Chignecto Central Regional Centre for Education,1151,Oxford Regional Education Centre,PP,12,249 Lower Main St ,Oxford NS,B0M 1P0,249 Lower Main St ,Oxford NS,B0M 1P0,starrattd@ccrce.ca,902-447-4513,902-447-4517,Duane Starratt
53,Chignecto Central Regional Centre for Education,649,Parrsboro Regional Elementary School,PP,6,PO Box 631 ,Parrsboro NS,B0M 1S0,43 School St ,Parrsboro NS,B0M 1S0,collinsonn@ccrce.ca,902-254-5605,902-254-5609,Norma-Jean Collinson
53,Chignecto Central Regional Centre for Education,715,Parrsboro Regional High School ,07,12,PO Box 370 ,Parrsboro NS,B0M 1S0,109 King St ,Parrsboro NS,B0M 1S0,spenced@ccrce.ca,902-254-5600,902-254-5660,Daniel Spence
53,Chignecto Central Regional Centre for Education,650,Pictou Academy,09,12,200 Louise St ,Pictou NS,B0K 1H0,200 Louise St ,Pictou NS,B0K 1H0,pettipassa@ccrce.ca,902-485-7200,902-485-7210,April Pettipas
53,Chignecto Central Regional Centre for Education,252,Pugwash District High School,07,12,PO Box 100 ,Pugwash NS,B0K 1L0,192 Church St ,Pugwash NS,B0K 1L0,bruntse@ccrce.ca,902-243-3930,902-243-3940,Shawn Brunt
53,Chignecto Central Regional Centre for Education,39,Rawdon District Elementary School,PP,6,3713 Hwy 354 ,Upper Rawdon NS,B0N 2N0,3713 Hwy 354 ,Upper Rawdon NS,B0N 2N0,noddinm@ccrce.ca,902-632-6660,902-632-6662,Myrna Noddin Bona
53,Chignecto Central Regional Centre for Education,916,Redcliff Middle School,05,7,33 Sunset Lane ,Valley NS,B6L 4K1,33 Sunset Lane ,Valley NS,B6L 4K1,hazeltond@ccrce.ca,902-896-5520,902-896-5514,David Hazelton
53,Chignecto Central Regional Centre for Education,251,River Hebert District School,PP,12,2843 Barronsfield Rd ,River Hebert NS,B0L 1G0,2843 Barronsfield Rd ,River Hebert NS,B0L 1G0,taylorv@ccrce.ca,902-251-3200,902-251-3210,Vernon Taylor
53,Chignecto Central Regional Centre for Education,923,Riverside Education Centre,06,8,6 Riverside Dr ,Milford NS,B0N 1Y0,6 Riverside Dr ,Milford NS,B0N 1Y0,gattosc@ccrce.ca,902-758-4660,902-758-4666,Simon Gatto
53,Chignecto Central Regional Centre for Education,441,Salt Springs Elementary School,PP,5,2080 West River Stn Rd ,Pictou NS,B0K 1P0,2080 West River Stn Rd ,Pictou NS,B0K 1P0,nelsonrd@ccrce.ca,902-925-6000,902-925-6006,Robert Nelson
53,Chignecto Central Regional Centre for Education,4,Scotsburn Elementary School,PP,5,4100 Scotsburn Rd ,Scotsburn NS,B0K 1R0,4100 Scotsburn Rd ,Scotsburn NS,B0K 1R0,mccarrong@ccrce.ca,902-485-7980,902-485-7981,Glen McCarron
53,Chignecto Central Regional Centre for Education,34,Shubenacadie District Elementary School,PP,5,54 Mill Village Rd ,Shubenacadie NS,B0N 2H0,54 Mill Village Rd ,Shubenacadie NS,B0N 2H0,harveyc@ccrce.ca,902-758-4600,902-758-4608,Clinton Harvey
53,Chignecto Central Regional Centre for Education,992,South Colchester Academy,07,12,207 Hwy 289 ,Brookfield NS,B0N 1C0,207 Hwy 289 ,Brookfield NS,B0N 1C0,searlelm@ccrce.ca,902-673-5000,902-673-5005,Leanne Searle
53,Chignecto Central Regional Centre for Education,1105,Spring Street Academy,PR,6,59 Spring St ,Amherst NS,B4H 1S4,59 Spring St ,Amherst NS,B4H 1S4,janesh@ccrce.ca,902-661-2499,902-661-2431,Heather Janes-Pedersen
53,Chignecto Central Regional Centre for Education,658,Springhill Junior-Senior High School,05,12,PO Box 1060 ,Springhill NS,B0M 1X0,84 Church St ,Springhill NS,B0M 1X0,conronb@ccrce.ca,902-597-4250,902-597-4251,Bernadine Conron
53,Chignecto Central Regional Centre for Education,1195,Tatamagouche Regional Academy,PP,12,92 Blair Ave ,Tatamagouche NS,B0K 1V0,92 Blair Ave ,Tatamagouche NS,B0K 1V0,holmesb@ccrce.ca,902-657-6235,902-657-6210,Brian Holmes
53,Chignecto Central Regional Centre for Education,428,Thorburn Consolidated School,PP,8,13 New Row ,Thorburn NS,B0K 1W0,13 New Row ,Thorburn NS,B0K 1W0,barkersp@ccrce.ca,902-922-3840,902-922-3844,Stephen Barker
53,Chignecto Central Regional Centre for Education,692,Trenton Elementary School,PP,4,1 Sixth St ,Trenton NS,B0K 1X0,1 Sixth St ,Trenton NS,B0K 1X0,fortunem@ccrce.ca,902-755-8460,902-755-8466,Mark Fortune
53,Chignecto Central Regional Centre for Education,690,Trenton Middle School,05,8,PO Box 10 ,Trenton NS,B0K 1X0,37 Dickie St ,Trenton NS,B0K 1X0,macdonaldos@ccrce.ca,902-755-8440,902-755-8444,Owen MacDonald
53,Chignecto Central Regional Centre for Education,1146,Truro Elementary School,PR,5,125 Curtis Dr ,Truro NS,B2N 0C5,125 Curtis Dr ,Truro NS,B2N 0C5,lyndsjn@ccrce.ca,902-896-5755,902-896-5786,Jeffrey Lynds
53,Chignecto Central Regional Centre for Education,45,Truro Junior High,06,9,445 Young St ,Truro NS,B2N 7H9,445 Young St ,Truro NS,B2N 7H9,foxt@ccrce.ca,902-896-5550,902-896-5559,Tammy Fox
53,Chignecto Central Regional Centre for Education,40,Uniacke District School,PP,9,551 Hwy 1 ,Mount Uniacke NS,B0N 1Z0,551 Hwy 1 ,Mount Uniacke NS,B0N 1Z0,kingjl2@ccrce.ca,902-866-5100,902-866-5101,Joy King
53,Chignecto Central Regional Centre for Education,18,Upper Stewiacke Elementary School,PR,6,5327 Hwy 289 ,Upper Stewiacke NS,B0N 2P0,5327 Hwy 289 ,Upper Stewiacke NS,B0N 2P0,taitka@ccrce.ca,902-671-3000,902-671-3002,Krista Tait
53,Chignecto Central Regional Centre for Education,12,Valley Elementary School,PR,4,96 Salmon River Rd ,Valley NS,B6L 2S5,96 Salmon River Rd ,Valley NS,B6L 2S5,wallk@ccrce.ca,902-896-5540,902-896-5544,Kimberly Wall
53,Chignecto Central Regional Centre for Education,227,Wallace Consolidated Elementary School,PR,6,3853 Hwy 307 ,Wallace NS,B0K 1Y0,3853 Hwy 307 ,Wallace NS,B0K 1Y0,dorndg@ccrce.ca,902-257-6100,902-257-6102,Dorian Dorn
53,Chignecto Central Regional Centre for Education,3,Walter Duggan Consolidated School,PP,6,2370 Spring Garden Rd ,Westville NS,B0K 2A0,2370 Spring Garden Rd ,Westville NS,B0K 2A0,slatera@ccrce.ca,902-396-2700,902-396-2707,Ann Slater
53,Chignecto Central Regional Centre for Education,29,West Colchester Consolidated School,PP,9,27 Maple Ave ,Bass River NS,B0M 1B0,27 Maple Ave ,Bass River NS,B0M 1B0,humek@ccrce.ca,902-647-3500,902-647-3505,Kelly Hume
53,Chignecto Central Regional Centre for Education,662,West End Memorial School,PP,6,PO Box 2139 ,Springhill NS,B0M 1X0,77 McGee St ,Springhill NS,B0M 1X0,batemansl@ccrce.ca,902-597-4242,902-597-4248,Sandra Bateman
53,Chignecto Central Regional Centre for Education,1190,West Highlands Elementary School,PP,6,18 Maltby Crt ,Amherst NS,B4H 2L6,18 Maltby Crt ,Amherst NS,B4H 2L6,riouxk@ccrce.ca,902-661-2420,902-661-2440,Kirk Rioux
53,Chignecto Central Regional Centre for Education,407,West Pictou Consolidated School,PR,8,1999 Hwy 376 ,Pictou NS,B0K 1H0,1999 Hwy 376 ,Pictou NS,B0K 1H0,turnerca@ccrce.ca,902-485-7960,902-485-7966,Cynthia Turner
53,Chignecto Central Regional Centre for Education,1148,Winding River Consolidated School ,PP,6,PO Box 249 ,Stewiacke NS,B0N 2J0,272 Kitchener St ,Stewiacke NS,B0N 2J0,oakleyc@ccrce.ca,902-639-3199,902-639-3196,Clint Oakley
54,Halifax Regional Centre for Education,228,A. J. Smeltzer Junior High School ,06,8,46 Prince St ,Lower Sackville NS,B4C 1L1,46 Prince St ,Lower Sackville NS,B4C 1L1,ajs@hrce.ca,902-864-6846,902-864-6852,Adam Griffin
54,Halifax Regional Centre for Education,512,Admiral Westphal Elementary School,PP,6,6 Fourth St ,Dartmouth NS,B2X 3A5,6 Fourth St ,Dartmouth NS,B2X 3A5,awes@hrce.ca,902-435-8305,902-435-1749,Sherri MacDonald
54,Halifax Regional Centre for Education,513,Alderney Elementary School ,PP,6,2 Penhorn Dr ,Dartmouth NS,B2Y 3K1,2 Penhorn Dr ,Dartmouth NS,B2Y 3K1,alderney@hrce.ca,902-464-2040,902-464-2686,Stephanie Lockhart
54,Halifax Regional Centre for Education,317,Ash Lee Jefferson Elementary School,PR,6,10 Lockview Rd ,Fall River NS,B2T 1J1,10 Lockview Rd ,Fall River NS,B2T 1J1,aljs@hrce.ca,902-860-4163,902-860-4191,Lynn Mills
54,Halifax Regional Centre for Education,739,Astral Drive Elementary School ,PR,6,236 Astral Dr ,Dartmouth NS,B2V 1B8,236 Astral Dr ,Dartmouth NS,B2V 1B8,ade@hrce.ca,902-462-8500,902-462-8600,Jerome Macdonald
54,Halifax Regional Centre for Education,749,Astral Drive Junior High School ,07,9,238 Astral Dr ,Dartmouth NS,B2V 1B8,238 Astral Dr ,Dartmouth NS,B2V 1B8,adjh@hrce.ca,902-462-8700,902-462-6047,Paul Mason
54,Halifax Regional Centre for Education,425,Atlantic Memorial-Terence Bay Elementary School ,PP,5,3591 Prospect Rd ,Shad Bay NS,B3T 1Z3,3591 Prospect Rd ,Shad Bay NS,B3T 1Z3,amtb@hrce.ca,902-852-2166,902-852-5514,Shelly Smith
54,Halifax Regional Centre for Education,326,Atlantic View Elementary School ,PP,6,3391 Lawrencetown Rd ,Lawrencetown NS,B2Z 1R5,3391 Lawrencetown Rd ,Lawrencetown NS,B2Z 1R5,atvs@hrce.ca,902-464-5245,902-464-5246,Carole DesBarres
54,Halifax Regional Centre for Education,97,Auburn Drive High School ,10,12,300 Auburn Dr ,Dartmouth NS,B2W 6E9,300 Auburn Dr ,Dartmouth NS,B2W 6E9,adhs@hrce.ca,902-462-6900,902-462-6950,Karen Hudson
54,Halifax Regional Centre for Education,104,Basinview Drive Community School ,PR,5,273 Basinview Dr ,Bedford NS,B4A 3X8,273 Basinview Dr ,Bedford NS,B4A 3X8,bdcs@hrce.ca,902-832-8450,902-832-8461,Joseph Marchand
54,Halifax Regional Centre for Education,304,Beaver Bank-Kinsac Elementary School  ,PR,6,28 Kinsac Rd ,Beaver Bank NS,B4G 1C5,28 Kinsac Rd ,Beaver Bank NS,B4G 1C5,bbks@hrce.ca,902-864-6805,902-864-6809,Kelly Clarke
54,Halifax Regional Centre for Education,752,Beaver Bank-Monarch Drive Elementary School ,PR,6,38 Monarch Dr ,Beaver Bank NS,B4E 3A5,38 Monarch Dr ,Beaver Bank NS,B4E 3A5,bbmon@hrce.ca,902-864-7540,902-864-7543,Lois Bond
54,Halifax Regional Centre for Education,268,Bedford and Forsyth Education Centres ,10,12,426 Rocky Lake Dr ,Bedford NS,B4A 2T5,426 Rocky Lake Dr ,Bedford NS,B4A 2T5,bfec@hrce.ca,902-832-8630,902-832-8409,Catherine Burton
54,Halifax Regional Centre for Education,937,Bedford South School ,PR,6,2 Oceanview Dr ,Bedford NS,B4A 4J6,2 Oceanview Dr ,Bedford NS,B4A 4J6,bedfords@hrce.ca,902-832-5800,902-832-5805,Helen Healy
54,Halifax Regional Centre for Education,291,Beechville Lakeside Timberlea Jr. Elementary School ,PR,2,22 James St ,Timberlea NS,B3T 1G9,22 James St ,Timberlea NS,B3T 1G9,bltjr@hrce.ca,902-876-3236,902-876-3238,Patricia Leger
54,Halifax Regional Centre for Education,290,Beechville Lakeside Timberlea Sr. Elementary School ,03,5,24 James St ,Timberlea NS,B3T 1G9,24 James St ,Timberlea NS,B3T 1G9,blt@hrce.ca,902-876-3230,902-876-7909,Todd Barter
54,Halifax Regional Centre for Education,514,Bel Ayr Elementary School ,PR,6,4 Bell St ,Dartmouth NS,B2W 2P3,4 Bell St ,Dartmouth NS,B2W 2P3,belayr@hrce.ca,902-435-8353,902-435-8373,David Emin
54,Halifax Regional Centre for Education,322,Bell Park Academic Centre,PP,6,4 Thomas St ,Lake Echo NS,B3E 1M6,4 Thomas St ,Lake Echo NS,B3E 1M6,bpac@hrce.ca,902-829-2388,902-829-2402,Albert Williams
54,Halifax Regional Centre for Education,515,Bicentennial School ,PP,9,85 Victoria Rd ,Dartmouth NS,B3A 1T9,85 Victoria Rd ,Dartmouth NS,B3A 1T9,bicent@hrce.ca,902-464-2094,902-464-2098,Sarah Shea
54,Halifax Regional Centre for Education,519,Brookhouse Elementary School ,PP,6,15 Christopher Ave ,Dartmouth NS,B2W 3G2,15 Christopher Ave ,Dartmouth NS,B2W 3G2,bes@hrce.ca,902-435-8318,902-435-8323,Mary-Jane Scott
54,Halifax Regional Centre for Education,286,Brookside Junior High School ,06,9,2239 Prospect Rd ,Hatchet Lake NS,B3T 1R8,2239 Prospect Rd ,Hatchet Lake NS,B3T 1R8,bjhs@hrce.ca,902-852-2062,902-852-5530,Lisa Mansfield
54,Halifax Regional Centre for Education,595,Burton Ettinger Elementary School ,PP,6,52 Alex St ,Halifax NS,B3N 2W4,52 Alex St ,Halifax NS,B3N 2W4,bees@hrce.ca,902-457-8922,902-457-8928,Tracy Foster
54,Halifax Regional Centre for Education,319,Caldwell Road Elementary School,PP,6,280 Caldwell Rd ,Dartmouth NS,B2V 1A3,280 Caldwell Rd ,Dartmouth NS,B2V 1A3,cres@hrce.ca,902-462-6010,902-462-6017,Donald Morrison
54,Halifax Regional Centre for Education,516,Caledonia Junior High School ,07,9,38 Caledonia Rd ,Dartmouth NS,B2X 1K8,38 Caledonia Rd ,Dartmouth NS,B2X 1K8,cjhs@hrce.ca,902-435-8413,902-435-8425,Lisa Vaughan
54,Halifax Regional Centre for Education,312,Caudle Park Elementary School ,PP,5,35 McGee Dr ,Lower Sackville NS,B4C 2J1,35 McGee Dr ,Lower Sackville NS,B4C 2J1,cpes@hrce.ca,902-864-6864,902-864-6896,Thomas Cleary
54,Halifax Regional Centre for Education,743,Cavalier Drive School ,PP,5,116 Cavalier Dr ,Lower Sackville NS,B4C 3L9,116 Cavalier Dr ,Lower Sackville NS,B4C 3L9,cds@hrce.ca,902-864-7524,902-864-7554,Stephen Driscoll
54,Halifax Regional Centre for Education,611,Central Spryfield School,PP,6,364 Herring Cove Rd ,Halifax NS,B3R 1V8,364 Herring Cove Rd ,Halifax NS,B3R 1V8,cses@hrce.ca,902-479-4286,902-479-4295,Crystal Pelly
54,Halifax Regional Centre for Education,1183,Charles P. Allen High School ,10,12,200 Innovation Dr ,Bedford NS,B4B 0G4,200 Innovation Dr ,Bedford NS,B4B 0G4,cpah@hrce.ca,902-832-8964,902-832-8981,Stephanie Bird
54,Halifax Regional Centre for Education,596,Chebucto Heights Elementary School ,PP,6,230 Cowie Hill Rd ,Halifax NS,B3P 2M3,230 Cowie Hill Rd ,Halifax NS,B3P 2M3,ches@hrce.ca,902-479-4298,902-479-4408,Craig Myra
54,Halifax Regional Centre for Education,1109,Citadel High School ,10,12,1855 Trollope St ,Halifax NS,B3H 0A4,1855 Trollope St ,Halifax NS,B3H 0A4,chs@hrce.ca,902-491-4444,902-491-1700,Joseph Morrison
54,Halifax Regional Centre for Education,600,Clayton Park Junior High School,07,9,45 Plateau Cres ,Halifax NS,B3M 2V7,45 Plateau Cres ,Halifax NS,B3M 2V7,cpjh@hrce.ca,902-457-8930,902-457-1646,Trina Canavan
54,Halifax Regional Centre for Education,352,Colby Village Elementary School ,PP,6,92 Colby Dr ,Dartmouth NS,B2V 1J7,92 Colby Dr ,Dartmouth NS,B2V 1J7,cves@hrce.ca,902-464-5152,902-464-5154,Robert Caume
54,Halifax Regional Centre for Education,357,Cole Harbour District High School,10,12,2 Chameau Cres ,Cole Harbour NS,B2W 4X4,2 Chameau Cres ,Cole Harbour NS,B2W 4X4,chdhs@hrce.ca,902-464-5220,902-464-5241,Dunovan Kalberlah
54,Halifax Regional Centre for Education,339,Colonel John Stuart Elementary School ,PR,6,5 John Stewart Dr ,Cole Harbour NS,B2W 4J7,5 John Stewart Dr ,Cole Harbour NS,B2W 4J7,cjses@hrce.ca,902-464-5200,902-464-5247,Trevor McGowan
54,Halifax Regional Centre for Education,517,Crichton Park Elementary School ,PR,6,49 Lyngby Ave ,Dartmouth NS,B3A 3V1,49 Lyngby Ave ,Dartmouth NS,B3A 3V1,crichton@hrce.ca,902-464-2503,902-464-2770,Constance Johnson
54,Halifax Regional Centre for Education,605,Cunard Junior High School ,07,9,121 Williams Lake Rd ,Halifax NS,B3P 1T6,121 Williams Lake Rd ,Halifax NS,B3P 1T6,cunard@hrce.ca,902-479-4418,902-479-4425,Paula Fairbairn
54,Halifax Regional Centre for Education,518,Dartmouth High School,09,12,95 Victoria Rd ,Dartmouth NS,B3A 1V2,95 Victoria Rd ,Dartmouth NS,B3A 1V2,dhs@hrce.ca,902-464-2457,902-464-2384,Eartha Monard
54,Halifax Regional Centre for Education,1193,Dartmouth South Academy,PR,8,111 Prince Arthur Ave ,Dartmouth NS,B2Y 0C5,111 Prince Arthur Ave ,Dartmouth NS,B2Y 0C5,dsa@hrce.ca,902-464-2081,902-461-0199,Adrienne Blumenthal
54,Halifax Regional Centre for Education,601,Duc d'Anville Elementary School ,PP,6,12 Clayton Park Dr ,Halifax NS,B3M 1L3,12 Clayton Park Dr ,Halifax NS,B3M 1L3,ddes@hrsb.ns.ca,902-457-8940,902-457-8945,Daniel Gilfoy
54,Halifax Regional Centre for Education,328,Duncan MacMillan High School,PP,12,481 Church Point Rd ,Sheet Harbour NS,B0J 3B0,481 Church Point Rd ,Sheet Harbour NS,B0J 3B0,dmhs@hrce.ca,902-885-2777,902-885-2790,Ronalda Reynolds
54,Halifax Regional Centre for Education,343,Dutch Settlement Elementary School,PP,6,990 Hwy 277 ,Dutch Settlement NS,B2S 2J5,990 Hwy 277 ,Dutch Settlement NS,B2S 2J5,dses@hrsb.ns.ca,902-883-3000,902-883-3001,Heather Killen
54,Halifax Regional Centre for Education,283,East St. Margarets Elementary School ,PP,6,8671 Peggy's Cove Rd ,Indian Harbour NS,B3Z 3P5,8671 Peggy's Cove Rd ,Indian Harbour NS,B3Z 3P5,estm@hrsb.ns.ca,902-823-2463,902-823-2232,Susan Casey
54,Halifax Regional Centre for Education,351,Eastern Passage Education Centre,06,8,93 Samuel Danial Dr ,Eastern Passage NS,B3G 1P7,93 Samuel Danial Dr ,Eastern Passage NS,B3G 1P7,epec@hrsb.ns.ca,902-462-8401,902-462-8403,Dorothy Hart
54,Halifax Regional Centre for Education,334,Eastern Shore District High School,10,12,35 West Petpeswick Rd ,Musquodoboit Harbour NS,B0J 2L0,35 West Petpeswick Rd ,Musquodoboit Harbour NS,B0J 2L0,esdh@hrce.ca,902-889-4025,902-889-4037,Jennifer Murray
54,Halifax Regional Centre for Education,614,Elizabeth Sutherland School ,PP,9,66 Rockingstone Rd ,Halifax NS,B3R 2C9,66 Rockingstone Rd ,Halifax NS,B3R 2C9,ess@hrsb.ns.ca,902-479-4427,902-479-4430,Sara Walker
54,Halifax Regional Centre for Education,538,Ellenvale Junior High School,07,9,88 Belle Vista Dr ,Dartmouth NS,B2W 2X7,88 Belle Vista Dr ,Dartmouth NS,B2W 2X7,ejhs@hrce.ca,902-435-8420,902-435-8469,Jeffrey Lewis
54,Halifax Regional Centre for Education,564,Eric Graves Memorial Junior High School ,07,9,70 Dorothea Dr ,Dartmouth NS,B2W 4M3,70 Dorothea Dr ,Dartmouth NS,B2W 4M3,egmjh@hrce.ca,902-435-8325,902-435-8379,Scott Wadden
54,Halifax Regional Centre for Education,599,Fairview Heights Elementary School ,PP,6,210 Coronation Ave ,Halifax NS,B3N 2N3,210 Coronation Ave ,Halifax NS,B3N 2N3,fhes@hrsb.ns.ca,902-457-8953,902-457-8957,Lynn Kazamel-Boudreau
54,Halifax Regional Centre for Education,578,Fairview Junior High School ,07,9,155 Rosedale Ave ,Halifax NS,B3N 2K2,155 Rosedale Ave ,Halifax NS,B3N 2K2,fvjh@hrsb.ns.ca,902-457-8960,902-457-8963,Leanne March
54,Halifax Regional Centre for Education,288,Five Bridges Junior High School,07,9,66 Hubley Rd ,Hubley NS,B3Z 1B9,66 Hubley Rd ,Hubley NS,B3Z 1B9,fbjh@hrsb.ns.ca,902-876-2026,902-876-7177,Joanne Kirkpatrick
54,Halifax Regional Centre for Education,356,Gaetz Brook Junior High School,07,9,6856 Hwy 7 ,Head of Chezzetcook NS,B0J 1N0,6856 Hwy 7 ,Head of Chezzetcook NS,B0J 1N0,gbjhs@hrce.ca,902-827-4666,902-827-5430,David Reed
54,Halifax Regional Centre for Education,731,George Bissett Elementary School,PP,6,170 Arklow Dr ,Dartmouth NS,B2W 4R6,170 Arklow Dr ,Dartmouth NS,B2W 4R6,gbes@hrce.ca,902-464-5184,902-464-5187,John Fry
54,Halifax Regional Centre for Education,314,Georges P. Vanier Junior High School,07,8,1410 Fall River Rd ,Fall River NS,B2T 1J1,1410 Fall River Rd ,Fall River NS,B2T 1J1,vanier@hrsb.ns.ca,902-860-4182,902-860-4188,Lee Anne Amaral
54,Halifax Regional Centre for Education,568,Gorsebrook Junior High School,07,9,5966 South St ,Halifax NS,B3H 1S6,5966 South St ,Halifax NS,B3H 1S6,gjh@hrsb.ns.ca,902-421-6758,902-421-2709,David Leblanc
54,Halifax Regional Centre for Education,318,Graham Creighton Junior High School,07,9,72 Cherry Brook Rd ,Cherry Brook NS,B2Z 1A8,72 Cherry Brook Rd ,Cherry Brook NS,B2Z 1A8,gcjh@hrsb.ns.ca,902-464-5164,902-464-5173,Andrew Hickman
54,Halifax Regional Centre for Education,602,Grosvenor-Wentworth Park Elementary School ,PP,6,4 Downing St ,Halifax NS,B3M 2G4,4 Downing St ,Halifax NS,B3M 2G4,gwp@hrce.ca,902-457-8422,902-457-8430,Brendon MacGillivray
54,Halifax Regional Centre for Education,567,Halifax Central Junior High School ,07,9,1787 Preston St ,Halifax NS,B3H 3V7,1787 Preston St ,Halifax NS,B3H 3V7,central@hrce.ca,902-421-6777,902-421-2868,Robert MacMillan
54,Halifax Regional Centre for Education,592,Halifax West High School ,10,12,283 Thomas Raddall Dr ,Halifax NS,B3S 1R1,283 Thomas Raddall Dr ,Halifax NS,B3S 1R1,hwhs@hrce.ca,902-457-8900,902-457-8980,Gregory MacKinnon
54,Halifax Regional Centre for Education,306,Hammonds Plains Consolidated School ,PR,5,2180 Hammonds Plains Rd ,Hammonds Plains NS,B4B 1M5,2180 Hammonds Plains Rd ,Hammonds Plains NS,B4B 1M5,hpcs@hrsb.ns.ca,902-832-8412,902-832-8420,Diana Corkum
54,Halifax Regional Centre for Education,521,Harbour View Elementary School ,PP,6,25 Alfred St ,Dartmouth NS,B3A 4E8,25 Alfred St ,Dartmouth NS,B3A 4E8,hves@hrce.ca,902-464-2051,902-464-2282,Kim LeBlanc
54,Halifax Regional Centre for Education,740,Harold T. Barrett Junior High School ,07,8,862 Beaver Bank Rd ,Beaver Bank NS,B4G 1A9,862 Beaver Bank Rd ,Beaver Bank NS,B4G 1A9,htbar@hrsb.ns.ca,902-864-7500,902-864-7502,Ivan Skeete
54,Halifax Regional Centre for Education,296,Harrietsfield Elementary School ,PP,6,1150 Old Sambro Rd ,Harrietsfield NS,B3V 1B1,1150 Old Sambro Rd ,Harrietsfield NS,B3V 1B1,hes@hrce.ca,902-479-4230,902-479-4235,Teri McGinn
54,Halifax Regional Centre for Education,313,Harry R. Hamilton Elementary School ,PR,5,40 Hamilton Dr ,Middle Sackville NS,B4E 3A9,40 Hamilton Dr ,Middle Sackville NS,B4E 3A9,hrh@hrsb.ns.ca,902-864-6815,902-864-6820,Ethel Gourley
54,Halifax Regional Centre for Education,522,Hawthorn Elementary School ,PP,6,10 Hawthorne St ,Dartmouth NS,B2Y 2Y3,10 Hawthorne St ,Dartmouth NS,B2Y 2Y3,hawthorn@hrsb.ns.ca,902-464-2048,902-464-2799,Darcel Williams-Hart
54,Halifax Regional Centre for Education,293,Herring Cove Junior High School ,07,9,7 Lancaster Dr ,Herring Cove NS,B3V 1H9,7 Lancaster Dr ,Herring Cove NS,B3V 1H9,hcjh@hrsb.ns.ca,902-479-4214,902-479-3379,Sean MacDonald
54,Halifax Regional Centre for Education,571,Highland Park Junior High School ,07,9,3479 Robie St ,Halifax NS,B3K 4S4,3479 Robie St ,Halifax NS,B3K 4S4,hpjh@hrce.ca,902-493-5124,902-493-5130,Carla Christianson
54,Halifax Regional Centre for Education,310,Hillside Park Elementary School ,PP,5,15 Hillside Ave ,Lower Sackville NS,B4C 1W6,15 Hillside Ave ,Lower Sackville NS,B4C 1W6,hpes@hrsb.ns.ca,902-864-6873,902-864-6878,Kelly Joy
54,Halifax Regional Centre for Education,747,Holland Road Elementary School ,PR,6,181 Holland Rd ,Fletchers Lake NS,B2T 1A1,181 Holland Rd ,Fletchers Lake NS,B2T 1A1,hres@hrce.ca,902-860-4170,902-860-4173,Carol-Anne Larade
54,Halifax Regional Centre for Education,327,Humber Park Elementary School ,PP,6,5 Smallwood Ave ,Dartmouth NS,B2W 3R6,5 Smallwood Ave ,Dartmouth NS,B2W 3R6,hps@hrce.ca,902-464-5177,902-464-5182,Tracey White
54,Halifax Regional Centre for Education,523,Ian Forsyth Elementary School,PP,6,22 Glencoe Dr ,Dartmouth NS,B2X 1J1,22 Glencoe Dr ,Dartmouth NS,B2X 1J1,ifes@hrsb.ns.ca,902-435-8435,902-435-8365,Angela Yerxa-Weeks
54,Halifax Regional Centre for Education,579,Inglis Street Elementary School,PP,6,5985 Inglis St ,Halifax NS,B3H 1K7,5985 Inglis St ,Halifax NS,B3H 1K7,ises@hrsb.ns.ca,902-421-6767,902-421-3028,Matthew Hartlen
54,Halifax Regional Centre for Education,1196,Island View High School,09,12,1853 Caldwell Rd ,Eastern Passage NS,B3G 1J3,1853 Caldwell Rd ,Eastern Passage NS,B3G 1J3,ivh@hrsb.ca,902-466-6341,902-466-6348,Patrick Savage
54,Halifax Regional Centre for Education,619,J. L. Ilsley High School,10,12,38 Sylvia Ave ,Halifax NS,B3R 1J9,38 Sylvia Ave ,Halifax NS,B3R 1J9,jli@hrsb.ns.ca,902-479-4612,902-479-4635,Ralph McKelvie
54,Halifax Regional Centre for Education,539,John MacNeil Elementary School ,PP,6,62 Leaman Dr ,Dartmouth NS,B3A 2K9,62 Leaman Dr ,Dartmouth NS,B3A 2K9,jmes@hrsb.ns.ca,902-464-2488,902-464-2616,Philip Daigle
54,Halifax Regional Centre for Education,524,John Martin Junior High School ,07,9,7 Brule St ,Dartmouth NS,B3A 4G2,7 Brule St ,Dartmouth NS,B3A 4G2,jmjh@hrsb.ns.ca,902-464-2408,902-464-2062,Joseph MacDonald
54,Halifax Regional Centre for Education,607,John W. MacLeod-Fleming Tower Elementary School ,PR,6,1511 Purcell's Cove Rd ,Halifax NS,B3P 1B7,1511 Purcell's Cove Rd ,Halifax NS,B3P 1B7,jwm@hrsb.ns.ca,902-479-4437,902-479-4442,Emily Quigley
54,Halifax Regional Centre for Education,354,Joseph Giles Elementary School ,PR,6,54 Gregory Dr ,Dartmouth NS,B2W 3M6,54 Gregory Dr ,Dartmouth NS,B2W 3M6,jges@hrsb.ns.ca,902-464-5192,902-464-5197,James Hurley
54,Halifax Regional Centre for Education,569,Joseph Howe Elementary School ,PP,6,2557 Maynard St ,Halifax NS,B3K 3V6,2557 Maynard St ,Halifax NS,B3K 3V6,jhowe@hrsb.ns.ca,902-421-6785,902-421-8744,Steven Hutchins
54,Halifax Regional Centre for Education,1103,Kingswood Elementary School ,PR,6,34 Vrege Crt ,Hammonds Plains NS,B4B 1K2,34 Vrege Crt ,Hammonds Plains NS,B4B 1K2,kwe@hrsb.ns.ca,902-832-5522,902-832-5524,Andrea Briand
54,Halifax Regional Centre for Education,1200,LeMarchant-St. Thomas Elementary School ,PR,6,6141 Watt St ,Halifax NS,B3H 2B7,6141 Watt St ,Halifax NS,B3H 2B7,lmsts@hrce.ca,902-421-6769,902-421-3036,Moira Cavanaugh
54,Halifax Regional Centre for Education,353,Leslie Thomas Junior High School ,06,8,100 Metropolitan Ave ,Lower Sackville NS,B4C 2Z8,100 Metropolitan Ave ,Lower Sackville NS,B4C 2Z8,ltjh@hrce.ca,902-864-6785,902-864-6797,Benedette Anyanwu
54,Halifax Regional Centre for Education,968,Lockview High School ,09,12,148 Lockview Rd ,Fall River NS,B2T 1J1,148 Lockview Rd ,Fall River NS,B2T 1J1,lhs@hrce.ca,902-860-6000,902-860-6005,Bernard MacEachern
54,Halifax Regional Centre for Education,939,Madeline Symonds Middle School,06,9,290 White Hills Run ,Hammonds Plains NS,B4B 1W6,290 White Hills Run ,Hammonds Plains NS,B4B 1W6,msms@hrsb.ns.ca,902-832-2300,902-832-2302,Kimberley Acorn
54,Halifax Regional Centre for Education,526,Michael Wallace Elementary School,PR,6,24 Andover St ,Dartmouth NS,B2X 2L9,24 Andover St ,Dartmouth NS,B2X 2L9,mwes@hrce.ca,902-435-8357,902-435-8395,Janice Wells
54,Halifax Regional Centre for Education,748,Millwood Elementary School ,PP,5,190 Beaver Bank Cross Rd ,Lower Sackville NS,B4E 1K5,190 Beaver Bank Cross Rd ,Lower Sackville NS,B4E 1K5,mes@hrce.ca,902-864-7510,902-864-7518,Michelle Andrews
54,Halifax Regional Centre for Education,745,Millwood High School ,09,12,141 Millwood Dr ,Middle Sackville NS,B4E 0A1,141 Millwood Dr ,Middle Sackville NS,B4E 0A1,mwhs@hrce.ca,902-864-7535,902-864-7567,Stephen Corkum
54,Halifax Regional Centre for Education,527,Mount Edward Elementary School ,PP,6,3 Windward Ave ,Dartmouth NS,B2W 2G9,3 Windward Ave ,Dartmouth NS,B2W 2G9,mees@hrsb.ns.ca,902-435-8459,902-435-8414,Andrea Temple
54,Halifax Regional Centre for Education,1149,Musquodoboit Rural High School ,07,12,11980 Hwy 224 ,Middle Musquodoboit NS,B0N 1X0,11980 Hwy 224 ,Middle Musquodoboit NS,B0N 1X0,mrhs@hrsb.ns.ca,902-384-2320,902-384-2321,Shaun Sheehan
54,Halifax Regional Centre for Education,348,Musquodoboit Valley Education Centre ,PP,6,PO Box 99 ,Middle Musquodoboit NS,B0N 1X0,12046 Hwy 224 ,Middle Musquodoboit NS,B0N 1X0,mvec@hrsb.ns.ca,902-384-2555,902-384-2419,Aaron Verge
54,Halifax Regional Centre for Education,324,Nelson Whynder Elementary School ,PP,6,979 North Preston Rd ,North Preston NS,B2Z 1A2,979 North Preston Rd ,North Preston NS,B2Z 1A2,nwes@hrce.ca,902-462-6030,902-462-6033,Anne Johnson-McDonald
54,Halifax Regional Centre for Education,56,Ocean View Elementary School ,PP,3,51 Oceanview School Rd ,Eastern Passage NS,B3G 1J3,51 Oceanview School Rd ,Eastern Passage NS,B3G 1J3,oves@hrce.ca,902-465-8670,902-465-8673,Mamoona Brace
54,Halifax Regional Centre for Education,131,O'Connell Drive Elementary School ,PP,6,40 O'Connell Dr ,Porters Lake NS,B3E 1E8,40 O'Connell Dr ,Porters Lake NS,B3E 1E8,ocdes@hrce.ca,902-827-4112,902-827-3120,Dwight Lucas
54,Halifax Regional Centre for Education,315,Oldfield Consolidated School,PP,6,72 Halls Rd ,Enfield NS,B2T 1C4,72 Halls Rd ,Enfield NS,B2T 1C4,ocs@hrsb.ns.ca,902-883-3010,902-883-3011,Kellie West
54,Halifax Regional Centre for Education,572,Oxford School ,PR,9,6364 North St ,Halifax NS,B3L 1P6,6364 North St ,Halifax NS,B3L 1P6,oxford@hrce.ca,902-421-6763,902-421-3043,Janice Gillespie
54,Halifax Regional Centre for Education,1141,Oyster Pond Academy,PP,9,10583 Hwy 7 ,Oyster Pond NS,B0J 1W0,10583 Hwy 7 ,Oyster Pond NS,B0J 1W0,opa@hrce.ca,902-889-4300,902-889-4310,Barbara Gromick
54,Halifax Regional Centre for Education,970,Park West School ,PR,9,206 Langbrae Dr ,Halifax NS,B3S 1L5,206 Langbrae Dr ,Halifax NS,B3S 1L5,parkwest@hrce.ca,902-457-7800,902-457-7804,Derek Carter
54,Halifax Regional Centre for Education,1159,Porters Lake Elementary School ,PR,6,40 Inspiration Dr ,Porters Lake NS,B3E 0A6,40 Inspiration Dr ,Porters Lake NS,B3E 0A6,ples@hrce.ca,902-827-2525,902-827-5410,Robin Legge
54,Halifax Regional Centre for Education,969,Portland Estates Elementary School ,PR,6,45 Portland Hills Dr ,Dartmouth NS,B2W 6L5,45 Portland Hills Dr ,Dartmouth NS,B2W 6L5,portland@hrsb.ns.ca,902-433-7100,902-433-7103,Louise Henman-Poirier
54,Halifax Regional Centre for Education,533,Prince Andrew High School ,10,12,31 Woodlawn Rd ,Dartmouth NS,B2W 2R7,31 Woodlawn Rd ,Dartmouth NS,B2W 2R7,pah@hrsb.ns.ca,902-435-8452,902-435-8398,James McGowan
54,Halifax Regional Centre for Education,282,Prospect Road Elementary School ,PR,5,2199 Prospect Rd ,Hatchet Lake NS,B3T 1R8,2199 Prospect Rd ,Hatchet Lake NS,B3T 1R8,pres@hrsb.ns.ca,902-852-2441,902-852-5542,Lisa Taylor
54,Halifax Regional Centre for Education,938,Ridgecliff Middle School,06,9,35 Beech Tree Run ,Beechville NS,B3T 2E5,35 Beech Tree Run ,Beechville NS,B3T 2E5,rms@hrsb.ns.ca,902-876-4381,902-876-4385,James Moore
54,Halifax Regional Centre for Education,359,Robert K. Turner Elementary School ,PP,6,141 Circassion Dr ,Dartmouth NS,B2W 4N7,141 Circassion Dr ,Dartmouth NS,B2W 4N7,rkt@hrsb.ns.ca,902-464-5205,902-464-5208,Janice Graham
54,Halifax Regional Centre for Education,603,Rockingham Elementary School ,PP,6,31 Tremont Dr ,Halifax NS,B3M 1X8,31 Tremont Dr ,Halifax NS,B3M 1X8,rockingham@hrce.ca,902-457-8986,902-457-8993,Brian Toner
54,Halifax Regional Centre for Education,609,Rockingstone Heights School ,PP,9,1 Regan Dr ,Halifax NS,B3R 2J1,1 Regan Dr ,Halifax NS,B3R 2J1,rhes@hrce.ca,902-479-4452,902-479-4459,Amy Weedon
54,Halifax Regional Centre for Education,1187,Rocky Lake Junior High School ,06,9,670 Rocky Lake Dr ,Bedford NS,B4A 2T6,670 Rocky Lake Dr ,Bedford NS,B4A 2T6,rljh@hrsb.ns.ca,902-832-8952,902-832-8962,Donald Reardon
54,Halifax Regional Centre for Education,321,Ross Road School ,PP,9,336 Ross Rd ,Westphal NS,B2Z 1H2,336 Ross Rd ,Westphal NS,B2Z 1H2,rrs@hrsb.ns.ca,902-462-8340,902-462-8398,Aaron Cannon
54,Halifax Regional Centre for Education,311,Sackville Heights Elementary School ,PR,5,1225 Old Sackville Rd ,Middle Sackville NS,B4E 3A6,1225 Old Sackville Rd ,Middle Sackville NS,B4E 3A6,shes@hrce.ca,902-869-4700,902-869-4703,Kimberley Michaud
54,Halifax Regional Centre for Education,303,Sackville Heights Junior High School ,06,8,956 Sackville Dr ,Lower Sackville NS,B4E 1S4,956 Sackville Dr ,Lower Sackville NS,B4E 1S4,shjh@hrce.ca,902-869-3800,902-869-3801,Kelly MacLeod
54,Halifax Regional Centre for Education,297,Sackville High School ,09,12,1 Kingfisher Way ,Lower Sackville NS,B4C 2Y9,1 Kingfisher Way ,Lower Sackville NS,B4C 2Y9,shs@hrce.ca,902-864-6700,902-864-6710,John Miller
54,Halifax Regional Centre for Education,581,Saint Mary's Elementary School ,PR,6,5614 Morris St ,Halifax NS,B3J 1C2,5614 Morris St ,Halifax NS,B3J 1C2,stmarys@hrsb.ns.ca,902-421-6749,902-421-2655,Suzanne Cookson-Wehbe
54,Halifax Regional Centre for Education,295,Sambro Elementary School ,PP,6,3725 Old Sambro Rd ,Sambro NS,B3V 1G1,3725 Old Sambro Rd ,Sambro NS,B3V 1G1,ses@hrce.ca,902-868-2717,902-868-1808,Catherine Bouliane
54,Halifax Regional Centre for Education,941,Seaside Elementary School ,04,5,1881 Caldwell Rd ,Eastern Passage NS,B3G 1J3,1881 Caldwell Rd ,Eastern Passage NS,B3G 1J3,seaside@hrsb.ns.ca,902-465-7600,902-465-8662,Tyler Rutledge
54,Halifax Regional Centre for Education,534,Shannon Park Elementary School ,PR,6,75 Iroquois Dr ,Dartmouth NS,B3A 4M5,75 Iroquois Dr ,Dartmouth NS,B3A 4M5,spes@hrce.ca,902-464-2084,902-464-2866,Sherrial Maloney
54,Halifax Regional Centre for Education,287,Shatford Memorial Elementary School ,PR,6,10089 St. Margaret's Bay Rd ,Hubbards NS,B0J 1T0,10089 St. Margaret's Bay Rd ,Hubbards NS,B0J 1T0,smes@hrsb.ns.ca,902-857-4200,902-857-4204,Sarah Wile
54,Halifax Regional Centre for Education,589,Sir Charles Tupper School ,PP,6,1930 Cambridge St ,Halifax NS,B3H 4S5,1930 Cambridge St ,Halifax NS,B3H 4S5,tupper@hrce.ca,902-421-6775,902-421-3049,Patricia Woodbury
54,Halifax Regional Centre for Education,277,Sir John A. Macdonald High School ,10,12,31 Scholars Rd ,Upper Tantallon NS,B3Z 0C3,31 Scholars Rd ,Upper Tantallon NS,B3Z 0C3,sja@hrsb.ns.ca,902-826-3222,902-826-3220,Darlene Fitzgerald
54,Halifax Regional Centre for Education,320,Sir Robert Borden Junior High School ,07,9,16 Evergreen Dr ,Dartmouth NS,B2W 4A7,16 Evergreen Dr ,Dartmouth NS,B2W 4A7,srbjh@hrsb.ns.ca,902-464-5140,902-464-5150,Joseph Beuckx
54,Halifax Regional Centre for Education,355,Smokey Drive Elementary School ,PR,5,241 Smokey Dr ,Lower Sackville NS,B4C 3G1,241 Smokey Dr ,Lower Sackville NS,B4C 3G1,sdes@hrsb.ns.ca,902-864-6838,902-864-6844,Carolyn Thompson
54,Halifax Regional Centre for Education,535,South Woodside School ,PP,6,5 Everette St ,Dartmouth NS,B2W 1G2,5 Everette St ,Dartmouth NS,B2W 1G2,swes@hrsb.ns.ca,902-464-2090,902-464-2778,Valarie MacIntyre-Shannon
54,Halifax Regional Centre for Education,593,Springvale Elementary School ,PP,6,92 Downs Ave ,Halifax NS,B3N 1Y6,92 Downs Ave ,Halifax NS,B3N 1Y6,sprvale@hrce.ca,902-479-4606,902-479-4473,Vincent MacNeil
54,Halifax Regional Centre for Education,575,St. Agnes Junior High School ,07,9,6981 Mumford Rd ,Halifax NS,B3L 2H7,6981 Mumford Rd ,Halifax NS,B3L 2H7,stagnes@hrce.ca,902-493-5132,902-493-5140,Barrett Khan
54,Halifax Regional Centre for Education,577,St. Catherine's Elementary School ,PP,6,3299 Connolly St ,Halifax NS,B3L 3P7,3299 Connolly St ,Halifax NS,B3L 3P7,stcath@hrsb.ns.ca,902-493-5143,902-493-5163,Rosaline Bona
54,Halifax Regional Centre for Education,580,St. Joseph's-Alexander McKay Elementary School ,PP,6,5389 Russell St ,Halifax NS,B3K 1W8,5389 Russell St ,Halifax NS,B3K 1W8,sjam@hrce.ca,902-493-5180,902-493-5186,Natalie Hagerty
54,Halifax Regional Centre for Education,940,St. Margaret's Bay Elementary School ,PR,6,24 Ridgewood Dr ,Head of St. Margaret's Bay NS,B3Z 2H4,24 Ridgewood Dr ,Head of St. Margaret's Bay NS,B3Z 2H4,smbe@hrsb.ns.ca,902-826-3300,902-826-3310,Paula Hoyt
54,Halifax Regional Centre for Education,586,St. Stephen's Elementary School ,PP,6,3669 Highland Ave ,Halifax NS,B3K 4L9,3669 Highland Ave ,Halifax NS,B3K 4L9,sses@hrce.ca,902-493-5155,902-493-5158,Frances Waterman-O'Connell
54,Halifax Regional Centre for Education,299,Sunnyside Elementary School,PP,6,210 Eaglewood Dr ,Bedford NS,B4A 3E3,210 Eaglewood Dr ,Bedford NS,B4A 3E3,sunnyside@hrce.ca,902-832-8983,902-832-8422,Christine Gallant
54,Halifax Regional Centre for Education,307,Sycamore Lane Elementary School ,PP,5,69 Sycamore Lane ,Lower Sackville NS,B4C 1E8,69 Sycamore Lane ,Lower Sackville NS,B4C 1E8,sles@hrsb.ns.ca,902-864-6730,902-864-6734,Angela Comeau
54,Halifax Regional Centre for Education,85,Tallahassee Community School ,PP,3,168 Redoubt Way ,Eastern Passage NS,B3G 1M5,168 Redoubt Way ,Eastern Passage NS,B3G 1M5,tcs@hrsb.ns.ca,902-465-8650,902-465-8010,Nancy Liberatore
54,Halifax Regional Centre for Education,1186,Tantallon Junior Elementary School ,PR,2,1 French Village Stn Rd ,Upper Tantallon NS,B3Z 1E4,1 French Village Stn Rd ,Upper Tantallon NS,B3Z 1E4,tantallonjr@hrce.ca,902-826-1204,902-826-1369,Ken Rutley
54,Halifax Regional Centre for Education,284,Tantallon Senior Elementary School ,03,6,3 French Village Stn Rd ,Upper Tantallon NS,B3Z 1E4,3 French Village Stn Rd ,Upper Tantallon NS,B3Z 1E4,tantallon@hrsb.ca,902-826-1200,902-826-1206,Grant Davy
54,Halifax Regional Centre for Education,349,Upper Musquodoboit Consolidated Elementary School ,PP,6,8416 Hwy 224 ,Upper Musquodoboit NS,B0N 2M0,8416 Hwy 224 ,Upper Musquodoboit NS,B0N 2M0,umcs@hrsb.ns.ca,902-568-2285,902-568-2573,Aaron Verge
54,Halifax Regional Centre for Education,1157,Waverley Memorial Elementary School,PR,6,2393 Rocky Lake Dr ,Waverley NS,B2R 1S4,2393 Rocky Lake Dr ,Waverley NS,B2R 1S4,wmlcs@hrce.ca,902-860-4150,902-860-4154,Karla Wolfe
54,Halifax Regional Centre for Education,591,Westmount Elementary School ,PR,6,6700 Edward Arab Ave ,Halifax NS,B3L 2E1,6700 Edward Arab Ave ,Halifax NS,B3L 2E1,wmount@hrce.ca,902-493-5164,902-493-5168,Cynthia Astephen
54,Halifax Regional Centre for Education,294,William King Elementary School ,PP,6,91 St. Paul's Ave ,Herring Cove NS,B3V 1H6,91 St. Paul's Ave ,Herring Cove NS,B3V 1H6,wkes@hrsb.ns.ca,902-479-4200,902-479-4208,Tracy Marchand
55,Annapolis Valley Regional Centre for Education,63,Aldershot Elementary School,PP,5,446 Aldershot Rd ,Kentville NS,B4N 3A1,446 Aldershot Rd ,Kentville NS,B4N 3A1,aes@avrce.ca,902-690-3820,902-690-3823,Crystal Turner-Tracy
55,Annapolis Valley Regional Centre for Education,746,Annapolis East Elementary School,PR,5,PO Box 640 ,Middleton NS,B0S 1P0,325 Marshall St ,Middleton NS,B0S 1P0,aees@avrce.ca,902-825-5330,902-825-5333,Nancy Illsley
55,Annapolis Valley Regional Centre for Education,133,Annapolis West Education Centre,06,12,PO Box 399 ,Annapolis Royal NS,B0S 1A0,100 Champlain Dr ,Annapolis Royal NS,B0S 1A0,awec@avrce.ca,902-532-3150,902-532-3160,Sue Ann Cooper
55,Annapolis Valley Regional Centre for Education,993,Avon View High School,09,12,PO Box 700 ,Windsor NS,B0N 2T0,225 Payzant Dr ,Windsor NS,B0N 2T0,avhs@avrce.ca,902-792-6740,902-792-6762,Cynthia Dickie
55,Annapolis Valley Regional Centre for Education,75,Berwick and District School,PP,8,PO Box 40 ,Berwick NS,B0P 1E0,249 Veterans Dr ,Berwick NS,B0P 1E0,bads@avrce.ca,902-538-4720,902-538-4727,William Doucet
55,Annapolis Valley Regional Centre for Education,1192,Bridgetown Regional Community School,PP,12,25 Cromwell Crt ,Bridgetown NS,B0S 1C0,25 Cromwell Crt ,Bridgetown NS,B0S 1C0,brcs@avrce.ca,902-665-5400,902-665-5404,Darlene Thomas
55,Annapolis Valley Regional Centre for Education,363,Brooklyn District Elementary School,PR,5,8008 Hwy 14 ,Newport NS,B0N 2A0,8008 Hwy 14 ,Newport NS,B0N 2A0,bdes@avrce.ca,902-757-4120,902-757-4125,Brenda Mullins
55,Annapolis Valley Regional Centre for Education,58,Cambridge and District Elementary School,PP,5,6113 Hwy 1 ,Cambridge NS,B0P 1G0,6113 Hwy 1 ,Cambridge NS,B0P 1G0,cads@avrce.ca,902-538-4680,902-538-4686,Renee Levy
55,Annapolis Valley Regional Centre for Education,67,Central Kings Rural High School,04,12,6125 Hwy 1 ,Cambridge NS,B0P 1G0,6125 Hwy 1 ,Cambridge NS,B0P 1G0,ck@avrce.ca,902-538-4700,902-538-4711,Matthew Butler
55,Annapolis Valley Regional Centre for Education,965,Champlain Elementary School,PP,5,PO Box 130 ,Granville Ferry NS,B0S 1K0,109 North St ,Granville Ferry NS,B0S 1K0,ces@avrce.ca,902-532-3270,902-532-3273,Jan Ross
55,Annapolis Valley Regional Centre for Education,141,Clark Rutherford Memorial School,PP,5,PO Box 70 ,Clementsport NS,B0S 1E0,234 Spinnaker Dr ,Clementsport NS,B0S 1E0,crms@avrce.ca,902-638-4800,902-638-4804,Sharon Reid
55,Annapolis Valley Regional Centre for Education,732,Coldbrook and District School,PP,8,2305 English Mountain Rd ,Coldbrook NS,B4R 1B6,2305 English Mountain Rd ,Coldbrook NS,B4R 1B6,cbds@avrce.ca,902-690-3830,902-690-3833,Cherrie Goss
55,Annapolis Valley Regional Centre for Education,366,Dr. Arthur Hines Elementary School,PP,5,75 Musgrave Rd ,Summerville NS,B0N 2K0,75 Musgrave Rd ,Summerville NS,B0N 2K0,dahes@avrce.ca,902-633-6300,902-633-6303,Shelley Regan
55,Annapolis Valley Regional Centre for Education,65,Dwight Ross Elementary School,PP,5,PO Box 1420 ,Greenwood NS,B0P 1N0,949 Tremont Mountain Rd ,Greenwood NS,B0P 1N0,dres@avrce.ca,902-765-7510,902-765-7520,Karen Lander-Pinard
55,Annapolis Valley Regional Centre for Education,753,Evangeline Middle School,06,8,9387 Commercial St ,New Minas NS,B4N 3G3,9387 Commercial St ,New Minas NS,B4N 3G3,ems@avrce.ca,902-681-4910,902-681-4909,Stanley MacVicar
55,Annapolis Valley Regional Centre for Education,362,Falmouth District School,PR,5,PO Box 40 ,Falmouth NS,B0P 1L0,30 School St ,Falmouth NS,B0P 1L0,fds@avrce.ca,902-792-6710,902-792-6717,Kimberley Frank
55,Annapolis Valley Regional Centre for Education,60,Gaspereau Valley Elementary School,PP,5,2781 Greenfield Rd ,Wolfville NS,B4P 2R1,2781 Greenfield Rd ,Wolfville NS,B4P 2R1,gves@avrce.ca,902-542-6090,902-542-6096,Ruth MacLeod
55,Annapolis Valley Regional Centre for Education,59,Glooscap Elementary School,PP,5,RR 5 1017 J Jordan Rd ,Canning NS,B0P 1H0,1017 J Jordan Rd ,Canning NS,B0P 1H0,ges@avrce.ca,902-582-2010,902-582-2015,Lorne Guy
55,Annapolis Valley Regional Centre for Education,24,Hantsport School,PP,8,PO Box 392 ,Hantsport NS,B0P 1P0,11 School St ,Hantsport NS,B0P 1P0,hs@avrce.ca,902-684-4000,902-684-4004,Ruth Anne Greenough
55,Annapolis Valley Regional Centre for Education,998,Highbury Education Centre,10,12,26 Highbury Rd ,New Minas NS,B4N 3P7,26 Highbury Rd ,New Minas NS,B4N 3P7,hec@avrce.ca,902-681-4930,902-681-4931,Stephen Rovers
55,Annapolis Valley Regional Centre for Education,70,Horton High School,09,12,75 Greenwich Rd S ,Wolfville NS,B4P 2R2,75 Greenwich Rd S ,Wolfville NS,B4P 2R2,hhs@avrce.ca,902-542-6060,902-542-6066,Jodye Routledge
55,Annapolis Valley Regional Centre for Education,1158,Kings County Academy,PP,8,35 Gary Pearl Dr ,Kentville NS,B4N 0H4,35 Gary Pearl Dr ,Kentville NS,B4N 0H4,kca@avrce.ca,902-690-3850,902-690-3864,Victoria Laurence
55,Annapolis Valley Regional Centre for Education,379,Kings County Adult High School,10,12,26 Highbury Rd ,New Minas NS,B4N 3P7,26 Highbury Rd ,New Minas NS,B4N 3P7,kcahs@avrce.ca,902-681-4930,902-681-4931,Stephen Rovers
55,Annapolis Valley Regional Centre for Education,62,Kingston and District School,PR,5,PO Box 295 ,Kingston NS,B0P 1R0,630 Pine Ridge Ave ,Kingston NS,B0P 1R0,kingston@avrce.ca,902-765-7530,902-765-7535,Bernice Jackson
55,Annapolis Valley Regional Centre for Education,61,L.E. Shaw Elementary School,PP,5,486 Oak Island Rd ,Avonport NS,B0P 1B0,486 Oak Island Rd ,Avonport NS,B0P 1B0,leses@avrce.ca,902-542-6900,902-542-6905,Cordelia Gallant
55,Annapolis Valley Regional Centre for Education,129,Lawrencetown Consolidated School,PP,5,RR 1 10 Middle Rd ,Lawrencetown NS,B0S 1M0,10 Middle Rd ,Lawrencetown NS,B0S 1M0,lcs@avrce.ca,902-584-4500,902-584-4505,Paula-Ann Shehata
55,Annapolis Valley Regional Centre for Education,1108,Lawrencetown Education Centre,07,12,RR 1 10 Middle Rd ,Lawrencetown NS,B0S 1M0,10 Middle Rd ,Lawrencetown NS,B0S 1M0,lec@avrce.ca,902-584-4524,902-584-4528,James Peppard
55,Annapolis Valley Regional Centre for Education,712,Middleton Regional High School,06,12,18 Gates Ave ,Middleton NS,B0S 1P0,18 Gates Ave ,Middleton NS,B0S 1P0,mrhs@avrce.ca,902-825-5350,902-825-5355,Gregory Bower
55,Annapolis Valley Regional Centre for Education,73,New Minas Elementary School,PR,5,34 Jones Rd ,New Minas NS,B4N 3N1,34 Jones Rd ,New Minas NS,B4N 3N1,nmes@avrce.ca,902-681-4900,902-681-4904,Eric Trahan
55,Annapolis Valley Regional Centre for Education,967,Northeast Kings Education Centre,06,12,1816 Bains Rd ,Canning NS,B0P 1H0,1816 Bains Rd ,Canning NS,B0P 1H0,nkec@avrce.ca,902-582-2040,902-582-2044,Kevin Veinot
55,Annapolis Valley Regional Centre for Education,966,Pine Ridge Middle School,06,8,625 Pine Ridge Ave ,Kingston NS,B0P 1R0,625 Pine Ridge Ave ,Kingston NS,B0P 1R0,prms@avrce.ca,902-765-7570,902-765-7572,Catherine Rafuse
55,Annapolis Valley Regional Centre for Education,72,Port Williams Elementary School,PP,5,1261 Belcher St ,Port Williams NS,B0P 1T0,1261 Belcher St ,Port Williams NS,B0P 1T0,pwes@avrce.ca,902-542-6074,902-542-6094,Lana Burns
55,Annapolis Valley Regional Centre for Education,55,Somerset and District Elementary School,PR,5,4339 Brooklyn St ,Berwick NS,B0P 1E0,4339 Brooklyn St ,Berwick NS,B0P 1E0,sdes@avrce.ca,902-538-4670,902-538-4677,Deron Moores
55,Annapolis Valley Regional Centre for Education,54,St. Mary's Elementary School,PP,5,PO Box 249 ,Aylesford NS,B0P 1C0,1276 Victoria Rd ,Aylesford NS,B0P 1C0,smes@avrce.ca,902-847-4400,902-847-4404,Isaac Schurman
55,Annapolis Valley Regional Centre for Education,360,Three Mile Plains District School,PP,5,RR2 4555 Hwy 1 ,Windsor NS,B0N 2T0,4555 Hwy 1 ,Three Mile Plains NS,B0N 2T0,tmpds@avrce.ca,902-792-6720,902-792-6722,Christopher Shynal
55,Annapolis Valley Regional Centre for Education,1110,West Hants Education Centre,08,12,94 Wentworth Rd ,Windsor NS,B0N 2T0,94 Wentworth Rd ,Windsor NS,B0N 2T0,whec@avrce.ca,902-792-6750,902-792-6752,Dylan Irvine
55,Annapolis Valley Regional Centre for Education,994,West Hants Middle School,06,12,8009 Hwy 14 ,Newport NS,B0N 2A0,8009 Hwy 14 ,Newport NS,B0N 2A0,whms@avrce.ca,902-757-4100,902-757-4111,Karen Wallace
55,Annapolis Valley Regional Centre for Education,71,West Kings District High School,09,12,1941 Hwy 1 ,Auburn NS,B0P 1A0,1941 Hwy 1 ,Auburn NS,B0P 1A0,wkdhs@avrce.ca,902-847-4440,902-847-4444,Donna Baker
55,Annapolis Valley Regional Centre for Education,376,Windsor Adult High School,10,12,PO Box 369 ,Windsor NS,B0N 2T0,94 Wentworth Rd ,Windsor NS,B0N 2T0,wahs@avrce.ca,902-792-6751,902-792-6752,Dylan Irvine
55,Annapolis Valley Regional Centre for Education,699,Windsor Elementary School,PP,5,PO Box 1057 ,Windsor NS,B0N 2T0,100 Tremaine Cr ,Windsor NS,B0N 2T0,wes@avrce.ca,902-792-6770,902-792-6777,Brian Wong
55,Annapolis Valley Regional Centre for Education,361,Windsor Forks District School,PP,5,RR3 120 Sangster Bridge Rd  ,Windsor NS,B0N 2T0,120 Sangster Bridge Rd ,Windsor Forks NS,B0N 2T0,wfds@avrce.ca,902-792-6700,902-792-6707,Shelley King
55,Annapolis Valley Regional Centre for Education,81,Wolfville School,PR,8,19 Acadia St ,Wolfville NS,B4P 1K8,19 Acadia St ,Wolfville NS,B4P 1K8,ws@avrce.ca,902-542-6050,902-542-6054,Deborah Graves
57,Conseil scolaire acadien provincial,1155,Centre Scolaire de la Rive-Sud,PP,12,"20, ch. Petite vangline ",Cookville N.-.,B4V 8Z9,"20, chemin Petite vangline ",Cookville N.-.,B4V 8Z9,ers@csap.ca,902-527-5110,902-527-5102,Ren Gaudet
57,Conseil scolaire acadien provincial,387,Centre scolaire toile de l'Acadie,PP,12,"15, rue Inglis ",Sydney N.-.,B1P 7C6,"15, rue Inglis ",Sydney N.-.,B1P 7C6,csea@csap.ca,902-563-3900,902-563-3902,Nomie Godin
57,Conseil scolaire acadien provincial,145,cole acadienne de Pomquet,PP,12,"791, rue Taylor ",Pomquet N.-.,B2G 2L4,"791, rue Taylor ",Pomquet N.-.,B2G 2L4,eap@csap.ca,902-386-5700,902-386-5702,Nicole LeBlanc-Proctor
57,Conseil scolaire acadien provincial,433,cole acadienne de Truro,PP,12,"50, rue Aberdeen ",Truro N.-.,B2N 4V3,"50, rue Aberdeen ",Truro N.-.,B2N 4V3,eat@csap.ca,902-896-4500,902-896-4501,Marie Anne Bastarache
57,Conseil scolaire acadien provincial,947,cole Beaubassin,PP,5,"54, boul. Larry Uteck ",Halifax N.-.,B3M 4R9,"54, boul. Larry Uteck ",Halifax N.-.,B3M 4R9,ebb@csap.ca,902-457-6810,902-457-6809,Lori Ann Comeau
57,Conseil scolaire acadien provincial,982,cole Beau-Port,PP,12,CP 1500 ,Arichat N.-.,B0E 2L0,"2359, rt. 206 ",Arichat N.-.,B0E 2L0,ebp@csap.ca,902-226-5200,902-226-5204,Jacinta Samson-Sullivan
57,Conseil scolaire acadien provincial,744,cole Belleville,PP,6,CP 254 ,Tusket N.-.,B0W 3M0,"84, chemin Belleville ",Tusket N.-.,B0W 3M0,eblv@csap.ca,902-648-5920,902-648-5922,Vronique Naud
57,Conseil scolaire acadien provincial,948,cole Bois-Joli,PP,5,"211, av. du Portage ",Dartmouth N.-.,B2X 3T4,"211, av. du Portage ",Dartmouth N.-.,B2X 3T4,ebj@csap.ca,902-433-7070,902-433-7077,Isabelle Gascon
57,Conseil scolaire acadien provincial,1173,cole des Beaux-Marais,PP,8,"5261, autoroute 7 ",Porters Lake N.-.,B3E 1J7,"5261, autoroute 7 ",Porters Lake N.-.,B3E 1J7,ebm@csap.ca,902-827-4621,902-827-4623,Rebecca Bird
57,Conseil scolaire acadien provincial,68,cole du Carrefour,06,12,"201A, av. du Portage ",Dartmouth N.-.,B2X 3T4,"201A, av. du Portage ",Dartmouth N.-.,B2X 3T4,ecgh@csap.ca,902-433-7000,902-433-7020,Malou Dry
57,Conseil scolaire acadien provincial,1188,cole du Grand-Portage,PP,6,"100, Stokil Dr ",Lower Sackville N.-.,B4C 2G5,"100, Stokil Dr ",Lower Sackville N.-.,B4C 2G5,egp@csap.ca,902-864-6242,902-864-6419,Kevin Gallant
57,Conseil scolaire acadien provincial,217,cole Joseph-Dugas,PP,6,"450, ch. Patrice ",Pointe-de-l'glise N.-.,B0W 1M0,"450, ch. Patrice ",Pointe-de-l'glise N.-.,B0W 1M0,ejd@csap.ca,902-769-5430,902-769-5433,Victor Gaudet
57,Conseil scolaire acadien provincial,1197,cole Mer et Monde,PP,7,"5750, rue Atlantic ",Halifax N.-.,B3H 1G9,"5750, rue Atlantic ",Halifax N.-.,B3H 1G9,emm@csap.ca,902-480-2180,902-480-2193,Annick Levesque
57,Conseil scolaire acadien provincial,378,cole NDA,PP,12,CP 100 ,Chticamp N.-.,B0E 1H0,CP 100 ,Chticamp N.-.,B0E 1H0,enda@csap.ca,902-224-5300,902-224-5305,Carolyn Muise
57,Conseil scolaire acadien provincial,156,cole Pubnico-Ouest,PP,6,CP 40 ,Pubnico-Ouest N.-.,B0W 3S0,CP 40 ,Pubnico-Ouest N.-.,B0W 3S0,epo@csap.ca,902-762-4400,902-762-4402,Claudette d'Entremont
57,Conseil scolaire acadien provincial,57,cole Rose-des-Vents,PP,12,CP 119 ,Greenwood N.-.,B0P 1N0,"6, ch. Bedford ",Greenwood N.-.,B0P 1N0,erdv@csap.ca,902-765-7100,902-765-7107,Judy Streatch
57,Conseil scolaire acadien provincial,225,cole secondaire de Clare,07,12,"80, ch. Placide Comeau ",La Butte N.-.,B0W 2L0,"80, ch. Placide Comeau ",La Butte N.-.,B0W 2L0,esdc@csap.ca,902-769-5400,902-769-5405,Marc Poirier
57,Conseil scolaire acadien provincial,980,cole secondaire de Par-en-Bas,07,12,CP 178 ,Tusket N.-.,B0W 3M0,"4258, route 308 ",Tusket N.-.,B0W 3M0,espb@csap.ca,902-648-5900,902-648-5915,Pamela Deviller
57,Conseil scolaire acadien provincial,1152,cole secondaire du Sommet,06,12,"500,  boul. Larry Uteck ",Halifax N.-.,B3M 0E6,"500,  boul. Larry Uteck ",Halifax N.-.,B3M 0E6,ess@csap.ca,902-832-4302,902-832-4352,Timothy Brown
57,Conseil scolaire acadien provincial,219,cole Stella-Maris,PP,6,CP 408 ,Meteghan N.-.,B0W 2J0,"288, ch. Peter Dugas ",Meteghan N.-.,B0W 2J0,esm@csap.ca,902-645-5500,902-645-5505,Natalie Carrier
57,Conseil scolaire acadien provincial,160,cole Wedgeport,PP,6,"44, ch. Ditcher ",Wedgeport N.-.,B0W 3P0,"44, ch. Ditcher ",Wedgeport N.-.,B0W 3P0,ewdg@csap.ca,902-663-5000,902-663-5002,Angle Marr
58,South Shore Regional Centre for Education,925,Aspotogan Consolidated Elementary School,PP,5,105 Parkwood Dr ,Mill Cove NS,B0J 1T0,105 Parkwood Dr ,Mill Cove NS,B0J 1T0,aces@ssrce.ca,902-857-2600,902-857-2601,Roy Page
58,South Shore Regional Centre for Education,926,Bayview Community School,PP,9,PO Box 160 ,Mahone Bay NS,B0J 2E0,110 Clearway St ,Mahone Bay NS,B0J 2E0,bcs@ssrce.ca,902-624-2120,902-624-2124,Lamar Eason
58,South Shore Regional Centre for Education,405,Big Tancook Elementary School,PR,5,36 School Rd ,Big Tancook Island NS,B0J 3G0,36 School Rd ,Big Tancook Island NS,B0J 3G0,btes@ssrce.ca,902-228-8300,902-228-8301,Ellenor Smith
58,South Shore Regional Centre for Education,1156,Bluenose Academy,PP,9,PO Box 1210 ,Lunenburg NS,B0J 2C0,18 Tannery Rd ,Lunenburg NS,B0J 2C0,ba@ssrce.ca,902-634-2200,902-634-2210,Steven McGill
58,South Shore Regional Centre for Education,509,Bridgewater Elementary School,PP,4,130 York St ,Bridgewater NS,B4V 1R3,130 York St ,Bridgewater NS,B4V 1R3,bes@ssrce.ca,902-541-8240,902-541-8250,Lindsay Wilkins
58,South Shore Regional Centre for Education,508,Bridgewater Junior High School,05,12,100 York St ,Bridgewater NS,B4V 1R3,100 York St ,Bridgewater NS,B4V 1R3,bjhs@ssrce.ca,902-541-8260,902-541-8270,Daphne Egilsson
58,South Shore Regional Centre for Education,216,Chester Area Middle School,05,8,PO Box 440 ,Chester NS,B0J 1J0,204 Duke St ,Chester NS,B0J 1J0,cams@ssrce.ca,902-275-2720,902-275-2730,Joyce Veinot-Gates
58,South Shore Regional Centre for Education,207,Chester District Elementary School,PP,4,PO Box 368 ,Chester NS,B0J 1J0,202 Duke St ,Chester NS,B0J 1J0,cdes@ssrce.ca,902-275-2750,902-275-2755,Trisha Demone
58,South Shore Regional Centre for Education,386,Dr. John C. Wickwire Academy,PP,5,311 Port Mouton Rd ,Liverpool NS,B0T 1K0,311 Port Mouton Rd ,Liverpool NS,B0T 1K0,djcwa@ssrce.ca,902-354-7660,902-354-7666,Sarah Baker
58,South Shore Regional Centre for Education,80,Forest Heights Community School,09,12,PO Box 29 ,Chester Basin NS,B0J 1K0,847 Hwy 12 ,Chester Basin NS,B0J 1K0,fhcs@ssrce.ca,902-275-2700,902-275-2710,Paul Nickerson
58,South Shore Regional Centre for Education,1150,Greenfield Elementary School,PR,6,5060 Hwy 210 ,Greenfield NS,B0T 1E0,5060 Hwy 210 ,Greenfield NS,B0T 1E0,ges@ssrce.ca,902-685-5400,902-685-5401,Ruth Amiro
58,South Shore Regional Centre for Education,917,Hebbville Academy,PP,9,16147 Hwy 3 ,Hebbville NS,B4V 6Y1,16147 Hwy 3 ,Hebbville NS,B4V 6Y1,ha@ssrce.ca,902-541-8280,902-541-8290,Stephen Johnson
58,South Shore Regional Centre for Education,710,Liverpool Regional High School,09,12,PO Box 1266 ,Liverpool NS,B0T 1K0,104 College St ,Liverpool NS,B0T 1K0,lrhs@ssrce.ca,902-354-7600,902-354-7610,Jean Rhodenizer
58,South Shore Regional Centre for Education,397,New Germany Elementary School,PP,6,150 School St ,New Germany NS,B0R 1E0,150 School St ,New Germany NS,B0R 1E0,nges@ssrce.ca,902-644-5020,902-644-5022,Angela Gladwin
58,South Shore Regional Centre for Education,402,New Germany Rural High School,07,12,44 School St ,New Germany NS,B0R 1E0,44 School St ,New Germany NS,B0R 1E0,ngrhs@ssrce.ca,902-644-5000,902-644-5010,Jennifer McMullen
58,South Shore Regional Centre for Education,214,New Ross Consolidated School,PP,8,PO Box 10 ,New Ross NS,B0J 2M0,4689 Hwy 12 ,New Ross NS,B0J 2M0,nrcs@ssrce.ca,902-689-6100,902-689-6110,David O'Quinn
58,South Shore Regional Centre for Education,404,Newcombville Elementary School,PP,5,4220 Hwy 325 ,Newcombville NS,B4V 7W2,4220 Hwy 325 ,Newcombville NS,B4V 7W2,nes@ssrce.ca,902-541-8230,902-541-8231,Jennifer Lemire
58,South Shore Regional Centre for Education,459,North Queens Community School,PP,12,PO Box 184 ,Caledonia NS,B0T 1E0,40 West Caledonia Rd ,Caledonia NS,B0T 1B0,nqcs@ssrce.ca,902-682-3500,902-682-3510,Ruth Amiro
58,South Shore Regional Centre for Education,409,Park View Education Centre,10,12,1485 King St ,Bridgewater NS,B4V 1C4,1485 King St ,Bridgewater NS,B4V 1C4,pvec@ssrce.ca,902-541-8200,902-541-8210,Gordon Walters
58,South Shore Regional Centre for Education,400,Pentz Elementary School,PP,6,PO Box 88 ,LaHave NS,B0R 1C0,2680 Hwy 331 ,LaHave NS,B0R 1C0,pes@ssrce.ca,902-688-3210,902-688-3211,Rebecca Smart
58,South Shore Regional Centre for Education,401,Petite Rivire Elementary School,PP,6,123 Wentzell Rd ,Petite Rivire NS,B4V 5Y2,123 Wentzell Rd ,Petite Rivire NS,B4V 5Y2,pres@ssrce.ca,902-688-3200,902-688-3201,Scott Rawding
58,South Shore Regional Centre for Education,1185,South Queens Middle School,06,8,PO Box 1288 ,Liverpool NS,B0T 1K0,157 Old Bridge St ,Liverpool NS,B0T 1K0,sqms@ssrce.ca,902-354-7640,902-354-7650,Terry Stewart
58,South Shore Regional Centre for Education,1171,SSRCE Adult High School,10,12,Box 1974 ,Liverpool NS,B0T 1K0,137 Old Bridge St ,Liverpool NS,B0T 1K0,ssilc@ssrce.ca,902-354-7630,902-354-7631,Jean Rhodenizer
58,South Shore Regional Centre for Education,1172,SSRCE Alternate Programs,07,12,45 School St ,Mahone Bay NS,B0J 2E0,45 School St ,Mahone Bay NS,B0J 2E0,ssilc@ssrce.ca,902-624-2101,902-624-2103,Lamar Eason
58,South Shore Regional Centre for Education,394,West Northfield Elementary School,PP,6,6 Victoria Acres Dr ,West Northfield NS,B4V 5C7,6 Victoria Acres Dr ,West Northfield NS,B4V 5C7,wnes@ssrce.ca,902-541-8220,902-541-8221,Deanna Rawding
59,Tri-County Regional Centre for Education,167,Barrington Municipal High School,07,12,536 Oak Park Rd ,Barrington NS,B0W 1E0,536 Oak Park Rd ,Barrington NS,B0W 1E0,bmhs@tcrce.ca,902-637-4310,902-637-4320,Mary Breen
59,Tri-County Regional Centre for Education,497,Carleton Consolidated School,PP,6,4014 Hwy 340 ,Carleton NS,B5A 5P8,4014 Hwy 340 ,Carleton NS,B5A 5P8,cces@tcrce.ca,902-761-4200,902-761-4202,Dwayne Landry
59,Tri-County Regional Centre for Education,511,Clark's Harbour Elementary School,PP,6,PO Box 130 ,Clark's Harbour NS,B0W 1P0,29 School St ,Clark's Harbour NS,B0W 1P0,ches@tcrce.ca,902-745-3710,902-745-3711,Nicole Surette
59,Tri-County Regional Centre for Education,541,Digby Elementary School,PP,6,PO Box 1538 ,Digby NS,B0V 1A0,20 Shreve St ,Digby NS,B0V 1A0,des@tcrce.ca,902-245-7550,902-245-7555,Jonathan Ettinger
59,Tri-County Regional Centre for Education,257,Digby Neck Consolidated School,PR,6,RR1 ,Sandy Cove NS,B0V 1E0,6203 Sandy Cove Rd ,Digby Neck NS,B0V 1E0,dnces@tcrce.ca,902-834-6600,902-834-6602,Julia Woodman
59,Tri-County Regional Centre for Education,709,Digby Regional High School,07,12,PO Box 1660 ,Digby NS,B0V 1A0,107 King St ,Digby NS,B0V 1A0,drhs@tcrce.ca,902-245-7500,902-245-7518,Darrell Richardson
59,Tri-County Regional Centre for Education,981,Drumlin Heights Consolidated School,PP,12,RR 1 ,Glenwood NS,B0W 1W0,RR 1 Hwy 3 5428 ,Glenwood NS,B0W 1W0,dhcs@tcrce.ca,902-643-6000,902-643-6006,Jason Murphy
59,Tri-County Regional Centre for Education,733,Evelyn Richardson Memorial Elementary School,PP,6,PO Box 160 ,Shag Harbour NS,B0W 3B0,5961 Hwy 3 ,Shag Harbour NS,B0W 3B0,ermes@tcrce.ca,902-723-3800,902-723-3801,Alethia Goreham-Smith
59,Tri-County Regional Centre for Education,927,Forest Ridge Academy,PP,6,PO Box 128 ,Barrington NS,B0W 1E0,59 Forest View Dr ,Barrington NS,B0W 1E0,fra@tcrce.ca,902-637-4340,902-637-4342,Michael Smith
59,Tri-County Regional Centre for Education,79,Hillcrest Academy,PP,6,PO Box 40 ,Shelburne NS,B0T 1W0,127 King St ,Shelburne NS,B0T 1W0,hia@tcrce.ca,902-875-5300,902-875-5301,John Roscoe
59,Tri-County Regional Centre for Education,259,Islands Consolidated School,PP,12,PO Box 80 ,Freeport NS,B0V 1B0,75 Overcove Rd ,Freeport NS,B0V 1B0,ics@tcrce.ca,902-839-6300,902-839-6303,Robert Morgan
59,Tri-County Regional Centre for Education,624,Lockeport Elementary School,PP,6,PO Box 280 ,Lockeport NS,B0T 1L0,73 Beach St ,Lockeport NS,B0T 1L0,les@tcrce.ca,902-656-7100,902-656-7101,Anthony Stuart
59,Tri-County Regional Centre for Education,711,Lockeport Regional High School,07,12,PO Box 129 ,Lockeport NS,B0T 1L0,10 Locke St ,Lockeport NS,B0T 1L0,lhs@tcrce.ca,902-656-7110,902-656-7120,Anthony Stuart
59,Tri-County Regional Centre for Education,410,Maple Grove Education Centre,07,8,52 Grove Memorial Dr ,Hebron NS,B0W 1X0,52 Grove Memorial Dr ,Hebron NS,B0W 1X0,mgec@tcrce.ca,902-749-5160,902-749-5170,Sean Kenney
59,Tri-County Regional Centre for Education,928,Meadowfields Community School,PP,6,106 Prospect St ,Yarmouth NS,B5A 4J2,106 Prospect St ,Yarmouth NS,B5A 4J2,mcs@tcrce.ca,902-749-2880,902-749-2888,Raquel Thompson
59,Tri-County Regional Centre for Education,199,Plymouth School,PP,6,RR 1 Arcadia ,Yarmouth NS,B0W 1B0,849 Hwy 334 ,Yarmouth NS,B0W 1B0,ps@tcrce.ca,902-663-2000,902-663-2005,Mark Thornton
59,Tri-County Regional Centre for Education,498,Port Maitland Consolidated School,PP,6,3072 Hwy 1 ,Port Maitland NS,B5A 5T3,3072 Hwy 1 ,Port Maitland NS,B5A 5T3,pmces@tcrce.ca,902-649-4400,902-649-4404,Liette Deveau
59,Tri-County Regional Centre for Education,716,Shelburne Regional High School,07,12,PO Box 10 ,Shelburne NS,B0T 1W0,415 Woodlawn Dr ,Shelburne NS,B0T 1W0,srhs@tcrce.ca,902-875-4900,902-875-4909,Jeffrey Rankin
59,Tri-County Regional Centre for Education,977,St. Mary's Bay Academy,07,12,RR 1 ,Weymouth NS,B0W 3T0,4079 Hwy 1 ,St. Bernard NS,B0W 3T0,smba@tcrce.ca,902-837-2340,902-837-2345,Janece McNutt
59,Tri-County Regional Centre for Education,256,Weymouth Consolidated School,PP,6,PO Box 400 ,Weymouth NS,B0W 3T0,4695 Hwy 1 ,Weymouth NS,B0W 3T0,wcs@tcrce.ca,902-837-2310,902-837-2320,Terry Gaudet
59,Tri-County Regional Centre for Education,1178,Yarmouth Consolidated Memorial High School,09,12,146 Forest St ,Yarmouth NS,B5A 0B3,146 Forest St ,Yarmouth NS,B5A 0B3,ycmhs@tcrce.ca,902-749-2810,902-749-2811,Donald Berry
59,Tri-County Regional Centre for Education,1199,Yarmouth Elementary School,PP,6,5 Brunswick St ,Yarmouth NS,B5A 3A9,5 Brunswick St ,Yarmouth NS,B5A 3A9,yes@tcrce.ca,902-749-2860,902-749-2866,Adam Chisholm
