idx,facility_name,facility_type,health_authority,alternative_name,longitude,latitude,street_addr,city,province,postal_code,phone,provider
0,Amica Arbutus Manor Inc.,Assisted Living,Vancouver Coastal,Amica Arbutus Manor,-123.1558789,49.2476316,2125 Eddington Drive,Vancouver,BC,V6L 3A9,(604) 736-8936,Province of British Columbia
1,Amica Somerset House Inc.,Assisted Living,Island Health,Amica Somerset House,-123.3762578,48.411872,540 Dallas Road,Victoria,BC,V8V 4X9,(250) 380-9121,Province of British Columbia
2,Amica West Vancouver Inc.,Assisted Living,Vancouver Coastal,Amica West Vancouver,-123.1332044,49.3285715,659 Clyde Avenue,West Vancouver,BC,V7T 1C8,(604) 921-9181,Province of British Columbia
3,Augustine House Society,Assisted Living,Fraser Health,Augustine House,-123.0769909,49.0730448,3820 Arthur Drive,Delta,BC,V4K 5E6,(604) 940-6005,Province of British Columbia
4,John Howard Society Thompson Region,Assisted Living,Interior Health,Bedford Manor,-120.3283813,50.6747498,529 Seymour Street,Kamloops,BC,V2C 0A1,(250) 434-1702,Province of British Columbia
5,0869632 BC LTD,Assisted Living,Fraser Health,Bevan Village,-122.2992395,49.0413325,33386 Bevan Avenue,Abbotsford,BC,V2S 5G6,(604) 850-5416,Province of British Columbia
6,Lake Country Senior Housing Society,Assisted Living,Interior Health,Blue Heron Villa,-119.4039656,50.0204549,9509 Main Street,Lake Country,BC,V4V 2N3,(250) 766-1660,Province of British Columbia
7,Grand Forks and District Housing Society,Assisted Living,Interior Health,Boundary Lodge Assisted Living,-118.4443059,49.0288153,7130 9th Street,Grand Forks,BC,V0H 1H4,(250) 443-0006,Province of British Columbia
8,Chartwell Master Care LP (Chartwell Carrington Place),Assisted Living,Interior Health,Carrington Place,-119.2619121,50.2812067,4651 - 4751 23rd Street,Vernon,BC,V1T 4K7,(250) 545-5704,Province of British Columbia
9,Chartwell Master Care LP,Assisted Living,Vancouver Coastal,Churchill House,-123.0733402,49.3360817,150 West 29th Street,North Vancouver,BC,V7N 2J8,(604) 904-1199,Province of British Columbia
10,Baptist Housing Society of BC,Assisted Living,Vancouver Coastal,Clarendon Court,-123.0554181,49.2255956,6404 Clarendon Street,Vancouver,BC,V5S 4X9,(604) 324-6230,Province of British Columbia
11,Arrowsmith Health Care (2011) Society,Assisted Living,Island Health,Cokely Manor,-124.3236216,49.3161292,266A Moilliet Street,Parksville,BC,V9P 1M9,(250) 947-9777,Province of British Columbia
12,Golden Life Management Corp.,Assisted Living,Interior Health,Columbia Garden Village,-116.0331677,50.5076471,"800-10th Avenue, PO Box 578",Invermere,BC,V0A 1K0,(250) 341-3350,Province of British Columbia
13,608698 BC Ltd. dba Harmony Living for Seniors,Assisted Living,Interior Health,Harmony Living for Seniors - Kelowna,-119.4806541,49.8824813,962-964 Laurier Avenue,Kelowna,BC,V1Y 6B1,(250) 861-3991,Province of British Columbia
14,Okanagan Mental Health Services Society,Assisted Living,Interior Health,Coral House,-119.4683825,49.8860284,1367 Bernard Ave,Kelowna,BC,V1Y 6R5,(250) 717-3030,Province of British Columbia
15,Smithers Community Services Association,Assisted Living,Northern Health,Cottonwood Manor,-126.6497314,54.39689,2261 Copeland Avenue,Houston,BC,V0J 1Z0,(250) 845-3770,Province of British Columbia
16,"Diversicare Canada Management Services Co., Inc.",Assisted Living,Vancouver Coastal,Courtyard Gardens,-123.1441684,49.162097,7051 Moffatt Road,Richmond,BC,V6Y 3W2,(604)273 4148,Province of British Columbia
17,Courtyard Terrace Assisted Living Residence Partnership,Assisted Living,Fraser Health,Courtyard Terrace,-123.0225089,49.2365917,3730 Burke Street,Burnaby,BC,V5H 1A3,(604) 437-6262,Province of British Columbia
18,Golden Life Management Corp.,Assisted Living,Interior Health,Crest View Village,-116.5157147,49.1043599,"800 Cavell St, RR4",Creston,BC,V0B 1G4,(250) 428-9986,Province of British Columbia
19,The Cridge Centre for the Family,Assisted Living,Island Health,Cridge Village Seniors Centre,-123.3505342,48.4395848,1307 Hillside Avenue,Victoria,BC,V8T 0A2,(250) 384-8058,Province of British Columbia
20,Dania Society,Assisted Living,Fraser Health,Dania Manor,-122.9747356,49.2472342,4155 Norland Avenue,Burnaby,BC,V5G 3S7,(604) 299-1379,Province of British Columbia
21,Sienna-Baltic (Cascades) Inc.,Assisted Living,Fraser Health,The Cascades,-121.9629698,49.160818,45586 McIntosh Drive,Chilliwack,BC,V2P 7W8,(604) 795-2500,Province of British Columbia
22,Golden Life Management Corp.,Assisted Living,Interior Health,Castle Wood Village,-117.6656779,49.323826,525 Columbia Street,Castlegar,BC,V1N 1G7,(250) 365-6686,Province of British Columbia
23,Vancouver Coastal Health Authority,Assisted Living,Vancouver Coastal,Cedar Garden Assisted Living,-123.0400524,49.3264386,1250 Cedar Village Close,North Vancouver,BC,V7J 3P3,(604) 904-6409,Province of British Columbia
24,Chalmers Foundation,Assisted Living,Vancouver Coastal,Chalmers Lodge,-123.1374537,49.2604752,1450 West 12th Avenue,Vancouver,BC,V6H 1M9,(604) 731-3178,Province of British Columbia
25,Penticton and District Society for Community Living,Assisted Living,Interior Health,Chestnut Place,-119.5948946,49.495406,453 Winnipeg Street,Penticton,BC,V2A 5M7,(250) 490-0200,Province of British Columbia
26,Good Samaritan Canada,Assisted Living,Vancouver Coastal,Christenson Village,-123.5202772,49.4044948,585 Shaw Road,Gibsons,BC,V0N 1V8,(604) 886-8747,Province of British Columbia
27,Luther Court Society,Assisted Living,Island Health,Luther Court,-123.3364271,48.4619202,1525 Cedar Hill Cross Road,Victoria,BC,V8P 5M1,(250) 477-7241,Province of British Columbia
28,Baptist Housing Society of BC,Assisted Living,Island Health,Marrion Village,-123.3213476,48.4311828,1968 Bee Street,Victoria,BC,V8R 6P6,(250) 592-2593,Province of British Columbia
29,Mennonite Benevolent Society,Assisted Living,Fraser Health,Menno Assisted Living,-122.309596,49.0386276,2021 Primrose Street,Abbotsford,BC,V2S 2Y9,(604) 851-4004,Province of British Columbia
30,Northern Health Authority,Assisted Living,Northern Health,McConnell Estates,-128.5928816,54.5327526,4701 Kerby Avenue,Terrace,BC,V8G 5V4,(250) 631-4268,Province of British Columbia
31,Saint Elizabeth Health Services,Assisted Living,Vancouver Coastal,Millennium Tower,-123.1363126,49.2840797,1175 Broughton Street,Vancouver,BC,V6G 3K9,(604) 408-9897,Province of British Columbia
32,Halcyon Assisted Living Society,Assisted Living,Interior Health,Moberly Manor Assisted Living,-118.2019885,51.0024513,711 West First Street,Revelstoke,BC,V0E 2S0,(250) 837-3147,Province of British Columbia
33,Mountain Lake Seniors Community Partnership,Assisted Living,Interior Health,Mountain Lake Seniors Community,-117.2656912,49.5085719,908 Eleventh Street,Nelson,BC,V1L 7A6,(250) 352-2600,Province of British Columbia
34,Good Samaritan Canada,Assisted Living,Interior Health,Mountainview Village,-119.4649933,49.8616964,1540 K.L.O. Road,Kelowna,BC,V1W 3P6,(250) 717-3918,Province of British Columbia
35,673848 B.C. Ltd.,Assisted Living,Interior Health,Nicola Meadows Assisted Living,-120.7835847,50.1148415,2670 Garcia Street,Merritt,BC,V1K 1B8,(250) 378-4254,Province of British Columbia
36,Nikkei Seniors Health Care and Housing Society,Assisted Living,Fraser Health,Nikkei Home,-122.9651274,49.2174881,6680 Southoaks Crescent,Burnaby,BC,V5E 4N3,(604) 777-5000,Province of British Columbia
37,Progressive Intercultural Community Services Society,Assisted Living,Fraser Health,PICS Assisted Living,-122.8879445,49.1403167,12075 - 75A Avenue,Surrey,BC,V3W 1S8,(604) 596-0052,Province of British Columbia
38,Good Samaritan Canada,Assisted Living,Interior Health,Pioneer Lodge,-119.2727977,50.7046521,1051 6th Avenue NE,Salmon Arm,BC,V1E 0A6,(250) 804-4814,Province of British Columbia
39,Kaigo Retirement Communities Ltd.,Assisted Living,Interior Health,Pioneer Square,-119.1958505,50.4453194,2865 Willowdale Drive,Armstrong,BC,V0E 1B1,(250) 546-3396,Province of British Columbia
40,Belvedere Care Centre Inc.,Assisted Living,Fraser Health,Residences at Belvedere,-122.8782194,49.2407092,750 Delestre Avenue,Coquitlam,BC,V3K 0A1,(604) 939-1930,Province of British Columbia
41,CSH Riverside Manor Inc.,Assisted Living,Fraser Health,Riverside Manor,-121.4235351,49.3759263,765 Old Hope Princeton Way,Hope,BC,V0X 1L4,(604) 860-4700,Province of British Columbia
42,Golden Life Management Corp.,Assisted Living,Interior Health,Rocky Mountain Village,-115.0666592,49.4923848,55 Cokato Road,Fernie,BC,V0B 1M4,(250) 423-4214,Province of British Columbia
43,Elim Housing Society & Elim Christian Care Society,Assisted Living,Fraser Health,Elim Village - Emerald Building,-122.7813437,49.1676368,9080 159th Street,Surrey,BC,V4N 5T6,(604) 583-3546,Province of British Columbia
44,Chartwell Retirement Residences,Assisted Living,Fraser Health,Chartwell Langley Gardens Retirement Residence,-122.6598375,49.1654942,8888 - 202 Street,Langley,BC,V1M 4A7,(604) 888-0228,Province of British Columbia
45,Evergreen Heights Baptist Housing Society,Assisted Living,Fraser Health,Evergreen Heights,-122.8095263,49.0294086,1501 Everall Street,White Rock,BC,V4B 0A1,(604) 541-3817,Province of British Columbia
46,HCN-Revera Lessee (Fleetwood Villa) LP GP Inc. o/a Fleetwood Villa,Assisted Living,Fraser Health,Fleetwood Villa,-122.7780217,49.1534447,16028 83rd Avenue,Surrey,BC,V4N 0N2,(604) 590-2889,Province of British Columbia
47,Seaview Seniors Housing Society,Assisted Living,Island Health,Forest Glen,-125.5523697,48.942746,"Box 833, 1783 St. Jacques Blvd.",Ucluelet,BC,V0R 3A0,(250) 726-2789,Province of British Columbia
48,Active Care Senior Services Ltd.,Assisted Living,Interior Health,Greenfield Gardens,-120.384838,50.7043198,1607 Greenfield Ave,Kamloops,BC,V2B 4N4,(250) 554-9244,Province of British Columbia
49,Greenwoods Eldercare Society,Assisted Living,Island Health,Braehaven Assisted Living,-123.5095093,48.8623409,137 Blain Road,Salt Spring Island,BC,V8K 0A1,(250) 537-5561,Province of British Columbia
50,S.U.C.C.E.S.S. Multi-Level Care Society,Assisted Living,Vancouver Coastal,Harmony House - Vancouver,-123.1053779,49.2799982,580 Shanghai Alley,Vancouver,BC,V6B 1N8,(604) 648-0012,Province of British Columbia
51,Haro Park Centre Society,Assisted Living,Vancouver Coastal,Haro Park,-123.1284501,49.2856281,1233 Haro Street,Vancouver,BC,V6E 3Y5,(604) 687-5584,Province of British Columbia
52,"Diversicare Canada Management Services Co., Inc.",Assisted Living,Interior Health,Hawthorn Park Retirement Community,-119.4838649,49.8600973,867 K.L.O. Road,Kelowna,BC,V1Y 9G5,(250) 861-6636,Province of British Columbia
53,"Benchmark Lifestyles, Inc.",Assisted Living,Interior Health,Heritage House (Oliver),-119.545803,49.1875106,409 Salamander Ave,Oliver,BC,V0H 1T3,(250) 498-0622,Province of British Columbia
54,Kaigo Retirement Communities Ltd.,Assisted Living,Interior Health,Heritage Square,-119.26823,50.270687,3904-27th Street,Vernon,BC,V1T 4X7,(250) 545-2060,Province of British Columbia
55,Good Samaritan Canada,Assisted Living,Interior Health,Heron Grove,-119.259139,50.2830685,4900 - 20th Street,Vernon,BC,V1T 9W3,(250) 542-6101,Province of British Columbia
56,Victoria Cool Aid Society,Assisted Living,Island Health,Hillside Terrace,-123.342568,48.4425235,1460 Hillside Ave,Victoria,BC,V8T 2B7,(250) 383-1977,Province of British Columbia
57,Icelandic Care Home Hofn Society,Assisted Living,Vancouver Coastal,Icelandic Harbour,-123.0638421,49.2093852,2020 Harrison Drive,Vancouver,BC,V5P 2P6,(604) 321-3812,Province of British Columbia
58,Campbell River and District Association for Community Living,Assisted Living,Island Health,Ironwood Place,-125.2545522,50.0285603,1351 Ironwood Street,Campbell River,BC,V9W 5Z7,(250) 287-4486,Province of British Columbia
59,M'akola Housing Society,Assisted Living,Island Health,Jesken Aerie,-123.5018758,48.449097,817 Goldstream Avenue,Victoria,BC,V9B 2X8,(250) 474-1524,Province of British Columbia
60,Golden Life Management Corp.,Assisted Living,Interior Health,Joseph Creek Village,-115.7470729,49.5273009,1901 Willowbrook Drive,Cranbrook,BC,V1C 6S4,(250) 417-0666,Province of British Columbia
61,Chartwell Master Care LP together with 107153 BC Ltd.,Assisted Living,Interior Health,Chartwell Kamloops Retirement Residence,-120.3601186,50.6952226,628 Tranquille Road,Kamloops,BC,V2B 3H6,(250) 376-5363,Province of British Columbia
62,KinVillage Association,Assisted Living,Fraser Health,KinVillage Assisted Living,-123.0724206,49.0214427,5440 10th Avenue,Delta,BC,V4M 3Y9,(604) 943-0155,Province of British Columbia
63,Powell River Kiwanis Housing Society,Assisted Living,Vancouver Coastal,Kiwanis Garden Manor,-124.5207197,49.849559,4923 Kiwanis Avenue,Powell River,BC,V8A 5H5,(604) 485-5210,Province of British Columbia
64,Nanaimo District Senior Citizens' Housing Development Society,Assisted Living,Island Health,Kiwanis Suites,-123.9684613,49.1863565,1234 Kiwanis Crescent,Nanaimo,BC,V9S 5Y1,(250) 753-6471,Province of British Columbia
65,Vantage Living Inc.,Assisted Living,Vancouver Coastal,Kiwanis Manor,-123.1687216,49.3333445,959 21st Street,West Vancouver,BC,V7V 4Y3,(604) 922-6149,Province of British Columbia
66,4 All Seasons Holdings Ltd.,Assisted Living,Island Health,La Rosa Gardens,-123.8346916,48.9962982,1211 Cloke Road,Ladysmith,BC,V9G 2B6,(250) 245-1016,Province of British Columbia
67,Northern Health Authority,Assisted Living,Northern Health,Laurier Manor - Northern Health Authority,-122.7659153,53.9162705,2175 - 9th Avenue,Prince George,BC,V2M 5E3,(250) 561-1408,Province of British Columbia
68,South Vancouver Island Housing Society,Assisted Living,Island Health,Legion Manor,-123.4179964,48.5882046,7601 East Saanich Road,Victoria,BC,V8M 0A4,(250) 652-3261,Province of British Columbia
69,Dawson Heights Housing Ltd.,Assisted Living,Island Health,The Cedars,-123.3383825,48.4622038,3710 Cedar Hill Road,Victoria,BC,V8P 5V5,(250) 477-4850,Province of British Columbia
70,Mission Association for Seniors Housing,Assisted Living,Fraser Health,The Cedars (Mission),-122.331947,49.1362414,7380 Hurd Street,Mission,BC,V2V 3H5,(604) 826-2194,Province of British Columbia
71,Chartwell Master Care LP (Chartwell Chatsworth Retirement Residence),Assisted Living,Interior Health,Chartwell Chatsworth Retirement Residences,-119.4258835,49.880941,1831 Parkview Crescent,Kelowna,BC,V1X 7G7,(250) 860-1064,Province of British Columbia
72,"Diversicare Canada Management Services Co., Inc.",Assisted Living,Interior Health,The Concorde Assisted Living Residence,-119.5889566,49.4597583,3235 Skaha Lake Road,Penticton,BC,V2A 6G5,(250) 490-8800,Province of British Columbia
73,The Louis Brier Jewish Residence Society,Assisted Living,Vancouver Coastal,The Harry and Jeanette Weinberg (of Baltimore) Residence,-123.1292174,49.2346299,5650 Osler Street,Vancouver,BC,V6M 2W9,(604) 261-9622,Province of British Columbia
74,Steeples Housing Society,Assisted Living,Island Health,The Steeples,-123.7166365,48.9270048,9910 Esplanade Street,Chemainus,BC,V0R 1K1,(250) 246-1805,Province of British Columbia
75,Thompson View Manor Society,Assisted Living,Interior Health,Thompson View Lodge,-121.2793767,50.7342929,710 Elm Street,Ashcroft,BC,V0K 1A0,(250) 453-0085,Province of British Columbia
76,Thornebridge Gardens Holdings Ltd.,Assisted Living,Fraser Health,Thornebridge Gardens,-122.9251906,49.2153674,649 8th Avenue,New Westminster,BC,V3M 2R2,(604) 524-6100,Province of British Columbia
77,Lakes District Senior Citizens Housing Association,Assisted Living,Northern Health,Tweedsmuir House,-125.7640971,54.2354138,53 9th Avenue,Burns Lake,BC,V0J 1E0,(250) 692-3781,Province of British Columbia
78,Yellowhead Pioneer Residence Society,Assisted Living,Interior Health,Yellowhead Pioneer Residence,-120.1250719,51.1812148,4557 Barriere Town Road,Barriere,BC,V0E 1E0,(250) 672-0019,Province of British Columbia
79,Halcyon Assisted Living Society,Assisted Living,Interior Health,Halcyon House,-117.8077844,50.2402094,83 8th Avenue,Nakusp,BC,V0G 1R0,(250) 265-3692,Province of British Columbia
80,Delta King Place Housing Society,Assisted Living,Northern Health,Delta King Place,-128.6504321,54.0500231,701 Mountainview Square,Kitimat,BC,V8C 2N1,(250) 632-6535,Province of British Columbia
81,S.U.C.C.E.S.S. Multi-Level Care Society,Assisted Living,Vancouver Coastal,Austin Harris Residence,-123.1642599,49.1257461,5411 Moncton Street,Richmond,BC,V7E 0A8,(604) 277-9819,Province of British Columbia
82,The Sto:lo Nation,Assisted Living,Fraser Health,Sto:lo Elders Lodge,-121.9666998,49.1386487,7519 Topaz Drive,Chilliwack,BC,V2R 0E8,(604) 858-5591,Province of British Columbia
83,North Shore Private Hospital (1985) Ltd.,Assisted Living,Vancouver Coastal,Lynn Valley House,-123.0446964,49.3340774,1070 Lynn Valley Road,North Vancouver,BC,V7J 1Z8,(604) 982-3725,Province of British Columbia
84,Northern Health Authority,Assisted Living,Northern Health,Heritage Manor II,-120.8454429,56.2522386,9824 106th Avenue,Fort Saint John,BC,V1J 2N9,(250) 787-2376,Province of British Columbia
85,0741858 B.C. Ltd,Assisted Living,Interior Health,Nicola Valley Seniors Residence - The Florentine,-120.7634019,50.1246261,4100 Belshaw Street,Merritt,BC,V1K 0A5,(250) 378-5300,Province of British Columbia
86,Smithers Community Services Association,Assisted Living,Northern Health,The Meadows,-127.1650266,54.7752656,1180 Alberta Street,Smithers,BC,V0J 2N0,(250) 847-8884,Province of British Columbia
87,Harrison Landing Inc.,Assisted Living,Fraser Health,Harrison Landing,-122.6453631,49.1013665,20899 Douglas Cresent,Langley,BC,V3A 9L3,(604) 530-7075,Province of British Columbia
88,Alberni Valley Assisted Living Society,Assisted Living,Island Health,Heritage Place (Alberni Valley),-124.7994974,49.2533611,4360 Heritage Lane,Port Alberni,BC,V9Y 4C3,(250) 723-0480,Province of British Columbia
89,The Royale West Coast LP dba Mayfair Terrace Retirement Residence,Assisted Living,Fraser Health,Mayfair Terrace Retirement Residence,-122.7811519,49.259316,2267 Kelly Avenue,Port Coquitlam,BC,V3C 6N4,(604) 552-5552,Province of British Columbia
90,Amica Beechwood Village Inc.,Assisted Living,Island Health,Amica Beechwood Village,-123.403863,48.6542837,2315 Mills Road,Sidney,BC,V8L 5W6,(250) 655-0849,Province of British Columbia
91,Amica Mature Lifestyles Inc.,Assisted Living,Island Health,Amica Douglas House,-123.369556,48.4106234,50 Douglas Street,Victoria,BC,V8V 2N8,(250) 383-6258,Province of British Columbia
92,Good Samaritan Canada,Assisted Living,Interior Health,Village By the Station,-119.5957868,49.4844104,270 Hastings Avenue,Penticton,BC,V2A 2V6,(250) 490-4949,Province of British Columbia
93,West Shore Lodge Ltd.,Assisted Living,Island Health,West Shore Lodge,-123.4691908,48.4444075,1828 Island Highway,Colwood,BC,V9B 1J2,(250) 478-7527,Province of British Columbia
94,Rodica Senior Home Care House,Assisted Living,Northern Health,Rodica Senior Home Care House,-122.7548885,53.8980527,2568 Victoria Street,Prince George,BC,V2L 5G8,(250) 563-9566,Province of British Columbia
95,Golden Life Management Corp.,Assisted Living,Interior Health,Rose Wood Village,-117.6366632,49.0929297,8125 Devito Drive,Trail,BC,V1R 4X9,(250) 364-3150,Province of British Columbia
96,Action Line Housing Society,Assisted Living,Fraser Health,Seton Villa,-123.0216295,49.2888133,3755 McGill Street,Burnaby,BC,V5C 1M2,(604) 291-0607,Province of British Columbia
97,Beacon Community Association,Assisted Living,Island Health,Shoal Centre Assisted Living,-123.4028861,48.6540525,10030 Resthaven Drive,Sidney,BC,V8L 3G4,(778) 351-0896,Province of British Columbia
98,Wrinch Memorial Foundation,Assisted Living,Northern Health,Skeena Place,-127.6495885,55.2600649,4780 Janze Way,Hazelton,BC,V0J 1Y1,(250) 842-5217,Province of British Columbia
99,Lower Similkameen Community Services Society,Assisted Living,Interior Health,Kyalami Place,-119.8332064,49.2049938,720 3rd Street,Keremeos,BC,V0X 1N3,(250) 499-2366,Province of British Columbia
100,The Governing Council of The Salvation Army,Assisted Living,Vancouver Coastal,Southview Heights,-123.0405446,49.2177384,7252 Kerr Street,Vancouver,BC,V5S 3V2,(604) 438-3367,Province of British Columbia
101,Tabor Home Society,Assisted Living,Fraser Health,Tabor Court,-122.3384901,49.0465321,31954 Sunrise Crescent,Abbotsford,BC,V2T 1N6,(604) 859-8718,Province of British Columbia
102,PR Seniors Housing Management 3 Ltd.,Assisted Living,Vancouver Coastal,Terraces on 7th,-123.1399961,49.2651363,1570 West 7th Avenue,Vancouver,BC,V6J 5M1,(604) 738-8380,Province of British Columbia
103,Eagle Valley Senior Citizen Housing Society,Assisted Living,Interior Health,Eagle Valley Manor,-118.9823727,50.8339774,319 Gordon Mackie Lane,Sicamous,BC,V0E 2V1,(250) 836-2314,Province of British Columbia
104,Morgan Heights Care Ltd.,Assisted Living,Fraser Health,The Residence at Morgan Heights,-122.7798803,49.0511752,15955 - 27th Avenue,Surrey,BC,V3Z 3W3,(604) 535-1118,Province of British Columbia
105,Optima Retirement Services Ltd.,Assisted Living,Fraser Health,Royal Crescent Gardens,-122.5958527,49.2158637,11698 - 226th Street,Maple Ridge,BC,V2X 6H1,(604) 463-6077,Province of British Columbia
106,The Royale LP,Assisted Living,Fraser Health,Pacifica Retirement Residence,-122.7976625,49.0477777,2525 King George Blvd.,Surrey,BC,V4P 0C8,(604) 535-9194,Province of British Columbia
107,The Hamlets at Penticton Residence Inc.,Assisted Living,Interior Health,The Hamlets at Penticton,-119.5897419,49.4840615,103 Duncan Avenue West,Penticton,BC,V2A 2Y3,(250) 490-8503,Province of British Columbia
108,Northern Health Authority,Assisted Living,Northern Health,Summit Residence,-130.3292831,54.3042162,1335 Summit Avenue,Prince Rupert,BC,V8J 4L2,(250) 622-6451,Province of British Columbia
109,Shannon Falls Retirement Residence Partnership,Assisted Living,Vancouver Coastal,Shannon Falls Retirement Residence,-123.1539384,49.702788,114-38225 Third Avenue,Squamish,BC,V8B 0S2,(604) 848-2000,Province of British Columbia
110,The Royale West Coast LP,Assisted Living,Fraser Health,Peninsula Retirement Residence,-122.8008907,49.0396008,2088 - 152 Street,Surrey,BC,V4A 9Z4,(604) 538-2033,Province of British Columbia
111,HCN - Revera Lessee (Whitecliff) LP,Assisted Living,Fraser Health,Whitecliff Retirement Residence,-122.7930809,49.0312747,15501 - 16th Avenue,Surrey,BC,V4A 9M5,(604) 538-7227,Province of British Columbia
112,Resurrection Recovery Resources Society,Assisted Living,Interior Health,Freedom's Door,-119.471561,49.8832475,1279 Centennial Crescent,Kelowna,BC,V1Y 6K3,(250) 717-0472,Province of British Columbia
113,John Howard Society of Okanagan & Kootenay,Assisted Living,Island Health,1043 Harvey House,-119.4784911,49.8832462,1043 Harvey Ave,Kelowna,BC,V1Y6E4,(250) 717-0702,Province of British Columbia
114,Lookout Housing and Health Society,Assisted Living,Vancouver Coastal,Lookout Dovercourt,-123.0283132,49.34259,1606 Lynn Valley Road,North Vancouver,BC,V7J 2B4,(604) 982-9126,Province of British Columbia
115,The Royale West Coast GP Corporation as gp of The Royale West Coast LP,Assisted Living,Fraser Health,Rideau Retirement Residence,-123.0055473,49.2677316,1850 Rosser Avenue,Burnaby,BC,V5C 5E1,(604) 291-1792,Province of British Columbia
116,Quesnel Seniors Housing,Assisted Living,Northern Health,Maeford Place Assisted Living Centre,-122.4938872,52.9819649,574 Kinchant Street,Quesnel,BC,V2J 2R8,(250) 992-8342,Province of British Columbia
117,Connexus Community Resources Society,Assisted Living,Northern Health,Riverside Place,-124.0131889,54.0215498,242 Louvain Street,Vanderhoof,BC,V0J 3A0,(250) 567-9205,Province of British Columbia
118,The Hamlets at Westsyde Residence Inc.,Assisted Living,Interior Health,The Hamlets at Westsyde,-120.3413596,50.7709541,3255 Overlander Drive,Kamloops,BC,V2B 0A5,(250) 579-9061,Province of British Columbia
119,Good Samaritan Canada,Assisted Living,Fraser Health,Good Samaritan Canada Victoria Heights,-122.8997466,49.2134562,230 Ross Drive,New Westminster,BC,V3L 0B1,(604) 523-9227,Province of British Columbia
120,Origin at Longwood,Assisted Living,Island Health,Origin at Longwood,-124.0321766,49.2207915,6205 Oliver Road,Nanaimo,BC,V9T 6T1,(250) 751-7755,Province of British Columbia
121,Golden Life Management Corp.,Assisted Living,Interior Health,Garden View Village,-115.9872666,49.6907045,280 4th Avenue,Kimberley,BC,V1A 2R6,(250) 427-4014,Province of British Columbia
122,BG Cedars Society,Assisted Living,Vancouver Coastal,The Cedars at Beulah Gardens,-123.0322605,49.2661816,3355 East 5th Avenue,Vancouver,BC,V5M 0A1,(604) 251-4114,Province of British Columbia
123,Strive Living Society,Assisted Living,Fraser Health,Liberty Place,-122.9352675,49.224454,7899 17th Avenue,Burnaby,BC,V3N 1M1,(604) 526-9933,Province of British Columbia
124,Queen Charlotte Housing Development Society,Assisted Living,Northern Health,Martin Manor,-132.0842161,53.2553621,306 - 2nd Avenue,Queen Charlotte,BC,V0T 1S0,(250) 559-8800,Province of British Columbia
125,Sunridge Seniors Community Partnership,Assisted Living,Island Health,The Meadows at Sunridge Place,-123.6975203,48.7777428,361 Bundock Avenue,Duncan,BC,V9L 3P1,(250) 748-8048,Province of British Columbia
126,Langley Lions Housing Society,Assisted Living,Fraser Health,Evergreen Timbers,-122.659687,49.1014015,5464 - 203rd Street,Langley,BC,V3A 0A4,(604) 530-7171,Province of British Columbia
127,Capital Region Housing Corporation,Assisted Living,Island Health,Parry Place,-123.3725864,48.4158031,408 Parry Street,Victoria,BC,V8V 2H7,(250) 382-4443,Province of British Columbia
128,Providence Health Care Society,Assisted Living,Vancouver Coastal,Honoria Conway at St. Vincent's Heather,-123.1220866,49.2420243,4875 Heather Street,Vancouver,BC,V5Z 0A7,(604) 876-7191,Province of British Columbia
129,Baptist Housing Enhanced Living Communities,Assisted Living,Interior Health,The Village at Smith Creek,-119.6267443,49.8431243,2425 Orlin Road,West Kelowna,BC,V4T 1N3,(250) 768-0488,Province of British Columbia
130,Baptist Housing Enhanced Living Communities,Assisted Living,Interior Health,Sun Pointe Village,-119.3878245,49.896263,700 Rutland Road North,Kelowna,BC,V1X 7W8,(250) 491-1400,Province of British Columbia
131,The Baptist Housing Society,Assisted Living,Interior Health,The Village at Mill Creek,-119.4678022,49.8808104,1450 Sutherland Avenue,Kelowna,BC,V1Y 5Y5,(250) 860-2216,Province of British Columbia
132,Sooke Elderly Citizens Housing Society,Assisted Living,Island Health,Ayre Manor,-123.7269856,48.3775504,6754 Ayre Road,Sooke,BC,V9Z 1K1,(250) 642-1750,Province of British Columbia
133,Creekside Landing Ltd.,Assisted Living,Interior Health,Creekside Landing,-119.3223493,50.2465633,6190 Okanagan Landing Road,Vernon,BC,V1H 1M3,(250) 549-9550,Province of British Columbia
134,Strive Living Society,Assisted Living,Fraser Health,Freedom Place,-122.8116906,49.1902003,10342 148th Street,Surrey,BC,V3R 3X3,(604) 634-3300,Province of British Columbia
135,Wagner Hills Farm Society,Assisted Living,Fraser Health,Wagner Hills Farm,-122.4959869,49.1493257,8061 264th Street,Langley,BC,V1M 3M3,(604) 856-9432,Province of British Columbia
136,Golden Community Resources Society,Assisted Living,Interior Health,Mountain View Assisted Living,-116.9674653,51.2978943,750 - 8th Avenue South,Golden,BC,V0A 1H0,(250) 344-7924,Province of British Columbia
137,Northern Health Authority,Assisted Living,Northern Health,Nick Grosse Assisted Living Residence,-132.1582983,54.0203264,2524 Harrison Road,Masset,BC,V0T 1M0,(250) 626-4735,Province of British Columbia
138,Dawson Creek Society for Community Living,Assisted Living,Northern Health,Northview,-120.2357658,55.7733071,1125 - 90th Avenue,Dawson Creek,BC,V1G 5A3,(250) 719-0072,Province of British Columbia
139,Westcoast Native Health Care Society,Assisted Living,Island Health,Tsawaayuus (Rainbow Gardens),-124.8485097,49.2700639,6222 Compton Rd,Port Alberni,BC,V9Y 7B8,(250) 724-5655,Province of British Columbia
140,Sienna-Baltic (Mariposa) Inc.,Assisted Living,Interior Health,Mariposa Gardens,-119.4770583,49.034727,8816 97th Street,Osoyoos,BC,V0H 1V5,(250) 495-8124,Province of British Columbia
141,The Royale LP,Assisted Living,Fraser Health,Astoria Retirement Residence,-122.780012,49.259309,2245 Kelly Avenue,Port Coquitlam,BC,V3C 0B1,(604) 944-2341,Province of British Columbia
142,Northern Health Authority,Assisted Living,Northern Health,Gateway Lodge - Northern Health Authority,-122.7528145,53.9056389,1462 - 20th Avenue,Prince George,BC,V2L 0B3,(250) 645-6100,Province of British Columbia
143,Berwick Investments Ltd.,Assisted Living,Island Health,Berwick on the Lake,-124.0036075,49.2100736,3201 Ross Road,Nanaimo,BC,V9T 6L9,(250) 729-7995,Province of British Columbia
144,Berwick Retirement Royal Oak,Assisted Living,Island Health,Berwick Royal Oak,-123.3874866,48.5031019,4680 Elk Lake Drive,Victoria,BC,V8Z 0B4,(250) 386-4680,Province of British Columbia
145,Harrison Pointe Inc.,Assisted Living,Fraser Health,Harrison Pointe,-122.6237865,49.09714,21616 52nd Avenue,Langley,BC,V2Y 1L7,(604) 530-1101,Province of British Columbia
146,Berwick Investments Ltd.,Assisted Living,Interior Health,Berwick on the Park,-120.3371268,50.6578025,60 Whiteshield Crescent South,Kamloops,BC,V2E 2S9,(250) 377-7275,Province of British Columbia
147,Chetwynd Senior Citizens Housing,Assisted Living,Northern Health,Surerus Place,-121.6403206,55.6980704,5353 - 47th Avenue,Chetwynd,BC,V0C 1J0,(250) 788-3736,Province of British Columbia
148,Golden Life Management Corp.,Assisted Living,Interior Health,Lake View Village,-117.2714026,49.5095412,1020 - 7th Street,Nelson,BC,V1L 0A2,(250) 352-0051,Province of British Columbia
149,HCN Revera Lessee (Hollyburn House) GP Inc,Assisted Living,Vancouver Coastal,Hollyburn House,-123.167157,49.3299082,2095 Marine Drive,West Vancouver,BC,V7V 4V5,(604) 922-7616,Province of British Columbia
150,Scottsdale House Ltd,Assisted Living,Fraser Health,Scottsdale House,-122.8966099,49.1342868,11779 72nd Ave,Delta,BC,V4E 3B9,(604) 572-9550,Province of British Columbia
151,Casa Living Inc.,Assisted Living,Fraser Health,The Wesbrooke,-122.6932986,49.2205915,12000 190A Street,Pitt Meadows,BC,V3Y 0E4,(604) 460-7006,Province of British Columbia
152,M'akola Housing Society,Assisted Living,Island Health,Ts'i'ts'uwatul' Lelum,-123.7081958,48.775945,5755 Allenby Road,Duncan,BC,V9L 0E6,(250) 597-2252,Province of British Columbia
153,Swedish Canadian Rest Home Association,Assisted Living,Fraser Health,Swedish Assisted Living Residence,-122.9518022,49.267425,7230 Halifax Street,Burnaby,BC,V5A 0B2,(604) 420-1124,Province of British Columbia
154,Chartwell Retirement Residences,Assisted Living,Fraser Health,Carrington House,-122.3198366,49.1390997,32679 6th Ave,Mission,BC,V2V 1Y8,(604) 826-4747,Province of British Columbia
155,Heshun Rosewood Senior Centre Inc.,Assisted Living,Fraser Health,Heshun Rosewood Senior Centre,-122.5984433,49.2159184,11742 225 Street,Maple Ridge,BC,V2X 6E4,(604) 463-1078,Province of British Columbia
156,Berwick Retirement Comox Ltd.,Assisted Living,Island Health,Berwick Comox Valley,-124.9221833,49.6727148,1700 Comox Avenue,Comox,BC,V9M 4H4,(250) 339-1690,Province of British Columbia
157,Pathway to Freedom Recovery Society,Assisted Living,Fraser Health,Pathway to Freedom - 9034 Prince Charles,-122.8652873,49.166834,9034 Prince Charles Blvd,Surrey,BC,V3V1R5,(604) 496-0772,Province of British Columbia
158,Maria Rosario de Vera Martinez (Rose),Assisted Living,Fraser Health,Clover Heights Retirement Home,-122.7128453,49.1151396,6209 - 184th Street,Surrey,BC,V3S 8B1,(604) 372-1131,Province of British Columbia
159,The Realistic Success Recovery Society,Assisted Living,Fraser Health,Realistic Success - Trilogy House One,-122.8482177,49.1480086,13516 80th Ave,Surrey,BC,V8W 3C1,(778) 885-4369,Province of British Columbia
160,The Realistic Success Recovery Society,Assisted Living,Fraser Health,Realistic Success - Trilogy House Four,-122.852393,49.1452475,13358 78A Ave,Surrey,BC,V8W 7B7,(778) 885-4369,Province of British Columbia
161,The Realistic Success Recovery Society,Assisted Living,Fraser Health,Realistic Success - Trilogy House Two,-122.8480055,49.1483087,13519 80th Ave,Surrey,BC,V3W 3C2,(778) 885-4369,Province of British Columbia
162,CSH-HCN LESSEE (IMPERIAL) LP,Assisted Living,Fraser Health,Imperial Place Retirement Residence,-122.8383224,49.1879219,13853 102nd Ave,Surrey,BC,V3T5P6,(604) 581-1555,Province of British Columbia
163,BC New Hope Recovery Society,Assisted Living,Northern Health,Baldy Hughes Therapeutic Community,-122.9342,53.6172363,34000 Blackwater Rd,Prince George,BC,V2N 6H1,(250) 964-3136,Province of British Columbia
164,Chartwell Retirement Residences,Assisted Living,Fraser Health,Crescent Gardens,-122.7667834,49.0244562,1222 King George Highway,Surrey,BC,V4A 9W6,(604) 541-8861,Province of British Columbia
165,City Centre Care Society,Assisted Living,Vancouver Coastal,Cooper Place,-123.0970954,49.2819785,306 East Cordova Street,Vancouver,BC,V6A 1L5,(604) 684-2545,Province of British Columbia
166,Chartwell Master Care LP,Assisted Living,Fraser Health,Chartwell Birchwood,-121.9612481,49.1692644,45650 Patten Avenue,Chilliwack,BC,V2P 1S4,(604) 792-8793,Province of British Columbia
167,Place of Refuge Society,Assisted Living,Vancouver Coastal,Place of Refuge,-123.0917971,49.2257723,655 East 49th Ave,Vancouver,BC,V5W 2H1,(604) 324-5011,Province of British Columbia
168,Hope for Freedom Society,Assisted Living,Fraser Health,Hope for Freedom Resurrection House 1,-122.7605748,49.2714483,3237 Liverpool St,Port Coquitlam,BC,V3B 3V5,(604) 464-0475,Province of British Columbia
169,Psalm 23 Transition Society,Assisted Living,Interior Health,Psalm 23 - Training Centre,-121.5152328,51.2228585,115 Cariboo Hwy 97,Clinton,BC,V0K 1K0,(250) 459-2220,Province of British Columbia
170,Psalm 23 Transition Society,Assisted Living,Fraser Health,Psalm 23 -Sober Living,-122.3427611,49.045601,31794 Peardonville Rd,Abbotsford,BC,V2T 1L4,(604) 835-0855,Province of British Columbia
171,Comox Valley Recovery Centre Society,Assisted Living,Island Health,Comox Valley Recovery Centre,-125.0064758,49.6861093,641 Menzies Ave,Courtenay,BC,V9N 3C3,(250) 338-7144,Province of British Columbia
172,VisionQuest Recovery Society,Assisted Living,Fraser Health,VisionQuest - Harte House,-122.8557709,49.1619793,13238 87B Ave,Surrey,BC,V3W 6B8,(604) 743-0598,Province of British Columbia
173,VisionQuest Recovery Society,Assisted Living,Fraser Health,VisionQuest - Discovery House,-122.2985231,49.0512156,33416 George Ferguson Way,Abbotsford,BC,V2S 2L8,(604) 637-6356,Province of British Columbia
174,Yahweh Saves Recovery Ministry,Assisted Living,Fraser Health,Joshua House - Rossland,-122.3214198,49.049235,32575 Rossland Pl,Abbotsford,BC,V2T 3S8,(604) 556-7390,Province of British Columbia
175,North Island Supportive Recovery Society,Assisted Living,Island Health,Second Chance Recovery House,-125.2425221,50.0200897,647 Birch Street,Campbell River,BC,V9W GY4,(250) 830-1103,Province of British Columbia
176,Island Crisis Care Society,Assisted Living,Island Health,Island Crisis Care Society Hirst House,-124.3104481,49.3193687,151 East Hirst Ave,Parksville,BC,V9P 2G4,(250) 954-3268,Province of British Columbia
177,Chartwell Master Care LP,Assisted Living,Fraser Health,Chartwell Willow Retirement Community,-122.6019985,49.2253028,12275 - 224th St,Maple Ridge,BC,V2X 6H5,(604) 466-8602,Province of British Columbia
178,Freedom House Recovery Society,Assisted Living,Fraser Health,Freedom House 13765 & 13767 - 105 Ave,-122.8406361,49.193639,13765 - 105 Ave,Surrey,BC,V3T 2A1,(604) 970-2956,Province of British Columbia
179,North Island Crisis and Counselling Centre Society,Assisted Living,Island Health,New Beginnings,-127.4933266,50.7226457,8735 Hastings St,Port Hardy,BC,V0N 2P0,(250) 949-8333,Province of British Columbia
180,Campbell River and North Island Transition Society,Assisted Living,Island Health,Ann Elmore House,-125.2411919,50.0195231,608 Alder Street,Campbell River,BC,V9W 2P2,(250) 286-3666,Province of British Columbia
181,Canadian Mental Health Association - Pt. Alberni Branch,Assisted Living,Island Health,Port House,-124.8011143,49.2472741,4527 Morton St,Port Alberni,BC,V9Y 3T5,(250) 724-2279,Province of British Columbia
182,Changing Addictive Attitudes Recovery Society of BC,Assisted Living,Vancouver Coastal,Reaching Out - Cordova,-123.0900118,49.2818509,678-680 E Cordova St,Vancouver,BC,V6A 1L8,(778) 997-0270,Province of British Columbia
183,L.I.F.E. Recovery Association,Assisted Living,Fraser Health,LIFE Recovery Association - First Stage,-122.3463775,49.0511241,2693 Braeside Street,Abbotsford,BC,V2T 2R5,(604) 855-4440,Province of British Columbia
184,Luke 15 House Society,Assisted Living,Fraser Health,Luke 15 House,-122.8940963,49.1828144,11861 99th Ave,Surrey,BC,V3V 2M3,(604) 930-4884,Province of British Columbia
185,Axis Family Resources Ltd,Assisted Living,Interior Health,Axis Place - Kootenays,-115.7594109,49.5168541,1512 5th Street North,Cranbrook,BC,V1C 3M2,(250) 489-2110,Province of British Columbia
186,It's Up To You Recovery House Society,Assisted Living,Fraser Health,It's Up To You - 100th Ave,-122.8625125,49.1845839,12991 100th Ave,Surrey,BC,V3T 1G9,(604) 723-6326,Province of British Columbia
187,Barb's 2nd Stage Transitional Housing,Assisted Living,Fraser Health,Barb's Second Stage - Lilac House,-122.326832,49.0468781,2467 Lilac Cres,Abbotsford,BC,V2T 1P5,(604) 820-9224,Province of British Columbia
188,Barb's 2nd Stage Transitional Housing,Assisted Living,Fraser Health,Barb's Second Stage - McRae House,-122.3244609,49.1440712,32509 McRae Ave,Mission,BC,V2V 2L6,(604) 820-9224,Province of British Columbia
189,Yahweh Saves Recovery Ministry,Assisted Living,Fraser Health,Joshua House - Hopedale,-122.3388772,49.0539426,31962 Hopedale Ave,Abbotsford,BC,V2T 2G7,(604) 504-0477,Province of British Columbia
190,Yahweh Saves Recovery Ministry,Assisted Living,Fraser Health,Joshua House - Springhill,-122.3525867,49.0520294,2742 Springhill Street,Abbotsford,BC,V2T3V9,(604) 851-2138,Province of British Columbia
191,Island Crisis Care Society,Assisted Living,Island Health,Island Crisis Care Society The Bridge,-123.9373468,49.1482232,870 Victoria Rd,Nanaimo,BC,V9R 4R8,(250) 716-3414,Province of British Columbia
192,Path to Freedom Addiction Treatment and Educational Society,Assisted Living,Fraser Health,Path to Freedom,-122.7378824,49.1083233,5826 175 St,Surrey,BC,V3S4B5,(604) 575-4955,Province of British Columbia
193,Berwick Investments Ltd.,Assisted Living,Island Health,Berwick House,-123.3336487,48.4755032,4062 Shelbourne Street,Victoria,BC,V8N 3E6,(250) 721-4062,Province of British Columbia
194,Seven Sacred Fires,Assisted Living,Fraser Health,Seven Sacred Fires,-122.8445098,49.2034651,13630-110A Ave,Surrey,BC,V3R 2B1,(604) 788-4666,Province of British Columbia
195,Set Free Ministries Society Inc,Assisted Living,Fraser Health,Samaritan Inn - Pandora House,-122.3181101,49.0362298,32706 Pandora Ave,Abbotsford,BC,V2T 3X1,(780) 880-0466,Province of British Columbia
196,Set Free Ministries Society Inc,Assisted Living,Fraser Health,Samaritan Inn - Meadows House,-122.332065,49.0415759,2176 Meadows Street,Abbotsford,BC,V2T 3A6,(778) 880-0466,Province of British Columbia
197,Launching Pad Addiction Rehabilitation Society,Assisted Living,Fraser Health,Launching Pad Addiction Rehabilitation Society,-122.7789867,49.0199654,984-160 Street,Surrey,BC,V4A 4W5,(604) 536-3022,Province of British Columbia
198,Island Crisis Care Society,Assisted Living,Island Health,Island Crisis Care Society Safe Harbour House,-123.9373641,49.1481425,880 Victoria Rd,Nanaimo,BC,V9R 4R8,(250) 716-3414,Province of British Columbia
199,Island Crisis Care Society,Assisted Living,Island Health,Island Crisis Care Society Crescent House,-123.9671031,49.1835574,1126 Seafield Cresent,Nanaimo,BC,V9S 5K5,(250) 716-3402,Province of British Columbia
200,Hope for Freedom Society,Assisted Living,Fraser Health,Hope for Freedom Resurrection House 5,-122.7757143,49.2689557,3075 Shaughnessy St,Port Coquitlam,BC,V3B 4K9,(604) 464-0475,Province of British Columbia
201,Night and Day Recovery Centre Ltd,Assisted Living,Fraser Health,Night and Day Recovery (104 Ave),-122.8187047,49.1913447,14556 104 Ave,Surrey,BC,V3R 1M2,(604) 496-0940,Province of British Columbia
202,Night and Day Recovery Centre Ltd,Assisted Living,Fraser Health,Night and Day Recovery (9652 Salal Place),-122.8547917,49.1778715,9652 Salal Place,Surrey,BC,V3T 5A6,(604) 496-3163,Province of British Columbia
203,Diversicare dba Heritage Retirement Inc,Assisted Living,Interior Health,The Heritage Retirement Residence,-119.628559,49.8320163,3630 Brown Rd,Kelowna,BC,V4T 7Y9,(250) 768-9926,Province of British Columbia
204,Giving Back Support Recovery Society,Assisted Living,Vancouver Coastal,Giving Back Support Recovery,-123.0755933,49.2524569,3608 Knight Street,Vancouver,BC,V5N 3L5,(604) 874-8555,Province of British Columbia
205,John Volken Academy Society,Assisted Living,Fraser Health,John Volken Academy Main (Men's Dorm),-122.8459652,49.1268578,6833 King George Blvd,Surrey,BC,V3W 5A1,(604) 592-3001,Province of British Columbia
206,New Vision Supportive Housing Society,Assisted Living,Fraser Health,New Vision Sullivan House,-122.8254298,49.1338768,14325 72nd Ave,Surrey,BC,V3W 2P9,(604) 866-5889,Province of British Columbia
207,VisionQuest Recovery Society,Assisted Living,Interior Health,VisionQuest - The Lake,-120.869521,50.5622019,7185 Tunkwa Lake Rd,Logan Lake,BC,V0K 1W0,(250) 523-9411,Province of British Columbia
208,Leo Wertman Residences Ltd.,Assisted Living,Vancouver Coastal,Legacy Senior Living - The Leo Wertman Residence,-123.1186063,49.2339416,611 West 41 Ave,Vancouver,BC,V5Z 0C7,(604) 240-8550,Province of British Columbia
209,Berwick Retirement Campbell River Ltd.,Assisted Living,Island Health,Berwick By The Sea,-125.2454805,50.0293705,1353 16th Ave,Campbell River,BC,V9W 2C9,(250) 850-1353,Province of British Columbia
210,Era Assisted Living Inc.,Assisted Living,Fraser Health,Era Assisted Living Inc.,-122.791636,49.1563924,15546 84A Ave,Surrey,BC,V3S 6P6,(778) 722-7849,Province of British Columbia
211,Pleasant View Housing Society,Assisted Living,Fraser Health,Pleasant View,-122.3316098,49.138258,7530 Hurd St,Mission,BC,V2V 3H9,(604) 826-2154,Province of British Columbia
212,Adult & Teen Challenge Society of BC,Assisted Living,Interior Health,Teen Challenge BC - Okanagan Men's Centre,-119.4190913,50.0078386,4550 Glenmore Rd,Lake Country,BC,V4V 1L7,(604) 575-3930,Province of British Columbia
213,Revolution Recovery Ltd,Assisted Living,Fraser Health,Revolution Recovery House Four,-122.8257586,49.1380945,14362 74A Ave,Surrey,BC,V3W 0N3,(604) 379-7244,Province of British Columbia
214,Nanaimo District Senior Citizens' Housing Development Society,Assisted Living,Island Health,Kiwanis House,-123.969185,49.186109,1233 Kiwanis Cres,Nanaimo,BC,V9S 5Y1,(250) 753-6471,Province of British Columbia
215,St. Patrick's House Society,Assisted Living,Northern Health,St. Patrick's House,-122.7649132,53.9075611,1735 Yew St,Prince George,BC,V2L 2X3,(250) 564-5530,Province of British Columbia
216,Pathway to Freedom Recovery Society,Assisted Living,Fraser Health,Pathway to Freedom - 9031 Prince Charles,-122.8656255,49.1671051,9031 Prince Charles Blvd,Surrey,BC,V3V 1R7,(604) 496-0772,Province of British Columbia
217,Pathway to Freedom Recovery Society,Assisted Living,Fraser Health,Pathway to Freedom - 9376 Prince Charles,-122.8622885,49.1730717,9376 Prince Charles Blvd,Surrey,BC,V3V 2H9,(604) 496-0772,Province of British Columbia
218,Lookout Housing and Health Society,Assisted Living,Fraser Health,Macmillan House,-122.8248572,49.205906,11184 143A Street,Surrey,BC,V3R 3M8,(604) 255-0340,Province of British Columbia
219,Fraserside Community Services Society,Assisted Living,Fraser Health,Bear Creek House,-122.8401997,49.1629379,13799 88th Ave,Surrey,BC,V3W 3L2,(604) 503-6050,Province of British Columbia
220,Bon Accord Care Services Ltd,Assisted Living,Fraser Health,Bon Accord House,-122.8839527,49.0517947,2695 McBride Ave,Surrey,BC,V4A 3E9,(604) 535-3167,Province of British Columbia
221,Freedom House Recovery Society,Assisted Living,Fraser Health,Freedom House 13755 - 105 Ave,-122.8408962,49.1936467,13755-105 Ave,Surrey,BC,V3T 2A1,(604) 970-2956,Province of British Columbia
222,New Vision Supportive Housing Society,Assisted Living,Fraser Health,New Vision Renaissance Recovery House,-122.8643971,49.1863326,10106 129 St,Surrey,BC,V3T 3G7,(604) 866-5889,Province of British Columbia
223,Ruth & Naomi's Mission,Assisted Living,Fraser Health,Oasis Residential Addiction Treatment Services for Men,-121.9643974,49.1475368,45466 Yale Road West,Chilliwack,BC,V2R3Z8,(604) 795-2322,Province of British Columbia
224,The Bridge Youth and Family Services Society,Assisted Living,Interior Health,Bridgeway Residential Treatment,-119.3903898,49.8878207,265 Gray Rd,Kelowna,BC,V1X 1W8,(250) 763-0456,Province of British Columbia
225,New Vision Supportive Housing Society,Assisted Living,Fraser Health,New Vision Revival Recovery House,-122.8571301,49.174525,9449 132 Street,Surrey,BC,V3V 5R2,(604) 866-5889,Province of British Columbia
226,New Vision Supportive Housing Society,Assisted Living,Fraser Health,New Vision Traditions Recovery House,-122.8731584,49.1804787,9782 126 Street,Surrey,BC,V3V 5E4,(604) 866-5889,Province of British Columbia
227,Revolution Recovery Ltd,Assisted Living,Fraser Health,Revolution Recovery House Three,-122.8257519,49.1116834,14318 60th Ave,Surrey,BC,V3X 2N5,(604) 379-7244,Province of British Columbia
228,New Vision Society,Assisted Living,Fraser Health,New Vision Top of the Hill Recovery Centre,-122.8710194,49.1914715,10386 127 St,Surrey,BC,V3V 5J9,(604) 866-5889,Province of British Columbia
229,Fraserside Community Services Society,Assisted Living,Fraser Health,Fraserdale Long Stay Program,-122.977399,49.2497322,5938 Sprott St,Burnaby,BC,V5G 1V1,(604) 299-5253,Province of British Columbia
230,Together We Can Drug & Alcohol Recovery and Education Society,Assisted Living,Fraser Health,Together We Can - Straight Path,-122.8629158,49.1857218,12971 100A Avenue,Surrey,BC,V3T 1J8,(778) 293-0603,Province of British Columbia
231,BC Teen Challenge,Assisted Living,Fraser Health,Teen Challenge BC - Chilliwack Men's Centre,-122.0556232,49.0772149,4166 Eckert St,Chilliwack,BC,V2R 5J6,(604) 575-3930,Province of British Columbia
232,Netherlands Reformed Congregation of Chilliwack,Assisted Living,Fraser Health,Sunset Manor,-121.9331431,49.1641397,Unit 2 8920 Broadway St,Chilliwack,BC,V2P 5W1,(604) 702-0457,Province of British Columbia
233,Keystone Recovery Society,Assisted Living,Fraser Health,Keystone Recovery Society,-122.8577799,49.1357006,13165 - 73 Ave,Surrey,BC,V3W 2R4,(778) 808-6060,Province of British Columbia
234,Brookdale House Ltd,Assisted Living,Fraser Health,Brookdale House,-122.3664137,49.0656146,30961 Brookdale Crt,Abbotsford,BC,V2T 5S3,(604) 853-2035,Province of British Columbia
235,Night and Day Recovery Centre Ltd,Assisted Living,Fraser Health,Night and Day Recovery (Punjabi House),-122.8138662,49.1952833,14751 106 Ave,Surrey,BC,V3R 5Y1,(604) 496-7092,Province of British Columbia
236,Night and Day Recovery Centre Ltd,Assisted Living,Fraser Health,Night and Day Recovery (144 St),-122.822852,49.1922871,10442 144 St,Surrey,BC,V3T 4V5,(604) 496-0913,Province of British Columbia
237,Night and Day Recovery Centre Ltd,Assisted Living,Fraser Health,Night and Day Recovery (103 Ave),-122.819961,49.1894267,14522 103 Ave,Surrey,BC,V3R 6A9,(604) 496-0534,Province of British Columbia
238,Ktunaxa Nation Council Society,Assisted Living,Interior Health,Scotty's House,-115.7630426,49.5080892,202 - 13 Avenue South,Cranbrook,BC,V1C 2V8,(250) 919-6500,Province of British Columbia
239,Back on Track Recovery LTD.,Assisted Living,Fraser Health,Back on Track Recovery - The Fortress Unit 1,-122.8345193,49.1823321,9889 140 Street,Surrey,BC,V3T 4M4,778-316-2625,Province of British Columbia
240,Coast Foundation Society,Assisted Living,Fraser Health,Coast Foundation - Riverview,-122.8073297,49.2474719,2601 Lougheed Hwy,Coquitlam,BC,V3C 4J2,(604) 520-3610,Province of British Columbia
241,Hope for Freedom Society,Assisted Living,Fraser Health,Hope for Freedom - Hilland Lodge,-122.5181829,49.2245653,25402 Hilland Ave,Maple Ridge,BC,V4R 1G3,(604) 380-3665,Province of British Columbia
242,Edgemont Senior Living Inc.,Assisted Living,Vancouver Coastal,Amica Edgemont Village,-123.1009669,49.3385374,3225 Highland Blvd,North Vancouver,BC,V7R 0A3,(604) 929-6361,Province of British Columbia
243,1058016BCLTD,Assisted Living,Fraser Health,Cedars at Panorama Ridge,-122.8472411,49.1264267,6811 135A Street,Surrey,BC,V3W 4X2,(250) 733-2006,Province of British Columbia
244,InnerVisions Recovery Society,Assisted Living,Fraser Health,Hammond House,-122.6516919,49.2066449,20581B Maple Crescent,Maple Ridge,BC,V2X 1R7,(604) 465-3228,Province of British Columbia
245,Penticton Recovery Resource Society,Assisted Living,Interior Health,Discovery House,-119.5972816,49.4961705,397 Wade Ave. W.,Penticton,BC,V2A 1V2,(250) 490-3076,Province of British Columbia
246,"MPA - Motivation, Power and Achievement Society",Assisted Living,Fraser Health,Beckman Apartments,-122.6226821,49.2213348,12036 - 216 Street,Maple Ridge,BC,V2X 5J3,(604) 380-1881,Province of British Columbia
247,MERD Antonio Group Ltd,Assisted Living,Fraser Health,Garden Lodge,-122.8020219,49.1590623,15196 86 Avenue,Surrey,BC,V3S 4Y1,(604) 590-2589,Province of British Columbia
248,Into Action Recovery Society,Assisted Living,Fraser Health,Into Action House 1,-122.8558058,49.1620704,13222 87B Avenue,Surrey,BC,V3W 6B8,(778) 231-8565,Province of British Columbia
249,Randy (Cole) Iszak,Assisted Living,Fraser Health,Back on Track House Five,-122.8144248,49.1505187,8067 147th Street,Surrey,BC,V3S 9T9,(604) 594-7750,Province of British Columbia
250,R. Cole Izsak,Assisted Living,Fraser Health,Back on Track House Six,-122.8159541,49.1666206,14669 90 Ave,Surrey,BC,V3R 1A5,(778) 316-2625,Province of British Columbia
251,Dora MacQuarrie,Assisted Living,Interior Health,Serenity Acres,-119.6990309,50.8201237,6188 VLA Road,Chase,BC,V0E 1M1,(250) 679-3530,Province of British Columbia
252,MPA Society,Assisted Living,Fraser Health,Glacierview Apartments,-122.3063657,49.0377195,33134 Marshall Road,Abbotsford,BC,V2S 1K5,(604) 809-7364,Province of British Columbia
253,InnerVisions Recovery Society,Assisted Living,Fraser Health,Miller House,-122.6516919,49.2066449,20581 A Maple Crescent,Maple Ridge,BC,V2X 1R7,(604) 465-3228,Province of British Columbia
254,Karis Support Society,Assisted Living,Interior Health,Karis Support Society,-119.4913599,49.881377,550 Rowcliffe Avenue,Kelowna,BC,V1Y 5Y9,250-860-9507,Province of British Columbia
255,It's Up To You Recovery House Society,Assisted Living,Fraser Health,It's Up To You - Site 3,-122.8541659,49.209,13272 113B Ave,Surrey,BC,V3R 2K9,(604) 723-6326,Province of British Columbia
256,Hope for Freedom Society,Assisted Living,Fraser Health,Hope for Freedom Oxford House,-122.7673811,49.2694271,3135 Oxford Street,Port Coquitlam,BC,V3B 4C4,(604) 464-0475,Province of British Columbia
257,Talitha Koum Society,Assisted Living,Fraser Health,Talitha Koum Society - Starr House,-122.8431436,49.2631387,1820 Como Lake Avenue,Coquitlam,BC,V3J3P8,604-492-3393,Province of British Columbia
258,Langley Seniors Village 3 LLP,Assisted Living,Fraser Health,Langley Seniors Village,-122.6582236,49.1209898,20363-65th Ave,Langley,BC,V2Y 3E3,(604) 539-9934,Province of British Columbia
259,Maple Ridge Seniors Village 3 LLP,Assisted Living,Fraser Health,Maple Ridge Seniors Village,-122.6084592,49.2193789,22141-119th Ave,Maple Ridge,BC,V2X 2Y7,(604) 466-3053,Province of British Columbia
260,Nanaimo Seniors Village 3 LLP,Assisted Living,Island Health,Nanaimo Seniors Village,-124.0386077,49.2364583,6085 Uplands Drive,Nanaimo,BC,V9V 1T8,(250) 729-9524,Province of British Columbia
261,Amandeep Kaur Rai,Assisted Living,Fraser Health,Night and Day (108A Ave),-122.8155453,49.1998109,14677 108A Ave,Surrey,BC,V3R 1W7,(604) 496-7075,Province of British Columbia
262,Revolution Recovery LTD,Assisted Living,Fraser Health,Revolution Recovery 60th Ave,-122.8214979,49.1120083,14465 60th Avenue,Surrey,BC,V3S 1R4,(778) 591-8064,Province of British Columbia
263,Wellesley Seniors Village 3 LLP,Assisted Living,Island Health,Wellesley Seniors Village,-123.3644222,48.4403101,2800 Blanshard Street,Victoria,BC,V8T 5B5,(250) 383-9099,Province of British Columbia
264,Williams Lake Seniors 3 LLP,Assisted Living,Interior Health,Williams Lake Seniors Village,-122.1593926,52.1520084,1455 Western Ave,Williams Lake,BC,V2G 5N1,(250) 305-1131,Province of British Columbia
265,Nihal Maligaspe,Assisted Living,Northern Health,Redwood Residence,-122.4562579,52.974107,1901 Alder Rd,Quesnel,BC,V2J 3T3,(778) 466-5400,Province of British Columbia
266,Ross Place Seniors Residence Society,Assisted Living,Island Health,Ross Place Retirement Residence,-123.3654353,48.4376299,2638 Ross Lane,Victoria,BC,V8T 5M4,(250) 361-2150,Province of British Columbia
267,The Hamlets at Vernon Residence Inc,Assisted Living,Interior Health,The Hamlets at Vernon,-119.2714963,50.2628515,3050 29 Ave,Vernon,BC,V1T 9Y9,(236) 426-1488,Province of British Columbia
268,Saanich Senior Living Inc.,Assisted Living,Island Health,Amica on the Gorge,-123.4194668,48.4533074,994 Gorge Road W,Victoria,BC,V9A 1P2,250-220-8000,Province of British Columbia
269,Robert Cecil Jones,Assisted Living,Fraser Health,Pathway to Freedom House 5,-122.8614008,49.1681443,9101 Prince Charles Blvd,Surrey,BC,V3V 1R9,778-888-7617,Province of British Columbia
270,Pioneer Community Living Association,Assisted Living,Fraser Health,Lina's Place,-122.9330402,49.2066339,1307 - 1309 Sixth Ave,New Westminster,BC,V3M 3C2,(604) 522-5390,Province of British Columbia
271,Stepping Stones Recovery House for Women,Assisted Living,Island Health,Stepping Stones Recovery House for Women,-125.0094248,49.6765561,1535 Burgess Rd,Courtenay,BC,V9N 5R8,(250) 897-0360,Province of British Columbia
272,Tapestry WV Limited Partnership,Assisted Living,Vancouver Coastal,Tapestry at Wesbrook Village,-123.234744,49.2545548,3338 Wesbrook Mall,Vancouver,BC,V6S 0A6,(604) 225-5000,Province of British Columbia
273,Turning Points Collaborative Society,Assisted Living,Interior Health,Bill's Place Addictions Recovery Program,-119.2650755,50.2745478,2504 - 43 Ave,Vernon,BC,V1T 3K9,(250) 549-6144,Province of British Columbia
274,Back on Track,Assisted Living,Fraser Health,Back on Track Recovery - The Fortress Unit 2,-122.8345193,49.1823321,9889 140 St,Surrey,BC,V3T 4M4,(778) 316-2625,Province of British Columbia
275,Rosemary Heights Seniors Village 3 LLP,Assisted Living,Fraser Health,Rosemary Heights Seniors Village,-122.8006006,49.0635552,15240- 34th Ave,Surrey,BC,V3S 2J9,(778) 545-5000,Province of British Columbia
276,Selkirk Seniors Village 3 LLP,Assisted Living,Island Health,Selkirk Seniors Village,-123.3784494,48.4421823,385 Waterfront Crescent,Victoria,BC,V8T 5K7,(250) 940-1028,Province of British Columbia
277,Summerland Seniors 3 LLP,Assisted Living,Interior Health,Summerland Seniors Village,-119.6687918,49.6000554,12803 Atkinson Road,Summerland,BC,V0H 1Z4,(250) 404-4400,Province of British Columbia
278,Stanford Seniors Village 3 LLP,Assisted Living,Island Health,Stanford Seniors Village,-124.3111913,49.3163287,250 Craig Street,Parksville,BC,V9P 0A7,(250) 951-0811,Province of British Columbia
279,Tapestry AW Limited Partnership,Assisted Living,Vancouver Coastal,Tapestry at Arbutus Walk,-123.1558237,49.2615284,2799 Yew Street,Vancouver,BC,V6K 4W2,(604) 736-1640,Province of British Columbia
280,Baptist Housing Hallmark Society,Assisted Living,Fraser Health,Hallmark on the Park,-122.34484,49.0571207,3055 Princess Street,Abbotsford,BC,V2T 4A8,(604) 859-0053,Province of British Columbia
281,Into Action Recovery Society,Assisted Living,Fraser Health,Into Action House 2,-122.9625194,49.2028022,6293 Marine Drive,Burnaby,BC,V3N 2Y2,(778) 231-8565,Province of British Columbia
282,Wagner Hills Farm Society,Assisted Living,Fraser Health,Wagner Hills Women's Campus,-122.6215432,49.0095434,460 216th Street,Langley,BC,V2Z 1R6,(604) 530-6228,Province of British Columbia
283,Options Community Services Society,Assisted Living,Fraser Health,Blair House,-122.8357029,49.1464159,7902 139A St,Surrey,BC,V3W 5H5,(604) 597-1943,Province of British Columbia
284,1013779 BC LTD,Assisted Living,Interior Health,Carefree Manor,-121.2975223,51.6335523,812 Cariboo Trail,100 Mile House,BC,V0K 2E3,(250) 395-4807,Province of British Columbia
285,Our Place Society,Assisted Living,Island Health,Our Place Society Therapeutic Community,-123.4427413,48.463277,94 Talcott Rd,View Royal,BC,V9B 6L9,250-940-5080,Province of British Columbia
286,Penticton Recovery Resource Society,Assisted Living,Interior Health,Discovery House-Winnipeg St,-119.5932079,49.4932916,633 Winnipeg Street,Penticton,BC,V2A 5N1,(250) 490-3076,Province of British Columbia
287,Coast Foundation Society (1974),Assisted Living,Vancouver Coastal,Coast Mental Health - Storeys,-123.1352502,49.1631212,8080 Anderson Road,Richmond,BC,V6Y 0J5,(604) 376-2375,Province of British Columbia
288,Glenwood Seniors Community Partnership,Assisted Living,Fraser Health,Glenwood Seniors Community,-121.7581786,49.2308549,1458 Glenwood Drive,Agassiz,BC,V0M 1A3,(604) 796-8778,Province of British Columbia
289,Talitha Koum Society,Assisted Living,Fraser Health,Talitha Koum Society - Gianna House,-122.8097505,49.2626069,2941 Spuraway Ave,Coquitlam,BC,V3C 2C6,(604) 475-3730,Province of British Columbia
290,Prime Time (Abby Lane) Inc,Assisted Living,Fraser Health,Amica White Rock,-122.7979723,49.0313216,15333 16 Ave,Surrey,BC,V4A 1R6,(778) 545-8800,Province of British Columbia
291,PHS Community Services Society,Assisted Living,Island Health,Douglas Street Community Supportive Recovery,-123.3680714,48.4419158,2915 Douglas Street,Victoria,BC,V8T 4M8,250-208-9870,Province of British Columbia
292,Yahweh Saves Recovery Ministry,Assisted Living,Fraser Health,Joshua House - Chilliwack,-121.5527538,49.1006691,60550 Chilliwack Lake Rd,Chilliwack,BC,V4Z 1A7,604-858-7279,Province of British Columbia
293,1058016 BC LTD,Assisted Living,Fraser Health,Acorn Recovery Living,-122.8472991,49.1265815,6817 135A Street,Surrey,BC,V3W 4X2,250-552-1552,Province of British Columbia
294,333 Recovery Homes Society,Assisted Living,Northern Health,333 Trinity Men's Recovery House,-130.3089809,54.3128273,333 11 Ave E,Prince Rupert,BC,V8J 2W4,(250) 627-3093,Province of British Columbia
295,1041090 BC Ltd. (dba Parkside Community),Assisted Living,Interior Health,Parkside Community (1041090 BC Ltd),-119.6870947,50.818371,743 Okanagan Ave,Chase,BC,V0E 1M0,(250) 679-4477,Province of British Columbia
296,The Bridge Youth & Family Services,Assisted Living,Interior Health,The Bridge Adult Supported Recovery,-119.4009594,49.8895254,760 Hwy 33 West,Kelowna,BC,V1X 1Y4,(250) 763-0456,Province of British Columbia
297,Verve Senior Living,Assisted Living,Vancouver Coastal,Granville Gardens Retirement,-123.1404386,49.2265328,"Suite 100, 1550 W 49 Ave",Vancouver,BC,V6M 0B3,(604) 563-3540,Province of British Columbia
298,Casa Loma Seniors Village 3 LLP,Assisted Living,Island Health,Casa Loma Seniors Village,-124.9934349,49.7027566,4646 Headquarters Road,Courtenay,BC,V9N 7J3,(250) 897-1033,Province of British Columbia
299,Courtenay Seniors Village 3 LLP,Assisted Living,Island Health,Comox Valley Seniors Village,-124.9930277,49.7023661,4640 Headquarters Road,Courtenay,BC,V9N 7J3,(250) 331-1183,Province of British Columbia
300,Kamloops Seniors Village 3 LLP,Assisted Living,Interior Health,Kamloops Seniors Village,-120.3729788,50.6499607,1220 Hugh Allan Drive,Kamloops,BC,V1S 2B3,(250) 571-1800,Province of British Columbia
301,Back on Track Recovery LTD.,Assisted Living,Fraser Health,Back on Track Recovery - The Fortress Unit 4,-122.8345193,49.1823321,9889 140 St,Surrey,BC,V3T 4M4,(778) 316-2625,Province of British Columbia
302,Powell River Miklat Recovery House Society,Assisted Living,Vancouver Coastal,Miklat House,-124.5173367,49.8595597,5298 McGuffie Ave,Powell River,BC,V8A 3T6,(604) 483-6462,Province of British Columbia
303,Craftco Care Homes Inc,Assisted Living,Interior Health,Country Roads Lodge,-119.6888823,49.5963939,11811 Sinclair Road,Summerland,BC,V0H 1Z0,(778) 516-7447,Province of British Columbia
304,Berwick Retirement Qualicum Beach LTD.,Assisted Living,Island Health,Berwick Qualicum Beach,-124.4429948,49.3479396,120 First Avenue West,Qualicum Beach,BC,V8K0B4,250-738-6200,Province of British Columbia
305,The Salvation Army Addiction & Rehabilitation Centre (ARC),Assisted Living,Island Health,The Salvation Army ARC,-123.3697996,48.4273495,525 Johnson Street,Victoria,BC,V8W 1M2,(250) 384-3396,Province of British Columbia
306,Ruth and Naomi Mission,Assisted Living,Fraser Health,Oasis Residential Addiction Treatment Services for Women,-121.9482986,49.1709595,46129 Princess Ave,Chilliwack,BC,V2P 2A8,(604) 795-2322,Province of British Columbia
307,Berton Evertt,Assisted Living,Fraser Health,Suncrest Retirement Community - Manor Care (White Rock) Inc.,-122.7977862,49.0485655,2567 King George Blvd,Surrey,BC,V4E 0P9,(604) 542-6200,Province of British Columbia
308,Round Lake Alcohol And Drug Treatment Society,Assisted Living,Interior Health,Round Lake Treatment Centre,-119.1964935,50.4073547,200 Emery Louis Rd.,Armstrong,BC,V0E 1B5,(250) 546-3077,Province of British Columbia
309,Options Community Services Society,Assisted Living,Fraser Health,Nichol Place,-122.8342764,49.1490501,8048 -140 Street,Surrey,BC,V3W 5K7,(604) 954-1260,Province of British Columbia
310,Phoenix 4 Enterprises LTD.,Assisted Living,Island Health,The New Leaf Supportive Recovery,-124.8010783,49.2454824,4517 Redford St,Port Alberni,BC,V9N 3P9,(250) 736-1235,Province of British Columbia
311,Port Coquitlam Senior Citizens' Housing Society,Assisted Living,Fraser Health,Hawthorne Tower,-122.776622,49.2576762,2111 Hawthorne Avenue,Port Coquitlam,BC,V3C 1W3,(604) 941-4051,Province of British Columbia
312,New Day in the Peace Ministries,Assisted Living,Northern Health,New Day in the Peace Ministries,-120.7129524,56.256545,11095 - 255 Road,Fort Saint John,BC,V1J 4M6,(250) 785-1008,Province of British Columbia
313,Heritage Manor Ltd,Assisted Living,Island Health,Heritage Manor Ltd (Duncan),-123.780408,48.7706677,5478 Normandy Rd,Duncan,BC,V9L 6G4,(250) 748-3488,Province of British Columbia
314,Vancouver Resource Society,Assisted Living,Island Health,Lakeside Gardens,-124.0151253,49.2091968,4088 Wellesley Avenue,Nanaimo,BC,V9T 6M2,250-756-0799,Province of British Columbia
315,Back on Track Recovery LTD.,Assisted Living,Fraser Health,Back on Track Recovery - The Fortress Unit 3,-122.8345193,49.1823321,9889 140 St,Surrey,BC,V3T 4M4,(778) 649-2625,Province of British Columbia
316,HP Saltspring Assisted Living Ltd,Assisted Living,Island Health,Heritage Place for Seniors,-123.5096787,48.8609482,120 Crofton Road,Salt Spring Island,BC,V8K 2Y4,250-537-8340,Province of British Columbia
317,Shuswap Lodge Seniors Residence Society,Assisted Living,Interior Health,Shuswap Lodge Retirement Residence,-119.2872131,50.6991521,200 Trans Canada Highway SW,Salmon Arm,BC,V1E 4P6,(250) 832-7081,Province of British Columbia
318,Waverly Seniors Village 3 LLP,Assisted Living,Fraser Health,Waverly Seniors Village,-121.9530152,49.1557196,8445 Young Road,Chilliwack,BC,V2P 4P2,(604) 792-6340,Province of British Columbia
319,The Bridge Youth & Family Services,Assisted Living,Interior Health,Johnson House,-119.5759523,49.4979332,1001 Johnson Rd.,Penticton,BC,V2A 1W3,(250) 763-0456,Province of British Columbia
320,The Bridge Youth & Family Services,Assisted Living,Interior Health,Nanaimo House,-119.5901941,49.4992201,123 Nanaimo St,Penticton,BC,V2A 1M3,(250) 763-0456,Province of British Columbia
321,Verve Senior Living,Assisted Living,Fraser Health,The Village Langley,-122.6729662,49.0732499,3920 198 Street,Langley,BC,V3A 1E1,(604) 427-3755,Province of British Columbia
322,Recovery Works Treatment Centres Ltd.,Assisted Living,Island Health,Recovery Works,-123.3705516,48.4111532,647 Niagra Street,Victoria,BC,V8V 1J1,778-430-1212,Province of British Columbia
323,Westminster House Society,Assisted Living,Fraser Health,Supportive Recovery Transition Program,-122.9148761,49.2063586,705 Queens Avenue,New Westminster,BC,V3M 1L3,(604) 524-5633,Province of British Columbia
324,Changing Addictive Attitudes Recovery Society of BC,Assisted Living,Vancouver Coastal,Reaching Out - 65th Ave,-123.0920818,49.2115831,668 East 65th Ave,Vancouver,BC,V5X2P8,(778) 997-0270,Province of British Columbia
325,Lookout Housing and Health Society,Assisted Living,Fraser Health,Carr's Place,-122.8392644,49.202104,13802-13804 Grosvenor Rd.,Surrey,BC,V3R 5E7,(604) 255-0340,Province of British Columbia
326,Qualicum Gardens Senior Living,Assisted Living,Island Health,The Gardens at Qualicum Beach,-124.437858,49.3481266,650 Berwick Road North,Qualicum Beach,BC,V2K 2T8,250-752-2818,Province of British Columbia
327,Comox Valley Transition Society,Assisted Living,Island Health,Amethyst House,-124.9999224,49.6931376,280 2nd Street,Courtenay,BC,V9N 1B7,(250) 871-2570,Province of British Columbia
328,Horizon Health Care LTD.,Assisted Living,Fraser Health,Maria Sol House (14129),-122.830547,49.2071907,14129 Grosvenor Rd,Surrey,BC,V3R 5G9,(778) 318-2855,Province of British Columbia
329,Horizon Health Care LTD.,Assisted Living,Fraser Health,Maria Sol House (14131),-122.830547,49.2071907,14131 Grosvenor Rd,Surrey,BC,V3R 5GN,(778) 318-2855,Province of British Columbia
330,Teskey Road to Recovery Society,Assisted Living,Fraser Health,Teskey Road to Recovery,-121.9489835,49.0965274,5048 Teskey Road,Chilliwack,BC,V2R 5V6,(604) 824-8172,Province of British Columbia
331,Trillium (Sidney) Holdings,Assisted Living,Island Health,The Peninsula,-123.404781,48.6538644,2290 Henry Ave,Sidney,BC,V8L 2B2,(250) 656-8827,Province of British Columbia
332,Andover Terrace Housing Society,Assisted Living,Interior Health,Andover Terrace,-119.262517,50.7151831,2110 Lakeshore Rd NE,Salmon Arm,BC,V1E 3X9,(250) 832-6686,Province of British Columbia
333,Squamish Helping Hands Society,Assisted Living,Vancouver Coastal,Under One Roof,-123.1579917,49.6969175,37871 Third Avenue,Squamish,BC,V8B 0R2,(604) 815-4984,Province of British Columbia
334,Vancouver Island Health Authority,Assisted Living,Island Health,Stabilization Unit House 1,-123.3593621,48.4209572,914 McClure St,Victoria,BC,V8V 3E7,(250) 361-9550,Province of British Columbia
335,Vancouver Island Health Authority,Assisted Living,Island Health,Stabilization Unit House 2,-123.3589224,48.4210995,924 McClure St,Victoria,BC,V8V 3E7,(250) 361-9550,Province of British Columbia
336,Turning Points Collaborative Society,Assisted Living,Interior Health,Haven Place,-119.2646384,50.2745482,2500-43 Avenue,Vernon,BC,V1T 9S8,(250)309-4616,Province of British Columbia
337,Options Community Services Society,Assisted Living,Fraser Health,Maple House,-122.7883584,49.0267895,1360 Maple St,White Rock,BC,V4B 4M9,(604) 584-5811,Province of British Columbia
338,Fraserside Community Services Society,Assisted Living,Fraser Health,Summit House,-122.7569006,49.2671936,1530 Coquitlam Ave,Port Coquitlam,BC,V3C 2Z7,(604) 475-3412,Province of British Columbia
339,Nanaimo John Howard Society,Assisted Living,Island Health,Vancouver Island Therapeutic Community - John Howard,-124.0007094,49.1964594,2368 Rosstown Rd,Nanaimo,BC,V9T 3R7,(250) 758-5611,Province of British Columbia
340,ASK Wellness Society,Assisted Living,Interior Health,ASK Wellness Society - Maverick Manor,-120.3648204,50.6552431,1250 Hillside Crt.,Kamloops,BC,V2C 6R3,(250) 376-7558,Province of British Columbia
341,Quesnel Shelter and Support Society,Assisted Living,Northern Health,Bridges Supportive Housing,-122.5042589,52.9772975,355 Elliot St,Quesnel,BC,V2J 1Y5,(778) 414-1229,Province of British Columbia
342,Adult & Teen Challenge Society of BC,Assisted Living,Fraser Health,Patricia Hope House,-122.6841919,49.0312823,19465 16th Ave,Surrey,BC,V3Z 9V2,(604) 575-3930,Province of British Columbia
343,Mosaic Seniors Care Society,Assisted Living,Fraser Health,Gateway Assisted Living,-122.840396,49.1844599,13787 100 Ave,Surrey,BC,V3T 5E4,(604) 585-2906,Province of British Columbia
344,Cheryl Buchanan,Assisted Living,Vancouver Coastal,New Story Community,-123.4609506,49.3979062,Lot #52 Keats Road,Keats Island,BC,BC,(250) 715-8225,Province of British Columbia
345,Back on Track Recovery Society,Assisted Living,Fraser Health,Back on Track - Robin's Nest,-122.7128816,49.0834008,4456 - 184th Street,Surrey,BC,V3S 0L5,(778) 316-2625,Province of British Columbia
346,Port Alberni Shelter Society,Assisted Living,Island Health,PASS TRC,-124.7595041,49.1979687,725 Franklin River Road,Port Alberni,BC,V0R 1M0,(250) 723-6511,Province of British Columbia
