idx,facility_name,facility_type,health_authority,longitude,latitude,province,phone,website,provider
0,Emergency Health Services,Emergency Room Care,BC Children's Hospital,-123.121258,49.246175,BC,,http://www.bcchildrens.ca/our-services/hospital-services/emergency-services,Province of British Columbia
1,Emergency Health Services,Emergency Room Care,Fraser Health Authority,-122.313003,49.038152,BC,,https://www.fraserhealth.ca/patients-and-visitors/when-to-use-the-emergency/,Province of British Columbia
2,Emergency Health Services,Emergency Room Care,Fraser Health Authority,-122.842316,49.177003,BC,,https://www.fraserhealth.ca/patients-and-visitors/when-to-use-the-emergency/,Province of British Columbia
3,Emergency Health Services,Emergency Room Care,Fraser Health Authority,-121.962422,49.165763,BC,,https://www.fraserhealth.ca/patients-and-visitors/when-to-use-the-emergency/,Province of British Columbia
4,Emergency Health Services,Emergency Room Care,Fraser Health Authority,-121.424345,49.376899,BC,,https://www.fraserhealth.ca/patients-and-visitors/when-to-use-the-emergency/,Province of British Columbia
5,Emergency Health Services,Emergency Room Care,Fraser Health Authority,-122.613957,49.093175,BC,,https://www.fraserhealth.ca/patients-and-visitors/when-to-use-the-emergency/,Province of British Columbia
6,Emergency Health Services,Emergency Room Care,Fraser Health Authority,-122.631951,49.214787,BC,,https://www.fraserhealth.ca/patients-and-visitors/when-to-use-the-emergency/,Province of British Columbia
7,Emergency Health Services,Emergency Room Care,Fraser Health Authority,-122.892844,49.22679,BC,,https://www.fraserhealth.ca/patients-and-visitors/when-to-use-the-emergency/,Province of British Columbia
8,Emergency Health Services,Emergency Room Care,Fraser Health Authority,-122.823597,49.283374,BC,,https://www.fraserhealth.ca/patients-and-visitors/when-to-use-the-emergency/,Province of British Columbia
9,Emergency Health Services,Emergency Room Care,Fraser Health Authority,-123.016837,49.248776,BC,,https://www.fraserhealth.ca/patients-and-visitors/when-to-use-the-emergency/,Province of British Columbia
10,Emergency Health Services,Emergency Room Care,Fraser Health Authority,-122.331733,49.135186,BC,,https://www.fraserhealth.ca/patients-and-visitors/when-to-use-the-emergency/,Province of British Columbia
11,Emergency Health Services,Emergency Room Care,Fraser Health Authority,-122.793632,49.029793,BC,,https://www.fraserhealth.ca/patients-and-visitors/when-to-use-the-emergency/,Province of British Columbia
12,Emergency Health Services,Emergency Room Care,Fraser Health Authority,-123.059929,49.08461,BC,,https://www.fraserhealth.ca/patients-and-visitors/when-to-use-the-emergency/,Province of British Columbia
13,Pediatric Emergency Department,Emergency Room Care,Fraser Health Authority,-122.842316,49.177003,BC,6045812211.0,https://www.fraserhealth.ca/Service-Directory/Services/child-and-youth-services/paediatric-emergency,Province of British Columbia
14,Emergency Health Services,Emergency Room Care,Interior Health Authority,-120.125113,51.180406,BC,,https://www.interiorhealth.ca/FindUs/_layouts/FindUs/info.aspx?type=Service&loc=&svc=Emergency%20Health%20Services&ploc=,Province of British Columbia
15,Emergency Health Services,Emergency Room Care,Interior Health Authority,-120.526235,49.453436,BC,,https://www.interiorhealth.ca/FindUs/_layouts/FindUs/info.aspx?type=Service&loc=&svc=Emergency%20Health%20Services&ploc=,Province of British Columbia
16,Emergency Health Services,Emergency Room Care,Interior Health Authority,-116.508309,49.098702,BC,,https://www.interiorhealth.ca/FindUs/_layouts/FindUs/info.aspx?type=Service&loc=&svc=Emergency%20Health%20Services&ploc=,Province of British Columbia
17,Emergency Health Services,Emergency Room Care,Interior Health Authority,-120.771016,50.121468,BC,,https://www.interiorhealth.ca/FindUs/_layouts/FindUs/info.aspx?type=Service&loc=&svc=Emergency%20Health%20Services&ploc=,Province of British Columbia
18,Emergency Health Services,Emergency Room Care,Interior Health Authority,-119.53841,49.184285,BC,,https://www.interiorhealth.ca/FindUs/_layouts/FindUs/info.aspx?type=Service&loc=&svc=Emergency%20Health%20Services&ploc=,Province of British Columbia
19,Emergency Health Services,Emergency Room Care,Interior Health Authority,-116.032224,50.506441,BC,,https://www.interiorhealth.ca/FindUs/_layouts/FindUs/info.aspx?type=Service&loc=&svc=Emergency%20Health%20Services&ploc=,Province of British Columbia
20,Emergency Health Services,Emergency Room Care,Interior Health Authority,-116.966604,51.296527,BC,,https://www.interiorhealth.ca/FindUs/_layouts/FindUs/info.aspx?type=Service&loc=&svc=Emergency%20Health%20Services&ploc=,Province of British Columbia
21,Emergency Health Services,Emergency Room Care,Interior Health Authority,-119.578687,49.482657,BC,,https://www.interiorhealth.ca/FindUs/_layouts/FindUs/info.aspx?type=Service&loc=&svc=Emergency%20Health%20Services&ploc=,Province of British Columbia
22,Emergency Health Services,Emergency Room Care,Interior Health Authority,-115.748688,49.512483,BC,,https://www.interiorhealth.ca/FindUs/_layouts/FindUs/info.aspx?type=Service&loc=&svc=Emergency%20Health%20Services&ploc=,Province of British Columbia
23,Emergency Health Services,Emergency Room Care,Interior Health Authority,-115.0566,49.51284,BC,,https://www.interiorhealth.ca/FindUs/_layouts/FindUs/info.aspx?type=Service&loc=&svc=Emergency%20Health%20Services&ploc=,Province of British Columbia
24,Emergency Health Services,Emergency Room Care,Interior Health Authority,-122.143656,52.137421,BC,,https://www.interiorhealth.ca/FindUs/_layouts/FindUs/info.aspx?type=Service&loc=&svc=Emergency%20Health%20Services&ploc=,Province of British Columbia
25,Emergency Health Services,Emergency Room Care,Interior Health Authority,-120.018229,51.646945,BC,,https://www.interiorhealth.ca/FindUs/_layouts/FindUs/info.aspx?type=Service&loc=&svc=Emergency%20Health%20Services&ploc=,Province of British Columbia
26,Emergency Health Services,Emergency Room Care,Interior Health Authority,-121.939063,50.689254,BC,,https://www.interiorhealth.ca/FindUs/_layouts/FindUs/info.aspx?type=Service&loc=&svc=Emergency%20Health%20Services&ploc=,Province of British Columbia
27,Emergency Health Services,Emergency Room Care,Interior Health Authority,-117.284817,49.495025,BC,,https://www.interiorhealth.ca/FindUs/_layouts/FindUs/info.aspx?type=Service&loc=&svc=Emergency%20Health%20Services&ploc=,Province of British Columbia
28,Emergency Health Services,Emergency Room Care,Interior Health Authority,-121.280163,50.734772,BC,,https://www.interiorhealth.ca/FindUs/_layouts/FindUs/info.aspx?type=Service&loc=&svc=Emergency%20Health%20Services&ploc=,Province of British Columbia
29,Emergency Health Services,Emergency Room Care,Interior Health Authority,-121.292384,51.638711,BC,,https://www.interiorhealth.ca/FindUs/_layouts/FindUs/info.aspx?type=Service&loc=&svc=Emergency%20Health%20Services&ploc=,Province of British Columbia
30,Emergency Health Services,Emergency Room Care,Interior Health Authority,-118.191902,50.976799,BC,,https://www.interiorhealth.ca/FindUs/_layouts/FindUs/info.aspx?type=Service&loc=&svc=Emergency%20Health%20Services&ploc=,Province of British Columbia
31,Emergency Health Services,Emergency Room Care,Interior Health Authority,-119.274422,50.704586,BC,,https://www.interiorhealth.ca/FindUs/_layouts/FindUs/info.aspx?type=Service&loc=&svc=Emergency%20Health%20Services&ploc=,Province of British Columbia
32,Emergency Health Services,Emergency Room Care,Interior Health Authority,-121.580874,50.234313,BC,,https://www.interiorhealth.ca/FindUs/_layouts/FindUs/info.aspx?type=Service&loc=&svc=Emergency%20Health%20Services&ploc=,Province of British Columbia
33,Emergency Health Services,Emergency Room Care,Interior Health Authority,-114.892672,49.721453,BC,,https://www.interiorhealth.ca/FindUs/_layouts/FindUs/info.aspx?type=Service&loc=&svc=Emergency%20Health%20Services&ploc=,Province of British Columbia
34,Emergency Health Services,Emergency Room Care,Interior Health Authority,-117.659998,49.314395,BC,,https://www.interiorhealth.ca/FindUs/_layouts/FindUs/info.aspx?type=Service&loc=&svc=Emergency%20Health%20Services&ploc=,Province of British Columbia
35,Emergency Health Services,Emergency Room Care,Interior Health Authority,-116.914089,49.913883,BC,,https://www.interiorhealth.ca/FindUs/_layouts/FindUs/info.aspx?type=Service&loc=&svc=Emergency%20Health%20Services&ploc=,Province of British Columbia
36,Emergency Health Services,Emergency Room Care,Interior Health Authority,-117.794638,50.238724,BC,,https://www.interiorhealth.ca/FindUs/_layouts/FindUs/info.aspx?type=Service&loc=&svc=Emergency%20Health%20Services&ploc=,Province of British Columbia
37,Emergency Health Services,Emergency Room Care,Interior Health Authority,-119.491273,49.873281,BC,,https://www.interiorhealth.ca/FindUs/_layouts/FindUs/info.aspx?type=Service&loc=&svc=Emergency%20Health%20Services&ploc=,Province of British Columbia
38,Emergency Health Services,Emergency Room Care,Interior Health Authority,-117.70147,49.10318,BC,,https://www.interiorhealth.ca/FindUs/_layouts/FindUs/info.aspx?type=Service&loc=&svc=Emergency%20Health%20Services&ploc=,Province of British Columbia
39,Emergency Health Services,Emergency Room Care,Interior Health Authority,-119.273751,50.256925,BC,,https://www.interiorhealth.ca/FindUs/_layouts/FindUs/info.aspx?type=Service&loc=&svc=Emergency%20Health%20Services&ploc=,Province of British Columbia
40,Emergency Health Services,Emergency Room Care,Interior Health Authority,-120.334025,50.671418,BC,,https://www.interiorhealth.ca/FindUs/_layouts/FindUs/info.aspx?type=Service&loc=&svc=Emergency%20Health%20Services&ploc=,Province of British Columbia
41,Emergency Health Services,Emergency Room Care,Interior Health Authority,-117.373941,49.984216,BC,,https://www.interiorhealth.ca/FindUs/_layouts/FindUs/info.aspx?type=Service&loc=&svc=Emergency%20Health%20Services&ploc=,Province of British Columbia
42,Emergency Health Services,Emergency Room Care,Interior Health Authority,-119.68568,50.818238,BC,,https://www.interiorhealth.ca/FindUs/_layouts/FindUs/info.aspx?type=Service&loc=&svc=Emergency%20Health%20Services&ploc=,Province of British Columbia
43,Emergency Health Services,Emergency Room Care,Interior Health Authority,-124.583244,51.898899,BC,,https://www.interiorhealth.ca/FindUs/_layouts/FindUs/info.aspx?type=Service&loc=&svc=Emergency%20Health%20Services&ploc=,Province of British Columbia
44,Emergency Health Services,Emergency Room Care,Interior Health Authority,-118.467838,49.030363,BC,,https://www.interiorhealth.ca/FindUs/_layouts/FindUs/info.aspx?type=Service&loc=&svc=Emergency%20Health%20Services&ploc=,Province of British Columbia
45,Emergency Health Services,Emergency Room Care,Interior Health Authority,-114.918185,50.021306,BC,,https://www.interiorhealth.ca/FindUs/_layouts/FindUs/info.aspx?type=Service&loc=&svc=Emergency%20Health%20Services&ploc=,Province of British Columbia
46,Emergency Health Services,Emergency Room Care,Interior Health Authority,-123.275914,52.085559,BC,,https://www.interiorhealth.ca/FindUs/_layouts/FindUs/info.aspx?type=Service&loc=&svc=Emergency%20Health%20Services&ploc=,Province of British Columbia
47,Emergency Health Services,Emergency Room Care,Interior Health Authority,-118.146151,49.77841,BC,,https://www.interiorhealth.ca/FindUs/_layouts/FindUs/info.aspx?type=Service&loc=&svc=Emergency%20Health%20Services&ploc=,Province of British Columbia
48,Emergency Health Services,Emergency Room Care,Interior Health Authority,-119.831731,49.20514,BC,,https://www.interiorhealth.ca/FindUs/_layouts/FindUs/info.aspx?type=Service&loc=&svc=Emergency%20Health%20Services&ploc=,Province of British Columbia
49,Emergency Health Services,Emergency Room Care,Vancouver Coastal Health,-123.147547,49.170162,BC,,http://www.vch.ca/your-care/emergency-care,Province of British Columbia
50,Emergency Health Services,Emergency Room Care,Vancouver Coastal Health,-128.143874,52.160187,BC,,http://www.vch.ca/your-care/emergency-care,Province of British Columbia
51,Emergency Health Services,Emergency Room Care,Vancouver Coastal Health,-123.749159,49.475307,BC,,http://www.vch.ca/your-care/emergency-care,Province of British Columbia
52,Emergency Health Services,Emergency Room Care,Vancouver Coastal Health,-124.520727,49.851072,BC,,http://www.vch.ca/your-care/emergency-care,Province of British Columbia
53,Emergency Health Services,Emergency Room Care,Vancouver Coastal Health,-126.762576,52.372895,BC,,http://www.vch.ca/your-care/emergency-care,Province of British Columbia
54,Emergency Health Services,Emergency Room Care,Vancouver Coastal Health,-123.068318,49.320214,BC,,http://www.vch.ca/your-care/emergency-care,Province of British Columbia
55,Emergency Health Services,Emergency Room Care,Vancouver Coastal Health,-123.140086,49.700092,BC,,http://www.vch.ca/your-care/emergency-care,Province of British Columbia
56,Emergency Health Services,Emergency Room Care,Vancouver Coastal Health,-122.954906,50.120463,BC,,http://www.vch.ca/your-care/emergency-care,Province of British Columbia
57,Emergency Health Services,Emergency Room Care,Vancouver Coastal Health,-122.804482,50.32076,BC,,http://www.vch.ca/your-care/emergency-care,Province of British Columbia
58,Emergency Health Services - Vancouver,Emergency Room Care,Vancouver Coastal Health,-123.124725,49.262412,BC,,http://www.vch.ca/your-care/emergency-care,Province of British Columbia
59,Emergency Health Services,Emergency Room Care,Island Health,-127.067379,50.58026,BC,,https://www.islandhealth.ca/patients-visitors/visiting-emergency-department,Province of British Columbia
60,Emergency Health Services,Emergency Room Care,Island Health,-127.503215,50.720244,BC,,https://www.islandhealth.ca/patients-visitors/visiting-emergency-department,Province of British Columbia
61,Emergency Health Services,Emergency Room Care,Island Health,-123.411323,48.594199,BC,,https://www.islandhealth.ca/patients-visitors/visiting-emergency-department,Province of British Columbia
62,Emergency Health Services,Emergency Room Care,Island Health,-123.326541,48.434061,BC,,https://www.islandhealth.ca/patients-visitors/visiting-emergency-department,Province of British Columbia
63,Emergency Health Services,Emergency Room Care,Island Health,-125.243155,50.011132,BC,,https://www.islandhealth.ca/patients-visitors/visiting-emergency-department,Province of British Columbia
64,Emergency Health Services,Emergency Room Care,Island Health,-123.432576,48.466809,BC,,https://www.islandhealth.ca/patients-visitors/visiting-emergency-department,Province of British Columbia
65,Emergency Health Services,Emergency Room Care,Island Health,-123.723323,48.785009,BC,,https://www.islandhealth.ca/patients-visitors/visiting-emergency-department,Province of British Columbia
66,Emergency Health Services,Emergency Room Care,Island Health,-123.969945,49.183502,BC,,https://www.islandhealth.ca/patients-visitors/visiting-emergency-department,Province of British Columbia
67,Emergency Health Services,Emergency Room Care,Island Health,-125.908605,49.151591,BC,,https://www.islandhealth.ca/patients-visitors/visiting-emergency-department,Province of British Columbia
68,Emergency Health Services,Emergency Room Care,Island Health,-124.781792,49.248801,BC,,https://www.islandhealth.ca/patients-visitors/visiting-emergency-department,Province of British Columbia
69,Emergency Health Services,Emergency Room Care,Island Health,-123.508599,48.861445,BC,,https://www.islandhealth.ca/patients-visitors/visiting-emergency-department,Province of British Columbia
70,Emergency Health Services,Emergency Room Care,Island Health,-127.487219,50.4255,BC,,https://www.islandhealth.ca/patients-visitors/visiting-emergency-department,Province of British Columbia
71,Emergency Health Services,Emergency Room Care,Island Health,-126.926661,50.583656,BC,,https://www.islandhealth.ca/patients-visitors/visiting-emergency-department,Province of British Columbia
72,Emergency Health Services,Emergency Room Care,Island Health,-126.048774,49.78125,BC,,https://www.islandhealth.ca/patients-visitors/visiting-emergency-department,Province of British Columbia
73,Emergency Health Services,Emergency Room Care,Island Health,-126.851068,49.989011,BC,,https://www.islandhealth.ca/patients-visitors/visiting-emergency-department,Province of British Columbia
74,Emergency Health Services,Emergency Room Care,Island Health,-126.663244,49.913388,BC,,https://www.islandhealth.ca/patients-visitors/visiting-emergency-department,Province of British Columbia
75,Emergency Health Services,Emergency Room Care,Island Health,-124.969565,49.712428,BC,,https://www.islandhealth.ca/patients-visitors/visiting-emergency-department,Province of British Columbia
76,Emergency Health Services,Emergency Room Care,Northern Health,-122.703101,58.809101,BC,2507748100.0,https://www.northernhealth.ca/locations/hospitals,Province of British Columbia
77,Emergency Health Services,Emergency Room Care,Northern Health,-121.00198,55.125373,BC,,https://www.northernhealth.ca/locations/hospitals,Province of British Columbia
78,Emergency Health Services,Emergency Room Care,Northern Health,-129.992101,58.441804,BC,2507714444.0,https://www.northernhealth.ca/locations/hospitals,Province of British Columbia
79,Emergency Health Services,Emergency Room Care,Northern Health,-129.990761,55.939636,BC,2506362221.0,https://www.northernhealth.ca/locations/hospitals,Province of British Columbia
80,Emergency Health Services,Emergency Room Care,Northern Health,-124.245474,54.442987,BC,2509968201.0,https://www.northernhealth.ca/locations/hospitals,Province of British Columbia
81,Emergency Health Services,Emergency Room Care,Northern Health,-124.849774,54.059109,BC,2506996225.0,https://www.northernhealth.ca/locations/hospitals,Province of British Columbia
82,Emergency Health Services,Emergency Room Care,Northern Health,-119.270254,52.83206,BC,,https://www.northernhealth.ca/locations/hospitals,Province of British Columbia
83,Emergency Health Services,Emergency Room Care,Northern Health,-125.760016,54.235568,BC,2506922400.0,https://www.northernhealth.ca/locations/hospitals,Province of British Columbia
84,Emergency Health Services,Emergency Room Care,Northern Health,-128.647481,54.050409,BC,2506322121.0,https://www.northernhealth.ca/locations/hospitals,Province of British Columbia
85,Emergency Health Services,Emergency Room Care,Northern Health,-128.596516,54.510843,BC,2506352211.0,https://www.northernhealth.ca/locations/hospitals,Province of British Columbia
86,Emergency Health Services,Emergency Room Care,Northern Health,-122.763153,53.911251,BC,2505652000.0,https://www.northernhealth.ca/locations/hospitals,Province of British Columbia
87,Emergency Health Services,Emergency Room Care,Northern Health,-132.151708,54.012317,BC,,https://www.northernhealth.ca/locations/hospitals,Province of British Columbia
88,Emergency Health Services,Emergency Room Care,Northern Health,-132.070526,53.254868,BC,2505594900.0,https://www.northernhealth.ca/locations/hospitals,Province of British Columbia
89,Emergency Health Services,Emergency Room Care,Northern Health,-127.163822,54.784976,BC,2508472611.0,https://www.northernhealth.ca/locations/hospitals,Province of British Columbia
90,Emergency Health Services,Emergency Room Care,Northern Health,-133.704315,59.574828,BC,2506517677.0,https://www.northernhealth.ca/locations/hospitals,Province of British Columbia
91,Emergency Health Services,Emergency Room Care,Northern Health,-123.101288,55.33812,BC,2509973263.0,https://www.northernhealth.ca/locations/hospitals,Province of British Columbia
92,Emergency Health Services,Emergency Room Care,Northern Health,-120.16308,53.300909,BC,2505692251.0,https://www.northernhealth.ca/locations/hospitals,Province of British Columbia
93,Emergency Health Services,Emergency Room Care,Northern Health,-120.237333,55.749057,BC,2507828501.0,https://www.northernhealth.ca/locations/hospitals,Province of British Columbia
94,Emergency Health Services,Emergency Room Care,Northern Health,-120.817122,56.256892,BC,2502625200.0,https://www.northernhealth.ca/locations/hospitals,Province of British Columbia
95,Emergency Health Services,Emergency Room Care,Northern Health,-124.008821,54.02876,BC,2505672211.0,https://www.northernhealth.ca/locations/hospitals,Province of British Columbia
96,Emergency Health Services,Emergency Room Care,Northern Health,-122.498817,52.981739,BC,2509855600.0,https://www.northernhealth.ca/locations/hospitals,Province of British Columbia
97,Emergency Health Services,Emergency Room Care,Northern Health,-127.651295,55.259655,BC,2508425211.0,https://www.northernhealth.ca/locations/hospitals,Province of British Columbia
98,Emergency Health Services,Emergency Room Care,Northern Health,-121.914866,56.026604,BC,,https://www.northernhealth.ca/locations/hospitals,Province of British Columbia
99,Emergency Health Services,Emergency Room Care,Northern Health,-121.64632,55.695973,BC,2507882236.0,https://www.northernhealth.ca/locations/hospitals,Province of British Columbia
100,Emergency Health Services,Emergency Room Care,Northern Health,-130.332179,54.304265,BC,2506242171.0,https://www.northernhealth.ca/locations/hospitals,Province of British Columbia
101,Emergency Health Services,Emergency Room Care,Providence Health Care Society,-123.128913,49.280614,BC,,https://www.providencehealthcare.org/hospitals-residences/st-pauls-hospital/emergency-services,Province of British Columbia
102,Emergency Health Services,Emergency Room Care,Providence Health Care Society,-123.096358,49.257699,BC,,https://www.providencehealthcare.org/hospitals-residences/mount-saint-joseph-hospital/emergency-services,Province of British Columbia
