idx,facility_name,facility_type,longitude,latitude,street_addr,city,province,phone,website,provider
0,Metro Toronto Convention Centre,City-operated Immunization Clinic,-79.386829859627,43.643971128415,"255 Front Street West, North Building, Hall A (west ramp on Front Street at John Street)",Toronto,ON,,,Toronto
1,Scarborough Town Centre,City-operated Immunization Clinic,-79.258930615442,43.776990231769,300 Borough Drive,Toronto,ON,,,Toronto
2,Cloverdale Mall,City-operated Immunization Clinic,-79.556501959627,43.632603612174,250 The East Mall,Toronto,ON,,,Toronto
3,Woodbine Mall,City-operated Immunization Clinic,-79.599279647844,43.719178000313,500 Rexdale Boulevard,Toronto,ON,,,Toronto
4,Mitchell Field Arena,City-operated Immunization Clinic,-79.40822900195101,43.774637558851,89 Church Avenue,Toronto,ON,,,Toronto
5,Wellesley Community Centre,Hospital Immunization Clinic,-79.374465659626,43.667604299075,495 Sherbourne Street (east entrance by the parkette),Toronto,ON,,https://sherbourne.on.ca/covid-19-vaccine-info/,Toronto
6,Seneca College Vaccination Clinic,Hospital Immunization Clinic,-79.349676663484,43.795323958241,1750 Finch Avenue East,Toronto,ON,,https://www.nygh.on.ca/,Toronto
7,SHN Centenary Clinic,Hospital Immunization Clinic,-79.206660232638,43.78239801145,2867 Ellesmere Road,Toronto,ON,,https://www.scarboroughcovidvaccineclinic.ca/,Toronto
8,Warden Hilltop Community Centre,Hospital Immunization Clinic,-79.28074231914901,43.71479635415,25 Mendelssohn Street,Toronto,ON,,https://tehn.ca/covid19/covid-19-vaccine,Toronto
9,West Park Healthcare Centre,Hospital Immunization Clinic,-79.508040174969,43.689919358638,82 Buttonwood Avenue,Toronto,ON,,https://www.westpark.org/en/PatientsAndFamilies/COVID-19/VaccinationClinics,Toronto
10,"Regent Park, 40 Oaks (Fred Victor)",Hospital Immunization Clinic,-79.36531997497001,43.661619703176,40 Oak Street,Toronto,ON,,https://regentparkchc.org/,Toronto
11,University Health Network - University of Toronto - St. George's Campus Vaccination Clinic,Hospital Immunization Clinic,-79.392924501954,43.65874688966,255 McCaul Street (entrance through main doors on McCaul Street),Toronto,ON,,University-Rosedale,Toronto
12,East York Town Centre,Hospital Immunization Clinic,-79.346049059625,43.705981419136,45 Overlea Boulevard,Toronto,ON,,https://tehn.ca/covid19/covid-19-vaccine/covid-19-immunization-clinics-east-toronto,Toronto
13,Carefirst Seniors and Community Services Association Clinic,Hospital Immunization Clinic,-79.29495668845701,43.812781513219,300 Silver Star Boulevard,Toronto,ON,,https://www.scarboroughcovidvaccineclinic.ca/,Toronto
14,Centennial College Progress Campus Clinic,Hospital Immunization Clinic,-79.22820230195001,43.785626371638,941 Progress Avenue,Toronto,ON,,https://www.scarboroughcovidvaccineclinic.ca/,Toronto
15,Humber River Hospital COVax Vaccine Clinic - Downsview Arena,Hospital Immunization Clinic,-79.531034259625,43.713852472062,2625 Weston Road,Toronto,ON,,https://www.hrh.ca/covax-clinic-booking/,Toronto
16,NYGH Vaccination Clinic,Hospital Immunization Clinic,-79.36320180195101,43.769755820985,4001 Leslie Street,Toronto,ON,,,Toronto
17,CAMH Vaccination Clinic,Hospital Immunization Clinic,-79.419124457775,43.64352200475,100 Stokes Street,Toronto,ON,,http://www.camh.ca/covidvaccine,Toronto
18,TAIBU Community Health Centre,Hospital Immunization Clinic,-79.2205897086,43.806308528206,27 Tapscott Road,Toronto,ON,,https://www.scarboroughcovidvaccineclinic.ca/,Toronto
19,The Mid-Scarborough Hub,Hospital Immunization Clinic,-79.250706610454,43.737387970125,2660 Eglinton Avenue East,Toronto,ON,,https://www.scarboroughcovidvaccineclinic.ca/,Toronto
20,Michael Garron Hospital,Hospital Immunization Clinic,-79.324879659625,43.690088500097,825 Coxwell Avenue,Toronto,ON,,https://tehn.ca/covid19/covid-19-vaccine,Toronto
21,Allcures Pharmacy,Pharmacy Immunization Site,-79.329585034,43.718572185,"31 St. Dennis Drive, Unit 1",Toronto,ON,416-696-1400,,Toronto
22,Raymond Wing Chiu Chan Drug Ltd.,Pharmacy Immunization Site,-79.374856585,43.770123506,794 Sheppard Ave East,Toronto,ON,416-222-7701,,Toronto
23,KIPLING & QUEENSWAY PHARMACY,Pharmacy Immunization Site,-79.524809007,43.621073842,"1255 THE QUEENSWAY, UNIT-20",Toronto,ON,647-508-3550,,Toronto
24,NEW CALEDONIA PHARMACY,Pharmacy Immunization Site,-79.462294728,43.693285018,600 Caledonia Rd,Toronto,ON,416-785-8385,,Toronto
25,HEALTH CHECK PHARMACY PHARMASAVE,Pharmacy Immunization Site,-79.248587886,43.823166745,"2826A MARKHAM ROAD, SCARBOROUGH, ONTARIO",Toronto,ON,416-298-8165,,Toronto
26,Vina Pharmacy,Pharmacy Immunization Site,-79.337169872,43.668691587,1025 Gerrard Street E,Toronto,ON,416-469-5386,,Toronto
27,Birchmount Pharmasave,Pharmacy Immunization Site,-79.26959561,43.707284138,462 Birchmount Road,Toronto,ON,416-698-1616,,Toronto
28,Whole Health Pharmacy,Pharmacy Immunization Site,-79.5023861,43.699196993,"1575 Jane Street, Unit 7",Toronto,ON,416-245-2273,https://wholehealthcooksville.ca/,Toronto
29,pharmasave 606,Pharmacy Immunization Site,-79.28803955200001,43.680636081,944 Kingston Rd.,Toronto,ON,416-698-1641,https://lawlor.medmeapp.ca/schedule/,Toronto
30,Keele and Finch Pharmacy,Pharmacy Immunization Site,-79.48744566400001,43.763887344,102- 1275 Finch Ave West,Toronto,ON,647-349-2273,https://pharmasave.com/store/pharmasave-university-heights-pharmacy/,Toronto
31,Jarvis st. Apothecary,Pharmacy Immunization Site,-79.374722773,43.658253511,275 Jarvis St.,Toronto,ON,416-792-1959,https://jarvis-st-apothecary.business.site,Toronto
32,Total Health Pharmacy,Pharmacy Immunization Site,-79.338046193,43.668487404,997 Gerrard St E,Toronto,ON,647-351-3784,https://pharmaconnect.ca/Appointment/ff38dc2c-4b68-479a-a6a5-5c0f6bd992c5,Toronto
33,Nor-Arm Pharmacy,Pharmacy Immunization Site,-79.488537583,43.764248055,107-1280 Finch Ave West,Toronto,ON,416-667-8430,https://www.guardian-ida-pharmacies.ca/en/ontario/toronto/nor-arm-pharmacy-7018005,Toronto
34,Premier Pharmacy and Compounding Centre,Pharmacy Immunization Site,-79.43093572799999,43.725380703,3323 Bathurst Street,Toronto,ON,647-347-1311,https://premierpharmacy.ca/,Toronto
35,Northcliffe Pharmacy,Pharmacy Immunization Site,-79.44784703099999,43.696007225,1751 Eglinton Avenue West,Toronto,ON,416-256-7888,https://www.guardian-ida-pharmacies.ca/en/ontario/toronto/northcliff-pharmacy-7023147,Toronto
36,LOBLAWS INC LOB1010 RX DSP,Pharmacy Immunization Site,-79.412275076,43.768280256,5095 YONGE ST,Toronto,ON,416-512-9436,https://www.loblaws.ca/covid19,Toronto
37,LOBLAWS INC LOB1212 RX DSP,Pharmacy Immunization Site,-79.41530468000001,43.684075185,396 ST CLAIR AVE W,Toronto,ON,416-651-5145,https://www.loblaws.ca/covid19,Toronto
38,Dynasty Pharmacy,Pharmacy Immunization Site,-79.415524819,43.777205211,5460 Yonge Street Unit 106,Toronto,ON,416-250-5460,https://www.rxhealthmed.ca/locations/dynasty-pharmacy/,Toronto
39,Lingeman IDA Pharmacy,Pharmacy Immunization Site,-79.487922138,43.658742791,411 Jane st,Toronto,ON,416-767-8409,https://www.guardian-ida-pharmacies.ca/en/ontario/toronto/lingeman-ida-pharmacy-7028510,Toronto
40,Guardian Village Square Pharmacy,Pharmacy Immunization Site,-79.329809802,43.794260779,"2942 FINCH AVE E., Scar, Ont",Toronto,ON,416-492-4167,https://www.guardian-ida-pharmacies.ca/en/ontario/scarborough/village-square-pharmacy-7005106,Toronto
41,Orton Park Guardian Pharmacy,Pharmacy Immunization Site,-79.20911961,43.77171822,136 Orton Park Road,Toronto,ON,416-439-7222,https://www.guardian-ida-pharmacies.ca/en/ontario/scarborough/orton-park-pharmacy-7041430,Toronto
42,Canadian Compounding Pharmacy,Pharmacy Immunization Site,-79.507232356,43.648501682,2920 Bloor St West,Toronto,ON,416-239-3566,https://www.medspharmacy.ca/canadian-compounding-pharmacy,Toronto
43,High Park,Pharmacy Immunization Site,-79.466789535,43.653433271,1938 Bloor St. W,Toronto,ON,416-769-2222,https://www.medspharmacy.ca/high-park-pharmacy,Toronto
44,Junction Pharmacy,Pharmacy Immunization Site,-79.469944965,43.665660061,3016 DUNDAS ST WEST,Toronto,ON,416-763-2394,https://www.medspharmacy.ca/junction-pharmacy,Toronto
45,Rosebury - Sobeys,Pharmacy Immunization Site,-79.441027128,43.703254768,145 Marlee Avenue,Toronto,ON,416-781-0606,https://www.pharmacyappointments.ca/,Toronto
46,Lawrence/Midland - Sobeys,Pharmacy Immunization Site,-79.263873273,43.752174235,2650 Lawrence Avenue E,Toronto,ON,416-755-4184,https://www.pharmacyappointments.ca/,Toronto
47,Unicare Pharmacy,Pharmacy Immunization Site,-79.517825239,43.598308603,3170 Lakeshore BLVD West,Toronto,ON,416-503-0013,https://www.guardian-ida-pharmacies.ca/en/ontario/toronto/unicare-pharmacy-7001192,Toronto
48,Care and Health Pharmacy,Pharmacy Immunization Site,-79.293529986,43.690270422,2928 Danforth Ave,Toronto,ON,416-537-2565,https://carehealth.pharmabest.ca/,Toronto
49,Rylander Pharmasave,Pharmacy Immunization Site,-79.148074795,43.798573896,"6758 Kingston Rd., Unit 8",Toronto,ON,416-281-4223,https://pharmasave.com/scarborough-rylander/,Toronto
50,Sam's I.D.A. Pharmacy,Pharmacy Immunization Site,-79.39727693499999,43.698770881,1920 Yonge Street,Toronto,ON,416-483-3003,https://www.guardian-ida-pharmacies.ca/en/ontario/toronto/sams-ida-pharmacy-7008620,Toronto
51,Pharmasave (PHF 307-1),Pharmacy Immunization Site,-79.403617352,43.665282022,"720 Spadina Ave, Unit 100",Toronto,ON,416-929-7200,https://spadinamedicalpharmacy.medmeapp.ca/schedule,Toronto
52,Snowden Pharmacy,Pharmacy Immunization Site,-79.40039575599999,43.667615656,264 Bloor St. W,Toronto,ON,416-922-2156,https://www.snowdoncompounding.com/,Toronto
53,City Pharmacy Remedy's Rx,Pharmacy Immunization Site,-79.355405335,43.677139691,238 Danforth Avenue,Toronto,ON,416-469-1898,https://www.remedys.ca/en/ontario/toronto/city-pharmacy-remedysrx-7018322,Toronto
54,Bathurst Wilson IDA Pharmacy,Pharmacy Immunization Site,-79.43658011399999,43.737225285,322 Wilson Ave,Toronto,ON,416-638-1755,https://www.guardian-ida-pharmacies.ca/en/ontario/downsview/bathurst-wilson-i-d-d-d-a-d-pharmacy-7014507,Toronto
55,ARIA PHARMACY,Pharmacy Immunization Site,-79.417779991,43.792959377,11 NEWTON DR,Toronto,ON,647-716-5663,https://ariapharmacy.ca/,Toronto
56,CLINICPLUS I.D.A. PHARMACY,Pharmacy Immunization Site,-79.488544014,43.637790316,"10 NEIGHBOURHOOD LANE, UNIT 103",Toronto,ON,416-232-0018,https://www.guardian-ida-pharmacies.ca/en/ontario/etobicoke/clinic-plus-pharmacy-7035501,Toronto
57,THE MEDICINE SHOPPE PHARMACY # 134,Pharmacy Immunization Site,-79.473005864,43.690839184,2600 EGLINTON AVE WEST,Toronto,ON,416-651-6511,https://www.medicineshoppe.ca/en/ontario/toronto/the-medicine-shoppe-pharmacy-134-7014226,Toronto
58,People's Choice RemedysRx,Pharmacy Immunization Site,-79.199175559,43.801243998,1145 Morningside Ave. Unit#16,Toronto,ON,647-748-7337,https://www.peopleschoicepharmacies.com/,Toronto
59,Kennedy Road Pharmacy,Pharmacy Immunization Site,-79.28401762599999,43.771982426,"2 Antrim Crescent, Unit 4",Toronto,ON,416-298-2222,https://idapharmacytoronto.ca/,Toronto
60,East York Pharmasave,Pharmacy Immunization Site,-79.32676340099999,43.69015940100001,840 Coxwell Ave. #102,Toronto,ON,416-613-9511,https://pharmasave.com/toronto-east-york/,Toronto
61,Lefko Pharmasave #794,Pharmacy Immunization Site,-79.467380913,43.730803868,842 Wilson Ave,Toronto,ON,416-635-6802,https://ps794.medmeapp.ca/schedule,Toronto
62,One Eva,Pharmacy Immunization Site,-79.56306624699999,43.639469453,1 Eva Road,Toronto,ON,416-628-5793,https://1evapharmacy.ca/,Toronto
63,Lawrence Pharmacy,Pharmacy Immunization Site,-79.26148795,43.751692831,2683 Lawrence Ave E,Toronto,ON,416-750-4691,https://www.remedys.ca/en/ontario/scarborough/lawrence-pharmacy-7016574?utm_source=Google&utm_medium=maps&utm_campaign=Local_Presence,Toronto
64,Keele-Ingram Pharmacy,Pharmacy Immunization Site,-79.47550433799999,43.698959775,2221 Keele Street,Toronto,ON,416-247-8618,https://www.pharmachoice.com/locations/keele-ingram/,Toronto
65,LOBLAWS INC RCSS2800 RX DSP,Pharmacy Immunization Site,-79.53385064299999,43.709950033,2549 WESTON RD,Toronto,ON,416-246-1417,https://www.realcanadiansuperstore.ca/covid19,Toronto
66,Shoppers Drug Mart 857,Pharmacy Immunization Site,-79.565240884,43.711375082,123 Rexdale Blvd,Toronto,ON,416-743-1645,https://www.shoppersdrugmart.ca/covid19,Toronto
67,Shoppers Drug Mart 859,Pharmacy Immunization Site,-79.24765016000001,43.736523524,2751 Eglinton Ave E,Toronto,ON,416-267-8211,https://www.shoppersdrugmart.ca/covid19,Toronto
68,Wal-Mart Pharmacy #3159,Pharmacy Immunization Site,-79.293906187,43.727477033,1900 EGLINTON AVE E,Toronto,ON,416-615-2702,https://www.walmart.ca,Toronto
69,Shoppers Drug Mart 1322,Pharmacy Immunization Site,-79.375430592,43.669960976,"565 SHERBOURNE STREET, UNIT 40",Toronto,ON,416-963-9495,https://www.shoppersdrugmart.ca/covid19,Toronto
70,LOBLAWS INC FORT4165 RX DSP,Pharmacy Immunization Site,-79.596042772,43.721575079,330 QUEENS PLATE DR,Toronto,ON,416-745-2825,https://fortinos.ca/covid19,Toronto
71,Welcome Guardian Drugs (Roncesvalles),Pharmacy Immunization Site,-79.447412719,43.643375049,137 Roncesvalles Avenue,Toronto,ON,416-533-2088,https://roncesvallesguardianpharmacy.com/,Toronto
72,Healing Source Pharmacy,Pharmacy Immunization Site,-79.47579016,43.651021745,2209 Bloor St West,Toronto,ON,416-769-1717,https:\www.healingsourcepharmacy.ca,Toronto
73,Metro Drugs,Pharmacy Immunization Site,-79.376156857,43.656558446,129 Dundas St E,Toronto,ON,416-363-7300,https:\www.metrodrugs.ca,Toronto
74,Beaches Pharmacy,Pharmacy Immunization Site,-79.30145772199999,43.669556461,1967 Queen St East,Toronto,ON,416-699-4999,https:\www.Pharmasave.com,Toronto
75,Friendly Care West King Pharmacy,Pharmacy Immunization Site,-79.522437686,43.702148362,2077 Weston Rd.,Toronto,ON,416-248-4485,https:\www.westkingpharmacy.com,Toronto
76,Greendale Drugs,Pharmacy Immunization Site,-79.374563176,43.663087211,152 Carlton Street,Toronto,ON,416-967-6610,https:\www.CareandCure.com,Toronto
77,Victoria Commons Pharmacy,Pharmacy Immunization Site,-79.321139532,43.7729758,"2555 Victoria Park Ave, Unit 6",Toronto,ON,416-551-7237,https:\www.viccomhealth.com,Toronto
78,Well+Good Pharmacy,Pharmacy Immunization Site,-79.381251539,43.667222854,557 Church St,Toronto,ON,416-532-5007,https:\www.wellandgoodpharmacy.com,Toronto
79,Ava Pharmacy,Pharmacy Immunization Site,-79.390361502,43.688674585,81 St Clair Ave East unit 220,Toronto,ON,416-962-2111,https:\www.avapharmacy.ca,Toronto
80,Lapsley Pharmacy,Pharmacy Immunization Site,-79.22635893899999,43.79570521,27 Lapsley Rd,Toronto,ON,416-291-3773,,Toronto
81,I CARE Pharmacy Services,Pharmacy Immunization Site,-79.35148187199999,43.706587121,"2 Thorncliffe Park Drive, Unit 26-27",Toronto,ON,647-885-4045,,Toronto
82,Islington Medical Pharmacy,Pharmacy Immunization Site,-79.523504428,43.645927948,1243 Islington Ave,Toronto,ON,416-239-1243,https://www.islingtonmedicalpharmacy.com,Toronto
83,Markham Corners Pharmacy,Pharmacy Immunization Site,-79.239299479,43.792608081,5113 Sheppard Ave E,Toronto,ON,647-349-8383,https://www.markhamcornersmedical.ca,Toronto
84,Pharmacare Drug Mart,Pharmacy Immunization Site,-79.35756142800001,43.680738054,891 Broadview Ave,Toronto,ON,416-424-1242,https://www.pharmacaredrugmart.ca,Toronto
85,Symington Pharmacy,Pharmacy Immunization Site,-79.45123237200001,43.666461336,333 Symington Ave,Toronto,ON,416-533-9695,https://www.symingtonpharmacy.ca,Toronto
86,Victoria Park Pharmacy,Pharmacy Immunization Site,-79.29841231,43.713888577,1314 Victoria Park Ave.,Toronto,ON,416-752-0888,https://www.victoriaparkpharmacy.com,Toronto
87,Mortar + Pestle Compounding Pharmacy,Pharmacy Immunization Site,-79.470290061,43.652156726,1997 Bloor Street West,Toronto,ON,416-901-8020,https://www.mortarpestle.ca,Toronto
88,Forest Hill Pharmacy,Pharmacy Immunization Site,-79.412848278,43.70345502,491 Eglinton Ave W #102,Toronto,ON,416-619-7768,https://www.foresthillpharmacy.com,Toronto
89,Markland Wood Pharmacy,Pharmacy Immunization Site,-79.575912497,43.630990801,4335 Bloor Street West,Toronto,ON,416-621-2000,https://www.marklandwoodpharmacy.ca,Toronto
90,Shoppers Drug Mart 1483,Pharmacy Immunization Site,-79.576687818,43.641675456,666 Burnhamthorpe Rd.,Toronto,ON,416-620-4867,https://www.shoppersdrugmart.ca/covid19,Toronto
91,Shoppers Drug Mart 1253,Pharmacy Immunization Site,-79.43903923000001,43.63990348,1473 Queen St. West,Toronto,ON,416-530-2799,https://www.shoppersdrugmart.ca/covid19,Toronto
92,Shoppers Drug Mart 1362,Pharmacy Immunization Site,-79.41943856,43.643752883,"1033 QUEEN STREET WEST, UNIT A",Toronto,ON,416-516-5756,https://www.shoppersdrugmart.ca/covid19,Toronto
93,Shoppers Drug Mart 1441,Pharmacy Immunization Site,-79.380352309,43.650367452,333 Bay St.,Toronto,ON,416-304-1151,https://www.shoppersdrugmart.ca/covid19,Toronto
94,Shoppers Drug Mart 855,Pharmacy Immunization Site,-79.222824988,43.809178666,1400 Neilson Rd.,Toronto,ON,416-754-3130,https://www.shoppersdrugmart.ca/covid19,Toronto
95,Shoppers Simply Pharmacy 3017,Pharmacy Immunization Site,-79.355407468,43.676607878,"235 DANFORTH AVE, UNIT 101",Toronto,ON,416-778-7780,https://www.shoppersdrugmart.ca/covid19,Toronto
96,HealthSmart Pharmasave,Pharmacy Immunization Site,-79.267103937,43.732081947,2425 Eglinton Ave. E. #10,Toronto,ON,416-759-0000,https://www.healthsmartpharmasave.com,Toronto
97,Pharmasave Cedarcourt Pharmacy,Pharmacy Immunization Site,-79.226951304,43.759797121,3480 Lawrence Avenue East,Toronto,ON,416-289-0000,https://www.pharmasave.com,Toronto
98,Sanomed Pharmacy & compounding Centre,Pharmacy Immunization Site,-79.38791166,43.665397383,1000 Bay st,Toronto,ON,416-923-7770,https://www.sanomedpharmacy.com,Toronto
99,Green pharmacy,Pharmacy Immunization Site,-79.414188927,43.664734947,620A Bloor street west,Toronto,ON,416-530-4004,https://www.pharmachoice.com,Toronto
100,Junction Chemist Pharmacy,Pharmacy Immunization Site,-79.47396059499999,43.665282387,17 St. Johns Rd,Toronto,ON,647-748-3784,https://www.junctionchemist.ca,Toronto
101,GLENCADE PHARMACY,Pharmacy Immunization Site,-79.561801833,43.634647842,"290 THE WEST MALL ETOBICOKE, ON M9C1C6",Toronto,ON,416-622-2111,https://www.GLENCADEPHARMACY.CA,Toronto
102,Toronto East Pharmasave,Pharmacy Immunization Site,-79.32495078100001,43.689823411,"825 Coxwell Ave. #C114, Toronto, Ontario",Toronto,ON,416-778-1221,https://www.tepharmasave.com,Toronto
103,Wal-Mart Pharmacy #1080,Pharmacy Immunization Site,-79.254408509,43.833404957,5995 STEELES AVE E,Toronto,ON,416-298-2578,https://www.walmart.ca,Toronto
104,Wal-Mart Pharmacy #3000,Pharmacy Immunization Site,-79.292249459,43.783929916,3850 SHEPPARD AVE E,Toronto,ON,416-293-2429,https://www.walmart.ca,Toronto
105,Shoppers Drug Mart 872,Pharmacy Immunization Site,-79.42232389,43.79617064,6428 Yonge St.,Toronto,ON,416-223-6250,https://www.shoppersdrugmart.ca/covid19,Toronto
106,Shoppers Drug Mart 985,Pharmacy Immunization Site,-79.37975059199999,43.646291957,200 Bay St.,Toronto,ON,416-865-0001,https://www.shoppersdrugmart.ca/covid19,Toronto
107,Shoppers Drug Mart 1509,Pharmacy Immunization Site,-79.322096922,43.7750538,2901 Sheppard Ave. East,Toronto,ON,416-491-4444,https://www.shoppersdrugmart.ca/covid19,Toronto
108,Birchmount & Sheppard Scarborough Rexall,Pharmacy Immunization Site,-79.298450999,43.780462274,3607 Sheppard Avenue East,Toronto,ON,416-291-0402,https://www.rexall.ca,Toronto
109,Shoppers Drug Mart 1162,Pharmacy Immunization Site,-79.50233816799999,43.773410091,"4700 KEELE STREET, YORK LANES",Toronto,ON,416-514-0993,https://www.shoppersdrugmart.ca/covid19,Toronto
110,Shoppers Drug Mart 1313,Pharmacy Immunization Site,-79.377937316,43.714154464,"1860 BAYVIEW AVENUE, UNIT 101",Toronto,ON,416-482-9841,https://www.shoppersdrugmart.ca/covid19,Toronto
111,Shoppers Drug Mart 800,Pharmacy Immunization Site,-79.223913229,43.760682884,629 Markham Rd,Toronto,ON,416-439-2121,https://www.shoppersdrugmart.ca/covid19,Toronto
112,"Church & Front, Toronto Rexall",Pharmacy Immunization Site,-79.373867394,43.64817414,63 Front Street East,Toronto,ON,416-607-6387,https://www.rexall.ca,Toronto
113,Shoppers Drug Mart 919,Pharmacy Immunization Site,-79.444456887,43.791134191,6205 Bathurst St.,Toronto,ON,416-222-5464,https://www.shoppersdrugmart.ca/covid19,Toronto
114,Shoppers Drug Mart 881,Pharmacy Immunization Site,-79.451467173,43.726070444,3401 DUFFERIN ST.,Toronto,ON,416-789-1201,https://www.shoppersdrugmart.ca/covid19,Toronto
115,Wal-Mart Pharmacy #1004,Pharmacy Immunization Site,-79.48530166099999,43.668058323,2525 ST CLAIR AVE W,Toronto,ON,416-763-1867,https://www.walmart.ca,Toronto
116,Wal-Mart Pharmacy #3111,Pharmacy Immunization Site,-79.200127241,43.797555284,799 MILNER AVE,Toronto,ON,416-281-4643,https://www.walmart.ca,Toronto
117,Metro Pharmacy #537,Pharmacy Immunization Site,-79.288695805,43.690633629,3003 Danforth Avenue,Toronto,ON,416-686-8484,https://www.metro.ca/pharmacy,Toronto
118,North York City Centre Rexall,Pharmacy Immunization Site,-79.413067543,43.768869836,5150 Yonge Street,Toronto,ON,416-226-6442,https://www.rexall.ca,Toronto
119,Shoppers Drug Mart 1399,Pharmacy Immunization Site,-79.152335853,43.796762059,"91 Rylander Blvd., Unit 1022",Toronto,ON,416-724-5344,https://www.shoppersdrugmart.ca/covid19,Toronto
120,Shoppers Drug Mart 945,Pharmacy Immunization Site,-79.379370553,43.647214431,181 BAY ST,Toronto,ON,416-777-1300,https://www.shoppersdrugmart.ca/covid19,Toronto
121,Shoppers Drug Mart 1005,Pharmacy Immunization Site,-79.422103494,43.640246732,1090 King St. West,Toronto,ON,416-977-4101,https://www.shoppersdrugmart.ca/covid19,Toronto
122,Shoppers Drug Mart 1408,Pharmacy Immunization Site,-79.38868472599999,43.669632591,55 Bloor St. West,Toronto,ON,416-925-6949,https://www.shoppersdrugmart.ca/covid19,Toronto
123,Brunswick House Rexall,Pharmacy Immunization Site,-79.40711720900001,43.66575379,481 Bloor Street W,Toronto,ON,416-929-8213,https://www.rexall.ca,Toronto
124,Greenwin Square Toronto Rexall,Pharmacy Immunization Site,-79.37797600899999,43.671534273,"345 Bloor Street., Unit 3",Toronto,ON,416-923-5962,https://www.rexall.ca,Toronto
125,Shoppers Drug Mart 915,Pharmacy Immunization Site,-79.312836584,43.705956122,812 O'Connor Dr.,Toronto,ON,416-285-5822,https://www.shoppersdrugmart.ca/covid19,Toronto
126,Dundas & Spadina Rexall,Pharmacy Immunization Site,-79.397614976,43.653224865,285 Spadina Avenue,Toronto,ON,416-596-1602,https://www.rexall.ca,Toronto
127,Shoppers Drug Mart 993,Pharmacy Immunization Site,-79.40233269300001,43.647793818,524 Queen St. West,Toronto,ON,416-703-0228,https://www.shoppersdrugmart.ca/covid19,Toronto
128,Keele/Wilson Toronto Rexall,Pharmacy Immunization Site,-79.482684917,43.725854216,1115 Wilson Avenue,Toronto,ON,416-633-4366,https://www.rexall.ca,Toronto
129,Shoppers Drug Mart 837,Pharmacy Immunization Site,-79.519824058,43.661773238,270 The Kingsway,Toronto,ON,416-233-1155,https://www.shoppersdrugmart.ca/covid19,Toronto
130,Shoppers Drug Mart 860,Pharmacy Immunization Site,-79.258018709,43.776283247,300 Borough Dr.,Toronto,ON,416-296-5056,https://www.shoppersdrugmart.ca/covid19,Toronto
131,Shoppers Drug Mart 814,Pharmacy Immunization Site,-79.303721056,43.688029383,2494 Danforth Ave.,Toronto,ON,416-698-1888,https://www.shoppersdrugmart.ca/covid19,Toronto
132,Yonge/Melrose Toronto Rexall,Pharmacy Immunization Site,-79.40450848099999,43.732985241,3402 Yonge Street,Toronto,ON,416-544-0746,https://www.rexall.ca,Toronto
133,Lakeshore/37th Etobicoke Rexall,Pharmacy Immunization Site,-79.538427408,43.59298971,3701 Lakeshore Blvd West,Toronto,ON,416-259-3777,https://www.rexall.ca,Toronto
134,Shoppers Drug Mart 879,Pharmacy Immunization Site,-79.462660915,43.692636694,2343 Eglinton Ave. West,Toronto,ON,416-651-7111,https://www.shoppersdrugmart.ca/covid19,Toronto
135,Hazelton Lanes Rexall,Pharmacy Immunization Site,-79.39518526499999,43.672016671,87 Avenue Road,Toronto,ON,416-922-5555,https://www.rexall.ca,Toronto
136,Shoppers Drug Mart 1421,Pharmacy Immunization Site,-79.48305682,43.623107417,2206 Lake Shore Blvd. West,Toronto,ON,416-259-1330,https://www.shoppersdrugmart.ca/covid19,Toronto
137,Gerrard & Victoria - Sobeys,Pharmacy Immunization Site,-79.28492713200001,43.687900873,2490 Gerrard St. East,Toronto,ON,416-698-2060,https://www.pharmacyappointments.ca/,Toronto
138,LOBLAWS INC LOB1079 RX DSP,Pharmacy Immunization Site,-79.36987821300001,43.644490468,10 LOWER JARVIS ST,Toronto,ON,416-304-0619,https://www.loblaws.ca/covid19,Toronto
139,LOBLAWS INC RCSS1077 RX DSP,Pharmacy Immunization Site,-79.33896238,43.722006661,825 DON MILLS RD,Toronto,ON,416-391-4847,https://www.realcanadiansuperstore.ca/covid19,Toronto
140,LOBLAWS INC NF4222 RX DSP,Pharmacy Immunization Site,-79.440695371,43.649553325,222 LANSDOWNE AVE,Toronto,ON,416-588-7744,https://www.nofrills.ca/covid19,Toronto
141,LOBLAWS INC LOB1066 RX DSP,Pharmacy Immunization Site,-79.55959941499999,43.64396199,380 THE EAST MALL,Toronto,ON,416-695-0610,https://www.loblaws.ca/covid19,Toronto
142,LOBLAWS INC LOB1019 RX DSP,Pharmacy Immunization Site,-79.387294897,43.768619355,2877 BAYVIEW AVE,Toronto,ON,416-733-1350,https://www.loblaws.ca/covid19,Toronto
143,No Frills,Pharmacy Immunization Site,-79.310406489,43.742447141,1450 LAWRENCE AVE E,Toronto,ON,416-752-0135,https://www.nofrills.ca/covid19,Toronto
144,LOBLAWS INC LOB1099 RX DSP,Pharmacy Immunization Site,-79.495866925,43.66543417,3671 DUNDAS ST W,Toronto,ON,416-769-5570,https://www.loblaws.ca/covid19,Toronto
145,LOBLAWS INC LOB1154 RX DSP,Pharmacy Immunization Site,-79.45054238,43.654817881,2280 DUNDAS ST W,Toronto,ON,416-533-0770,https://www.loblaws.ca/covid19,Toronto
146,LOBLAWS INC LOB1092 RX DSP,Pharmacy Immunization Site,-79.360159966,43.699973461,11 REDWAY RD,Toronto,ON,416-425-8433,https://www.loblaws.ca/covid19,Toronto
147,No Frills,Pharmacy Immunization Site,-79.230288387,43.758540756,3401 LAWRENCE AVE E,Toronto,ON,416-438-4392,https://www.nofrills.ca/covid19,Toronto
148,LOBLAWS INC NF4119 RX DSP,Pharmacy Immunization Site,-79.34275020699999,43.668294709,449 CARLAW AVE,Toronto,ON,416-462-0651,https://www.nofrills.ca/covid19,Toronto
149,LOBLAWS INC LOB4354 RX DSP,Pharmacy Immunization Site,-79.366323458,43.651100893,200 FRONT ST E,Toronto,ON,416-363-6412,https://www.nofrills.ca/covid19,Toronto
150,Costco Pharmacy #1316,Pharmacy Immunization Site,-79.34718227800001,43.706911602,42 Overlea Blvd,Toronto,ON,647-265-9387,https://www.costcopharmacy.ca/,Toronto
151,Costco Pharmacy #535,Pharmacy Immunization Site,-79.455811158,43.731043023,100 Billy Bishop Way,Toronto,ON,416-635-9724,https://www.costcopharmacy.ca/,Toronto
152,Costco Pharmacy #524,Pharmacy Immunization Site,-79.50738880599999,43.622697529,50 Queen Elizabeth Blvd,Toronto,ON,416-251-2024,https://www.costcopharmacy.ca/,Toronto
153,LOBLAWS INC NF4345 RX DSP,Pharmacy Immunization Site,-79.518489702,43.631868283,1020 ISLINGTON AVE,Toronto,ON,416-234-1204,https://www.nofrills.ca/covid19,Toronto
154,LOBLAWS INC LOB1007 RXDSP,Pharmacy Immunization Site,-79.380033002,43.662060943,60 CARLTON ST,Toronto,ON,416-593-1542,https://www.loblaws.ca/covid19,Toronto
155,LOBLAWS INC LOB1004 RX DSP,Pharmacy Immunization Site,-79.32899599,43.660899959,17 LESLIE ST,Toronto,ON,416-968-7283,https://www.loblaws.ca/covid19,Toronto
156,LOBLAWS INC LOB4388 RX DSP,Pharmacy Immunization Site,-79.421911267,43.794746218,6220 YONGE ST,Toronto,ON,416-224-8626,https://www.nofrills.ca/covid19,Toronto
157,Costco Pharmacy #537,Pharmacy Immunization Site,-79.29774234600001,43.75965769,1411 Warden Ave,Toronto,ON,416-288-1172,https://www.costcopharmacy.ca/,Toronto
158,LOBLAWS INC NF4127 RX DSP,Pharmacy Immunization Site,-79.29882673,43.823703294,681 SILVER STAR BLVD,Toronto,ON,416-292-3656,https://www.nofrills.ca/covid19,Toronto
159,Shoppers Drug Mart 1240,Pharmacy Immunization Site,-79.404489513,43.732313544,3366 Yonge St.,Toronto,ON,416-483-3018,https://www.shoppersdrugmart.ca/covid19,Toronto
160,Richmond/Adelaide Toronto Rexall,Pharmacy Immunization Site,-79.38319998999999,43.650005212,120 Adelaide Street W. Unit # R28,Toronto,ON,416-368-2743,https://www.rexall.ca,Toronto
161,Rexall - Richview Plaza Weston,Pharmacy Immunization Site,-79.546779456,43.679692216,250 Wincott Drive,Toronto,ON,416-248-1735,https://www.rexall.ca,Toronto
162,Shoppers Drug Mart 949,Pharmacy Immunization Site,-79.377533215,43.64891928,69 Yonge St.,Toronto,ON,416-364-1948,https://www.shoppersdrugmart.ca/covid19,Toronto
163,Shoppers Drug Mart 807,Pharmacy Immunization Site,-79.385438175,43.670753155,20 Bloor St. East,Toronto,ON,416-967-7787,https://www.shoppersdrugmart.ca/covid19,Toronto
164,Yonge/Eglinton Toronto Rexall,Pharmacy Immunization Site,-79.399083523,43.707157586,2300 Yonge Street,Toronto,ON,416-484-4540,https://www.rexall.ca,Toronto
165,Shoppers Drug Mart 1410,Pharmacy Immunization Site,-79.396992117,43.668376106,236 Bloor St. West,Toronto,ON,416-927-0440,https://www.shoppersdrugmart.ca/covid19,Toronto
166,Galleria SC Toronto,Pharmacy Immunization Site,-79.441754258,43.667509633,1245 Dupont Street,Toronto,ON,416-537-0805,https://www.rexall.ca,Toronto
167,Shoppers Drug Mart 1335,Pharmacy Immunization Site,-79.184897425,43.770113674,255 Morningside Ave.,Toronto,ON,416-282-1129,https://www.shoppersdrugmart.ca/covid19,Toronto
168,Shoppers Drug Mart 1377,Pharmacy Immunization Site,-79.428772134,43.661607205,958 Bloor St. West,Toronto,ON,416-538-0105,https://www.shoppersdrugmart.ca/covid19,Toronto
169,Shoppers Drug Mart 867,Pharmacy Immunization Site,-79.46785467399999,43.671607753,620 Keele St.,Toronto,ON,416-766-3095,https://www.shoppersdrugmart.ca/covid19,Toronto
170,Shoppers Drug Mart 838,Pharmacy Immunization Site,-79.43532213,43.741195343,3874 Bathurst St,Toronto,ON,416-635-5601,https://www.shoppersdrugmart.ca/covid19,Toronto
171,LOBLAWS INC LOB1021 RX DSP,Pharmacy Immunization Site,-79.288215636,43.688363865,50 MUSGRAVE ST,Toronto,ON,416-694-6263,https://www.loblaws.ca/covid19,Toronto
172,Shoppers Drug Mart 1255,Pharmacy Immunization Site,-79.329913099,43.657974296,1015 Lakeshore Blvd. East,Toronto,ON,416-461-0565,https://www.shoppersdrugmart.ca/covid19,Toronto
173,Shoppers Drug Mart 986,Pharmacy Immunization Site,-79.410769235,43.762395182,4841 Yonge St,Toronto,ON,416-222-1174,https://www.shoppersdrugmart.ca/covid19,Toronto
174,Sheppard Ave Willowdale Rexall,Pharmacy Immunization Site,-79.39801175800001,43.764651404,288 Sheppard Avenue E.,Toronto,ON,416-222-5021,https://www.rexall.ca,Toronto
175,Shoppers Drug Mart 830,Pharmacy Immunization Site,-79.34449498399999,43.777739651,1800 Sheppard Ave. East,Toronto,ON,416-491-5567,https://www.shoppersdrugmart.ca/covid19,Toronto
176,Shoppers Drug Mart 984,Pharmacy Immunization Site,-79.30018613,43.670175715,2000 Queen St. East,Toronto,ON,416-694-0471,https://www.shoppersdrugmart.ca/covid19,Toronto
177,College Park Toronto Rexall,Pharmacy Immunization Site,-79.38537884599999,43.660634351,777 Bay Street Unit C 216,Toronto,ON,416-977-5824,https://www.rexall.ca,Toronto
178,Shoppers Drug Mart 939,Pharmacy Immunization Site,-79.39432829499999,43.689379027,1507 Yonge St.,Toronto,ON,416-923-7700,https://www.shoppersdrugmart.ca/covid19,Toronto
179,Shoppers Drug Mart 994,Pharmacy Immunization Site,-79.34226374799999,43.679193443,755 Danforth Ave.,Toronto,ON,416-461-7533,https://www.shoppersdrugmart.ca/covid19,Toronto
180,Cloverdale Mall Toronto,Pharmacy Immunization Site,-79.55446628999999,43.63242299,250 The East Mall,Toronto,ON,416-239-3512,https://www.rexall.ca,Toronto
181,Shoppers Drug Mart 1232,Pharmacy Immunization Site,-79.357006884,43.676890398,180 Danforth Ave.,Toronto,ON,416-466-5698,https://www.shoppersdrugmart.ca/covid19,Toronto
182,Shoppers Drug Mart 808,Pharmacy Immunization Site,-79.51105767999999,43.647715035,3010 Bloor St. West,Toronto,ON,416-234-0136,https://www.shoppersdrugmart.ca/covid19,Toronto
183,Shoppers Drug Mart 997,Pharmacy Immunization Site,-79.38122479800001,43.647230883,66 Wellington St. West Unit 10,Toronto,ON,416-365-0927,https://www.shoppersdrugmart.ca/covid19,Toronto
184,Shoppers Drug Mart 982,Pharmacy Immunization Site,-79.375082355,43.706346013,1601 Bayview Ave,Toronto,ON,416-489-1873,https://www.shoppersdrugmart.ca/covid19,Toronto
185,Rexall - First Canadian Place,Pharmacy Immunization Site,-79.38171077200001,43.648769522,"1 First Canadian Place, Unit # CN1038",Toronto,ON,416-362-6480,https://www.rexall.ca,Toronto
186,Shoppers Drug Mart 989,Pharmacy Immunization Site,-79.476473142,43.650929345,2223 Bloor St. West,Toronto,ON,416-769-1105,https://www.shoppersdrugmart.ca/covid19,Toronto
187,Shoppers Drug Mart 1351,Pharmacy Immunization Site,-79.37088217700001,43.647503698,18 Jarvis St.,Toronto,ON,416-203-3700,https://www.shoppersdrugmart.ca/covid19,Toronto
188,Shoppers Drug Mart 1414,Pharmacy Immunization Site,-79.391887492,43.649891591,260 Queen St. West,Toronto,ON,416-979-3903,https://www.shoppersdrugmart.ca/covid19,Toronto
189,Shoppers Drug Mart #943,Pharmacy Immunization Site,-79.38302543499999,43.661814113,465 Yonge St,Toronto,ON,416-408-4000,https://www.shoppersdrugmart.ca,Toronto
190,Shoppers Drug Mart 806,Pharmacy Immunization Site,-79.405184648,43.66664672,360A Bloor St W,Toronto,ON,416-961-2121,https://www.shoppersdrugmart.ca/covid19,Toronto
191,Shoppers Drug Mart 1166,Pharmacy Immunization Site,-79.486605543,43.665870051,3446 Dundas St W,Toronto,ON,416-766-8131,https://www.shoppersdrugmart.ca/covid19,Toronto
192,Shoppers Drug Mart 856,Pharmacy Immunization Site,-79.27655216300001,43.748649471,2251 Lawrence Av East,Toronto,ON,416-759-6767,https://www.shoppersdrugmart.ca/covid19,Toronto
193,Shoppers Drug Mart 836,Pharmacy Immunization Site,-79.41922389200001,43.682747376,523 St. Clair Ave. West,Toronto,ON,416-538-1155,https://www.shoppersdrugmart.ca/covid19,Toronto
194,Shoppers Drug Mart 865,Pharmacy Immunization Site,-79.481550674,43.630166261,125 The Queensway,Toronto,ON,416-766-6196,https://www.shoppersdrugmart.ca/covid19,Toronto
195,Shoppers Drug Mart 500,Pharmacy Immunization Site,-79.322265387,43.68395699,1630 Danforth Ave,Toronto,ON,416-461-2453,https://www.shoppersdrugmart.ca/covid19,Toronto
196,Shoppers Drug Mart 803,Pharmacy Immunization Site,-79.416299533,43.722676877,1500 AVENUE RD,Toronto,ON,416-781-6146,https://www.shoppersdrugmart.ca/covid19,Toronto
197,SHIH PHARMACY,Pharmacy Immunization Site,-79.58931351699999,43.75669264,2700 KIPLING AVE UNIT 9,Toronto,ON,416-740-1623,,Toronto
198,SHOPPERS DRUG MART #854,Pharmacy Immunization Site,-79.560374485,43.749024862,2550 FINCH AVE W,Toronto,ON,416-749-5271,https://www.shoppersdrugmart.ca/covid19,Toronto
199,CANADA CHEMISTS,Pharmacy Immunization Site,-79.41956234600001,43.734787027,1975 AVENUE ROAD,Toronto,ON,416-440-8008,,Toronto
200,HEALTH CORNER PHARMACY,Pharmacy Immunization Site,-79.315139871,43.758778536,3-2167 VICTORIA PARK AVE,Toronto,ON,416-384-0707,,Toronto
201,HEALING ARTS PHARMACY,Pharmacy Immunization Site,-79.34804390399999,43.735377559,113-170 THE DONWAY W,Toronto,ON,416-444-2604,,Toronto
202,DRUG STORE PHARMACY #4285,Pharmacy Immunization Site,-79.483767934,43.686772181,25 PHOTOGRAPHY CIR,Toronto,ON,416-763-1502,,Toronto
203,PHARMA TRUST DRUG MART*,Pharmacy Immunization Site,-79.511500101,43.738836382,1935 SHEPPARD AVE W,Toronto,ON,416-743-3351,,Toronto
204,LAROSE PHARMACY,Pharmacy Immunization Site,-79.52394982600001,43.685625102,140 LAROSE AVE,Toronto,ON,416-249-8600,,Toronto
205,GLEN PARK PHARMACY*,Pharmacy Immunization Site,-79.453862495,43.708746567,2920 DUFFERIN ST,Toronto,ON,416-256-1111,,Toronto
206,Shoppers Drug Mart 1214,Pharmacy Immunization Site,-79.450874008,43.695808882,1840 EGLINTON AVE W,Toronto,ON,416-256-6199,https://www.shoppersdrugmart.ca/covid19,Toronto
207,Shoppers Drug Mart 1320,Pharmacy Immunization Site,-79.39273864099999,43.64632013,388 King Street West,Toronto,ON,416-597-6550,https://www.shoppersdrugmart.ca/covid19,Toronto
208,Shoppers Drug Mart 811,Pharmacy Immunization Site,-79.23097158500001,43.725155934,2999 Kingston Rd.,Toronto,ON,416-261-6114,https://www.shoppersdrugmart.ca/covid19,Toronto
209,Shoppers Drug Mart 820,Pharmacy Immunization Site,-79.480845411,43.728254536,1084 Wilson Ave.,Toronto,ON,416-633-9884,https://www.shoppersdrugmart.ca/covid19,Toronto
210,Shoppers Drug Mart 871,Pharmacy Immunization Site,-79.34625567000001,43.705538116,45 Overlea Blvd.,Toronto,ON,416-421-5141,https://www.shoppersdrugmart.ca/covid19,Toronto
211,Shoppers Drug Mart 829,Pharmacy Immunization Site,-79.13950367,43.788621397,265 Port Union Rd.,Toronto,ON,416-284-9229,https://www.shoppersdrugmart.ca/covid19,Toronto
212,Shoppers Drug Mart 813,Pharmacy Immunization Site,-79.41909159799999,43.65427804,725 College St.,Toronto,ON,416-534-2375,https://www.shoppersdrugmart.ca/covid19,Toronto
213,Shoppers Drug Mart 1301,Pharmacy Immunization Site,-79.266187888,43.832776635,5671 Steeles Ave. East,Toronto,ON,416-292-2024,https://www.shoppersdrugmart.ca/covid19,Toronto
214,Queen & University Rexall,Pharmacy Immunization Site,-79.387018614,43.650413472,250 University Ave Unit 120,Toronto,ON,416-591-6493,https://www.rexall.ca,Toronto
215,Shoppers Drug Mart 1388,Pharmacy Immunization Site,-79.28913,43.784135226,2330 Kennedy Rd.,Toronto,ON,416-299-3532,https://www.shoppersdrugmart.ca/covid19,Toronto
216,Shoppers Drug Mart 877,Pharmacy Immunization Site,-79.35962517900001,43.754567819,1859 Leslie St.,Toronto,ON,416-383-9599,https://www.shoppersdrugmart.ca/covid19,Toronto
217,Shoppers Drug Mart 880,Pharmacy Immunization Site,-79.269312074,43.809220727,1571 Sandhurst Circle,Toronto,ON,416-292-6602,https://www.shoppersdrugmart.ca/covid19,Toronto
218,Shoppers Drug Mart 821,Pharmacy Immunization Site,-79.45237315700001,43.715201537,770 Lawrence Ave. West,Toronto,ON,416-787-0238,https://www.shoppersdrugmart.ca/covid19,Toronto
219,Shoppers Drug Mart 863,Pharmacy Immunization Site,-79.538129106,43.640261296,5230 DUNDAS ST. W.,Toronto,ON,416-233-3269,https://www.shoppersdrugmart.ca/covid19,Toronto
220,Shoppers Drug Mart 1281,Pharmacy Immunization Site,-79.407914053,43.674934792,292 Dupont St.,Toronto,ON,416-972-0232,https://www.shoppersdrugmart.ca/covid19,Toronto
221,Shoppers Drug Mart 823,Pharmacy Immunization Site,-79.34047378699999,43.661232463,970 Queen St. East,Toronto,ON,416-462-0062,https://www.shoppersdrugmart.ca/covid19,Toronto
222,Shoppers Drug Mart 1314,Pharmacy Immunization Site,-79.251040766,43.772890602,1235 McCowan Rd.,Toronto,ON,416-412-1353,https://www.shoppersdrugmart.ca/covid19,Toronto
223,Shoppers Drug Mart 818,Pharmacy Immunization Site,-79.38947868,43.707775578,759 Mount Pleasant Rd.,Toronto,ON,416-482-7100,https://www.shoppersdrugmart.ca/covid19,Toronto
224,Eglinton/Bathurst Toronto Rexall,Pharmacy Immunization Site,-79.427502596,43.70047591,901 Eglinton Avenue West,Toronto,ON,416-787-1344,https://www.rexall.ca,Toronto
225,Shoppers Drug Mart 1287,Pharmacy Immunization Site,-79.31921453299999,43.699241101,1500 Woodbine Ave.,Toronto,ON,416-429-2529,https://www.shoppersdrugmart.ca/covid19,Toronto
226,Shoppers Drug Mart 841,Pharmacy Immunization Site,-79.397932854,43.708950967,2345 Yonge St.,Toronto,ON,416-487-5411,https://www.shoppersdrugmart.ca/covid19,Toronto
227,Shoppers Drug Mart 851,Pharmacy Immunization Site,-79.31240742,43.757087153,85 Ellesmere Rd. Unit 31,Toronto,ON,416-444-8478,https://www.shoppersdrugmart.ca/covid19,Toronto
228,Shoppers Drug Mart 717,Pharmacy Immunization Site,-79.452950297,43.659111209,2440 Dundas St. West,Toronto,ON,416-536-0220,https://www.shoppersdrugmart.ca/covid19,Toronto
229,Shoppers Drug Mart #926,Pharmacy Immunization Site,-79.389515343,43.677632819,1027 Yonge St,Toronto,ON,416-961-0155,https://www.shoppersdrugmart.ca/covid19,Toronto
230,"Hullmark, Toronto Rexall",Pharmacy Immunization Site,-79.410160491,43.761337471,"4789 Yonge Street, Unit#2",Toronto,ON,416-733-0161,https://www.rexall.ca,Toronto
231,Shoppers Drug Mart 1288,Pharmacy Immunization Site,-79.405848715,43.643053551,761 King St. West,Toronto,ON,416-306-0311,https://www.shoppersdrugmart.ca/covid19,Toronto
232,Commerce Court Toronto Rexall,Pharmacy Immunization Site,-79.37956192,43.648226017,"199 Bay Street, Unit C186, P.O. Box 197",Toronto,ON,416-365-0972,https://www.rexall.ca,Toronto
233,Shoppers Drug Mart 1402,Pharmacy Immunization Site,-79.380392172,43.655591692,279 Yonge St.,Toronto,ON,416-591-1733,https://www.shoppersdrugmart.ca/covid19,Toronto
234,Spadina & College Toronto Rexall,Pharmacy Immunization Site,-79.40037398699999,43.657722443,474 Spadina Avenue,Toronto,ON,416-413-1060,https://www.rexall.ca,Toronto
235,Atrium on Bay Toronto Rexall,Pharmacy Immunization Site,-79.383297828,43.656212449,595 Bay Street,Toronto,ON,416-591-1414,https://www.rexall.ca,Toronto
236,Shoppers Drug Mart 1381,Pharmacy Immunization Site,-79.240181484,43.794578052,1780 Markham Rd A,Toronto,ON,416-412-1780,https://www.shoppersdrugmart.ca/covid19,Toronto
237,Shoppers Drug Mart 825,Pharmacy Immunization Site,-79.564889597,43.655462968,600 The East Mall Unit 1,Toronto,ON,416-622-3253,https://www.shoppersdrugmart.ca/covid19,Toronto
238,Parliament & Winchester Rexall,Pharmacy Immunization Site,-79.368472371,43.666040788,539 Parliament Street,Toronto,ON,416-926-1658,https://www.rexall.ca,Toronto
239,Shoppers Drug Mart 899,Pharmacy Immunization Site,-79.446394497,43.78487934,5998 Bathurst St.,Toronto,ON,416-661-6863,https://www.shoppersdrugmart.ca/covid19,Toronto
240,Shoppers Drug Mart 1403,Pharmacy Immunization Site,-79.38478380799999,43.746832574,2528 Bayview Ave.,Toronto,ON,416-444-8411,https://www.shoppersdrugmart.ca/covid19,Toronto
241,Mount Sinai Toronto Rexall,Pharmacy Immunization Site,-79.390441858,43.657527829,600 University Avenue,Toronto,ON,416-977-0408,https://www.rexall.ca,Toronto
242,Shoppers Drug Mart 903,Pharmacy Immunization Site,-79.539681964,43.594202308,"3730 LAKE SHORE BLVD WEST, UNIT 102",Toronto,ON,416-255-5243,https://www.shoppersdrugmart.ca/covid19,Toronto
243,St.Clair Centre Toronto Rexall,Pharmacy Immunization Site,-79.39384530300001,43.688356455,2 St. Clair Avenue East Unit C001,Toronto,ON,416-921-2171,https://www.rexall.ca,Toronto
244,Church/Wellesley Toronto Rexall,Pharmacy Immunization Site,-79.381315005,43.665428026,63 Wellesley Street E.,Toronto,ON,416-924-7760,https://www.rexall.ca,Toronto
245,Rexall - Skymark Plaza Willowdale,Pharmacy Immunization Site,-79.35395820399999,43.794379419,3555 Don Mills Road,Toronto,ON,416-494-8101,https://www.rexall.ca,Toronto
246,Waterpark Place Toronto Rexall,Pharmacy Immunization Site,-79.378707385,43.640849976,88 Queens Quay West,Toronto,ON,416-607-5552,https://www.rexall.ca,Toronto
247,Metro Ctr Toronto Rexall,Pharmacy Immunization Site,-79.387846227,43.645853124,"200 Wellington Street West, Unit 200, P.O. Box 101",Toronto,ON,416-979-1206,https://www.rexall.ca,Toronto
248,Shoppers Drug Mart 1510,Pharmacy Immunization Site,-79.419748986,43.73627687,2047 AVENUE ROAD,Toronto,ON,416-789-1122,https://www.shoppersdrugmart.ca/covid19,Toronto
249,YORKGATE IDA DRUGMART,Pharmacy Immunization Site,-79.519439349,43.758498549,YORKGATE MALL /1 YORK GATE BLVD,Toronto,ON,416-519-7877,https://www.yorkgateidadrugmart.com/,Toronto
250,SHOPPERS DRUG MART #843,Pharmacy Immunization Site,-79.384755719,43.80482328,1515 STEELES AVE E,Toronto,ON,,https://www.shoppersdrugmart.ca/covid19,Toronto
251,SHOPPERS DRUG MART #917,Pharmacy Immunization Site,-79.364697108,43.779278968,4865 LESLIE ST,Toronto,ON,416-282-5705,https://www.shoppersdrugmart.ca/covid19,Toronto
252,MEDICAL PHARMACY,Pharmacy Immunization Site,-79.21962696200001,43.80849721300001,110-1333 NEILSON RD,Toronto,ON,416-282-5705,https://scarboroughmp.medmeapp.com/schedule/,Toronto
253,SHOPPERS DRUG MART #845,Pharmacy Immunization Site,-79.565611496,43.683113691,415 THE WESTWAY,Toronto,ON,,https://www.shoppersdrugmart.ca/covid19,Toronto
254,SHOPPERS DRUG MART #804,Pharmacy Immunization Site,-79.439558593,43.7561633,598 SHEPPARD AVE W,Toronto,ON,,https://www.shoppersdrugmart.ca/covid19,Toronto
255,SHOPPERS DRUG MART #809,Pharmacy Immunization Site,-79.432682981,43.719426484,3110 BATHURST ST,Toronto,ON,,https://www.shoppersdrugmart.ca/covid19,Toronto
256,REXALL #299,Pharmacy Immunization Site,-79.369505219,43.696960431,325 MOORE AVE,Toronto,ON,,https://www.rexall.ca/covid-19/vaccines,Toronto
257,SHOPPERS DRUG MART #827,Pharmacy Immunization Site,-79.30065901099999,43.723528023,70 EGLINTON SQUARE BLVD,Toronto,ON,416-757-1131,https://www.shoppersdrugmart.ca/covid19,Toronto
258,REXALL #406,Pharmacy Immunization Site,-79.29374906,43.802425568,4040 FINCH AVE EAST,Toronto,ON,,https://www.rexall.ca/covid-19/vaccines,Toronto
259,SHOPPERS DRUG MART #980,Pharmacy Immunization Site,-79.31836422400001,43.798546197,2900 WARDEN AVE,Toronto,ON,,https://www.shoppersdrugmart.ca/covid19,Toronto
260,SHOPPERS DRUG MART #875,Pharmacy Immunization Site,-79.30992631300001,43.784802711,2355 WARDEN AVE,Toronto,ON,,https://www.shoppersdrugmart.ca/covid19,Toronto
261,B. Well Pharmacy,Pharmacy Immunization Site,-79.490033288451,43.624383287522,262 Manitoba Street,Toronto,ON,416-251-0000,https://www.bwellpharmacy.com,Toronto
262,Danny's Wellness Pharmacy,Pharmacy Immunization Site,-79.523459930779,43.622230729047,1206 The Queensway,Toronto,ON,416-901-1206,https://dannyrx1206.wixsite.com/website,Toronto
263,Martin Grove Pharmacy,Pharmacy Immunization Site,-79.548754759614,43.649358276459,135 Martin Grove Road,Toronto,ON,,,Toronto
264,Shoppers Simply Pharmacy,Pharmacy Immunization Site,-79.58550703077501,43.740382496358,1525 Albion Road Unit 104,Toronto,ON,,https://covid-19.shoppersdrugmart.ca/en,Toronto
265,9-Eleven Drug Mart,Pharmacy Immunization Site,-79.418328201937,43.789205733042,6018 Yonge Street,Toronto,ON,416-221-6444,,Toronto
266,1300 Finch Avenue West,Pharmacy Immunization Site,-79.48993235775799,43.764960506423,"1300 Finch Avenue West, Unit 29",Toronto,ON,416-633-2268,,Toronto
267,Don Mills Pharmacy,Pharmacy Immunization Site,-79.346479515431,43.74551421373,1300 Don Mills Road,Toronto,ON,416-391-3828,https://www.donmillspharmacy.ca/,Toronto
268,Food Basics Pharmacy,Pharmacy Immunization Site,-79.32550363077399,43.775970421842,2452 Sheppard Avenue East,Toronto,ON,,https://metropharmacy.medmeapp.com/schedule,Toronto
269,Madawaska Pharmasave,Pharmacy Immunization Site,-79.417734344265,43.790188019812,6043 Yonge Street,Toronto,ON,647-352-5688,https://madawaskapharmacy.medmeapp.ca/schedule,Toronto
270,Metro Pharmacy,Pharmacy Immunization Site,-79.412966273102,43.774580702196,20 Church Avenue,Toronto,ON,,https://www.metro.ca/en/services/pharmacy/covid-19,Toronto
271,Seoul Pharmacy,Pharmacy Immunization Site,-79.34955863077499,43.754251945591,"865 York Mills Road, Unit W1",Toronto,ON,647-350-5555,,Toronto
272,Shoppers Drug Mart,Pharmacy Immunization Site,-79.415988859522,43.779218924722,5576 Yonge Street,Toronto,ON,416-225-2321,https://covid-19.shoppersdrugmart.ca/en,Toronto
273,Shoppers Drug Mart,Pharmacy Immunization Site,-79.385493515341,43.767989903845,"2901 Bayview Avenue, Unit 7A",Toronto,ON,,https://covid-19.shoppersdrugmart.ca/en,Toronto
274,Shoppers Simply Pharmacy,Pharmacy Immunization Site,-79.377340499998,43.768900518374,"701 Sheppard Avenue East, Unit 101",Toronto,ON,,https://covid-19.shoppersdrugmart.ca/en,Toronto
275,Weston Care Pharmacy,Pharmacy Immunization Site,-79.53994962883399,43.738645165981,3214 Weston Road,Toronto,ON,647-350-8553,,Toronto
276,Bloor West Pharmacy,Pharmacy Immunization Site,-79.47806732883301,43.651194254449,2262 Bloor Street West,Toronto,ON,,https://www.remedys.ca/en/ontario/toronto/bloor-west-pharmacy-7011572,Toronto
277,Rexall,Pharmacy Immunization Site,-79.545586553964,43.602131285366,440 Brown's Line,Toronto,ON,,https://www.rexall.ca/covid-19/vaccines,Toronto
278,Rexall,Pharmacy Immunization Site,-79.378964297398,43.652281533158,159 Yonge Street,Toronto,ON,,https://www.rexall.ca/covid-19/vaccines,Toronto
279,Rexall,Pharmacy Immunization Site,-79.38826219999601,43.670514709457,"50 Bloor Street West, Unit C28-29",Toronto,ON,,https://www.rexall.ca/covid-19/vaccines,Toronto
280,Roya Boutique Pharmacy,Pharmacy Immunization Site,-79.370369628833,43.769390159737,77 Provost Drive,Toronto,ON,416-221-4200,https://www.facebook.com/RxRoya/,Toronto
281,Shoppers Drug Mart,Pharmacy Immunization Site,-79.345918142325,43.737496380407,946 Lawrence Avenue East,Toronto,ON,416-444-4445,https://covid-19.shoppersdrugmart.ca/en,Toronto
282,St. Gabriel Medical Pharmacy,Pharmacy Immunization Site,-79.381226669309,43.7687677574,650 Sheppard Avenue East,Toronto,ON,416-222-0007,,Toronto
283,The Drugstore Pharmacy,Pharmacy Immunization Site,-79.31243655581601,43.686443663111,985 Woodbine Avenue,Toronto,ON,,https://covid19.yourhealthmattershere.ca/en,Toronto
284,Victor Pharmacy,Pharmacy Immunization Site,-79.386810799998,43.655773540665,123 Edward Street,Toronto,ON,,https://victorpharmacy.com/#victor-pharmacy,Toronto
285,Wal-Mart Pharmacy,Pharmacy Immunization Site,-79.43663937116099,43.657599047025,900 Dufferin Street,Toronto,ON,,https://www.walmart.ca/cp/shop/covid-19-vaccinations-centre-info/6000203072273,Toronto
286,Wal-Mart Pharmacy,Pharmacy Immunization Site,-79.48844918465301,43.75803410732501,3757 Keele Street,Toronto,ON,,https://www.walmart.ca/cp/shop/covid-19-vaccinations-centre-info/6000203072273,Toronto
287,Wal-Mart Pharmacy,Pharmacy Immunization Site,-79.339184157668,43.669310852374,1000 Gerrard Street East,Toronto,ON,,https://www.walmart.ca/cp/shop/covid-19-vaccinations-centre-info/6000203072273,Toronto
288,Food Basics Pharmacy,Pharmacy Immunization Site,-79.24047642883301,43.792683142879,5085 Sheppard Avenue East,Toronto,ON,,https://metropharmacy.medmeapp.com/schedule,Toronto
289,Food Basics Pharmacy,Pharmacy Immunization Site,-79.203793573013,43.784554768676,2900 Ellesmere Road,Toronto,ON,,https://metropharmacy.medmeapp.com/schedule,Toronto
290,Guildcrest Pharmacy,Pharmacy Immunization Site,-79.20806995766901,43.747200186202,"3775 Kingston Road, Unit A1",Toronto,ON,416-238-8136,,Toronto
291,MMMC Pharmacy,Pharmacy Immunization Site,-79.247041228833,43.824345380271,"3610 McNicoll Avenue, Unit 12",Toronto,ON,416-754-8808,https://mmmcpharmacy.medmeapp.ca/schedule,Toronto
292,Medical Care Pharmacy,Pharmacy Immunization Site,-79.230266465341,43.796199210906,"5818 Sheppard Avenue East, Unit 2",Toronto,ON,416-546-1020,,Toronto
293,Metro Pharmacy,Pharmacy Immunization Site,-79.27902288465199,43.77106831149,16 William Kitchen Boulevard,Toronto,ON,,https://www.metro.ca/en/services/pharmacy/covid-19,Toronto
294,Mina Drug Store,Pharmacy Immunization Site,-79.270059944178,43.688945862192,1474 Kingston Road,Toronto,ON,416-699-7121,https://www.minadrugstore.com/,Toronto
295,Neighbour Care Pharmacy,Pharmacy Immunization Site,-79.244266628833,43.744122995171,1357 Danforth Road,Toronto,ON,647-352-2274,https://www.neighbourcare.ca/,Toronto
296,Pharmazone,Pharmacy Immunization Site,-79.260829926981,43.742297398202,1069 Midland Avenue,Toronto,ON,416-901-3040,https://www.pharmazonehc.com/,Toronto
297,Rexall,Pharmacy Immunization Site,-79.24850841348901,43.708849143204,2447 Kingston Road,Toronto,ON,,https://www.rexall.ca/covid-19/vaccines,Toronto
298,Seamless Care Pharmacy,Pharmacy Immunization Site,-79.195332644178,43.800351118533,15 Grand Marshall Drive,Toronto,ON,416-281-9900,https://www.seamlesscare.ca/,Toronto
299,Wal-Mart Pharmacy,Pharmacy Immunization Site,-79.223973615346,43.742232465354,3132 Eglinton Avenue East,Toronto,ON,,https://www.walmart.ca/cp/shop/covid-19-vaccinations-centre-info/6000203072273,Toronto
300,West Hill Pharmasave,Pharmacy Immunization Site,-79.184206699996,43.769548230629,"4218 Lawrence Avenue East, Unit 4",Toronto,ON,416-284-4741,https://www.westhillpharmacy.com/,Toronto
301,Shoppers Drug Mart,Pharmacy Immunization Site,-79.55997622669,43.735422811048,900 Albion Road,Toronto,ON,,,Toronto
302,Shoppers Drug Mart,Pharmacy Immunization Site,-79.386908395424,43.664780433504,951 Bay Street,Toronto,ON,,,Toronto
303,Rexall,Pharmacy Immunization Site,-79.52120557310199,43.769893541916,4702 Jane Street,Toronto,ON,,https://www.rexall.ca/covid-19/vaccines,Toronto
304,NoFrills Pharmacy,Pharmacy Immunization Site,-79.545096988449,43.69600702874,245 Dixon Road,Toronto,ON,,https://covid19.nofrills.ca/en,Toronto
305,Prince Edward Pharmacy,Pharmacy Immunization Site,-79.505441786598,43.64829939635301,324 Prince Edward Drive South,Toronto,ON,647-748-3331,https://princeedwardpharmacy.ca/,Toronto
306,Shoppers Drug Mart,Pharmacy Immunization Site,-79.584563871161,43.741901801644,1530 Albion Road,Toronto,ON,416-741-7711,https://covid-19.shoppersdrugmart.ca/en,Toronto
307,Shoppers Drug Mart,Pharmacy Immunization Site,-79.557204457669,43.611899151933,25 The West Mall,Toronto,ON,,https://covid-19.shoppersdrugmart.ca/en,Toronto
308,Shoppers Drug Mart,Pharmacy Immunization Site,-79.555645415341,43.67540433444001,201 Lloyd Manor Road,Toronto,ON,,https://covid-19.shoppersdrugmart.ca/en,Toronto
309,Shoppers Drug Mart,Pharmacy Immunization Site,-79.55718299999701,43.693136971122,"1735 Kipling Avenue, Unit 2",Toronto,ON,,https://covid-19.shoppersdrugmart.ca/en,Toronto
310,Loblaw Pharmacy,Pharmacy Immunization Site,-79.404160957668,43.735656431872,3501 Yonge Street,Toronto,ON,,https://covid19.yourhealthmattershere.ca/en,Toronto
311,NoFrills Pharmacy,Pharmacy Immunization Site,-79.50967782883301,43.7198879522,1591 Wilson Avenue,Toronto,ON,,https://covid19.nofrills.ca/en,Toronto
312,Shoppers Drug Mart,Pharmacy Immunization Site,-79.330359758336,43.788321656301,2794 Victoria Park Avenue,Toronto,ON,,https://covid-19.shoppersdrugmart.ca/en,Toronto
313,Shoppers Drug Mart,Pharmacy Immunization Site,-79.36902741534099,43.79908392848,5899 Leslie Street,Toronto,ON,,https://covid-19.shoppersdrugmart.ca/en,Toronto
314,Shoppers Drug Mart,Pharmacy Immunization Site,-79.324919115341,43.760924741151,1285 York Mills Road Unit A,Toronto,ON,416-447-5555,https://covid-19.shoppersdrugmart.ca/en,Toronto
315,College Medical Pharmacy,Pharmacy Immunization Site,-79.409423815342,43.656496636975,474 College Street,Toronto,ON,,https://www.collegemedical.ca/contactus.html,Toronto
316,Dale's Pharmacy Parliament,Pharmacy Immunization Site,-79.36961588438299,43.667715676874,572 Parliament Street,Toronto,ON,416-921-5700,https://dalespharmacy.ca/,Toronto
317,Deer Park Pharmacy,Pharmacy Immunization Site,-79.39669527116099,43.687364860432,"55 St. Clair Avenue West, Unit 108",Toronto,ON,416-923-1818,,Toronto
318,Drugsmart Pharmacy,Pharmacy Immunization Site,-79.29202729999599,43.696041120916,5 The Market Place,Toronto,ON,,https://drugsmartpharmacy.ca,Toronto
319,Health Care Mart,Pharmacy Immunization Site,-79.42599044232399,43.642756626173,1173 Queen Street West,Toronto,ON,416-539-9555,https://hcmpharmacy.pharmabest.ca,Toronto
320,Hooper's Pharmacy,Pharmacy Immunization Site,-79.29378754232501,43.671712167655,2136 Queen Street East,Toronto,ON,,https://hoopershealth.com/,Toronto
321,Islington IDA Pharmacy,Pharmacy Immunization Site,-79.559741344177,43.723954421512,2428 Islington Avenue,Toronto,ON,,https://www.guardian-ida-pharmacies.ca/erticle/covid-19-coronavirus,Toronto
322,Medicine Cabinet,Pharmacy Immunization Site,-79.476617915341,43.630455960349,2081 Lakeshore Boulevard West,Toronto,ON,416-901-9644,https://medcab.ca/,Toronto
323,Metro Drugs,Pharmacy Immunization Site,-79.41202251348901,43.666447587053,844 Bathurst Street,Toronto,ON,416-537-1900,https://metrodrugs.ca/,Toronto
324,Metro Pharmacy,Pharmacy Immunization Site,-79.473153946029,43.669846553485,2155 St. Clair Avenue West,Toronto,ON,,https://www.metro.ca/en/services/pharmacy/covid-19,Toronto
325,Metro Pharmacy,Pharmacy Immunization Site,-79.417823686505,43.640054333682,100 Lynn Williams Street,Toronto,ON,,https://www.metro.ca/en/services/pharmacy/covid-19,Toronto
326,Mount Pleasant Pharmacy,Pharmacy Immunization Site,-79.38960218650401,43.708397432422,245 Eglinton Avenue East,Toronto,ON,416-488-3232,,Toronto
327,Old Park Pharmacy,Pharmacy Immunization Site,-79.43040315767,43.700471714184,1042 Eglinton Avenue West,Toronto,ON,416-787-7341,https://www.oldparkpharmacy.com/,Toronto
328,Queen East Medical Pharmacy,Pharmacy Immunization Site,-79.306372184653,43.669013453201,1876 Queen Street East,Toronto,ON,647-313-1948,https://queeneastpharmacy.ca/,Toronto
329,Rexall,Pharmacy Immunization Site,-79.37768955767,43.713002385804,1820 Bayview Avenue,Toronto,ON,416-485-1853,https://www.rexall.ca/,Toronto
330,Rexall,Pharmacy Immunization Site,-79.35828145766899,43.678160546656,807 Broadview Avenue,Toronto,ON,,https://www.rexall.ca/covid-19/vaccines,Toronto
331,Rexall,Pharmacy Immunization Site,-79.429322786505,43.649585986037,1421 Dundas Street West,Toronto,ON,,https://www.rexall.ca/covid-19/vaccines,Toronto
332,Rexall,Pharmacy Immunization Site,-79.387132028834,43.661696196685,76 Grenville Street,Toronto,ON,,https://www.rexall.ca/covid-19/vaccines,Toronto
333,DEMARCO PHARMACY,Pharmacy Immunization Site,-79.478256559,43.70791816,2394 KEELE ST,Toronto,ON,416-244-5888,,Toronto
334,MORELLI'S PHARMACY,Pharmacy Immunization Site,-79.380868079,43.642339257,15 YORK ST,Toronto,ON,416-815-1200,https://morellispharmacy.com/,Toronto
335,LOBLAW PHARMACY #1000,Pharmacy Immunization Site,-79.401593019,43.647545422,585 QUEEN ST W,Toronto,ON,,https://covid19.yourhealthmattershere.ca/en,Toronto
336,DUNDAS WEST VILLAGE PHARMACY,Pharmacy Immunization Site,-79.467581439,43.665673881,2940 DUNDAS ST W,Toronto,ON,416-761-9036,https://dundaswestpharmacy.ca/,Toronto
337,UPTOWN PHARMACY,Pharmacy Immunization Site,-79.406635373,43.704795256,243 EGLINTON AVE W,Toronto,ON,416-485-5005,https://www.guardian-ida-pharmacies.ca/,Toronto
338,SHOPPERS DRUG MART #1304,Pharmacy Immunization Site,-79.44748997400002,43.666727207,1400 DUPONT ST,Toronto,ON,416-532-9214,https://www.shoppersdrugmart.ca/covid19,Toronto
339,EAGLE MANOR PHARMACY*,Pharmacy Immunization Site,-79.51599004700002,43.700580486,1901 WESTON RD,Toronto,ON,416-241-1115,https://pharmasave.com/store/pharmasave-eagle-manor/,Toronto
340,No Frills,Pharmacy Immunization Site,-79.497866329,43.612250789,220 ROYAL YORK RD,Toronto,ON,416-251-9130,https://covid19.nofrills.ca/en,Toronto
341,LOBLAW PHARMACY #1033,Pharmacy Immunization Site,-79.471510478,43.784818394,51 GERRY FITZGERALD DR,Toronto,ON,416-665-7636,https://covid19.realcanadiansuperstore.ca/en?navid=flyout-L1-COVID-19,Toronto
342,REXALL #877,Pharmacy Immunization Site,-79.230348611,43.775419374,1127 MARKHAM RD,Toronto,ON,,https://www.rexall.ca/covid-19/vaccines,Toronto
343,WAL-MART PHARMACY #1151,Pharmacy Immunization Site,-79.510755023,43.72216281,2202 JANE STREET,Toronto,ON,,https://www.walmart.ca/cp/shop/covid-19-vaccinations-centre-info/6000203072273,Toronto
344,No Frills,Pharmacy Immunization Site,-79.14180668500001,43.798219978,70 ISLAND RD,Toronto,ON,,https://covid19.nofrills.ca/en,Toronto
345,REXALL #2063,Pharmacy Immunization Site,-79.528639458,43.64950653,4890 DUNDAS ST WEST,Toronto,ON,,https://www.rexall.ca/covid-19/vaccines,Toronto
346,SHOPPERS DRUG MART #869,Pharmacy Immunization Site,-79.501633715,43.696959116,1533 JANE ST,Toronto,ON,,https://www.shoppersdrugmart.ca/covid19,Toronto
347,DRUG STORE PHARMACY #4576,Pharmacy Immunization Site,-79.58460213799999,43.741762541,1530 ALBION RD,Toronto,ON,,https://covid19.nofrills.ca/en,Toronto
348,REXALL #109,Pharmacy Immunization Site,-79.187302282,43.768842131,4459 KINGSTON RD,Toronto,ON,,https://www.rexall.ca/covid-19/vaccines,Toronto
349,WAL-MART PHARMACY,Pharmacy Immunization Site,-79.553595024,43.714168034,2245 ISLINGTON AVE,Toronto,ON,,https://www.walmart.ca/cp/shop/covid-19-vaccinations-centre-info/6000203072273,Toronto
350,WAL-MART PHARMACY,Pharmacy Immunization Site,-79.554141546,43.618393076,165 NORTH QUEEN ST,Toronto,ON,,https://www.walmart.ca/cp/shop/covid-19-vaccinations-centre-info/6000203072273,Toronto
351,SHOPPERS DRUG MART #1321,Pharmacy Immunization Site,-79.39053448200001,43.63816361500001,110-390 QUEENS QUAY W,Toronto,ON,416-260-2766,https://www.shoppersdrugmart.ca/covid19,Toronto
352,WELCOME GUARDIAN PHARMACY,Pharmacy Immunization Site,-79.39605486000001,43.697720065,1881 YONGE STREET,Toronto,ON,416-480-1420,https://davisvilleguardianpharmacy.ca/,Toronto
353,WAL-MART PHARMACY,Pharmacy Immunization Site,-79.258018709,43.776283247,300 BOROUGH DR,Toronto,ON,416-296-5056,https://www.walmart.ca/cp/shop/covid-19-vaccinations-centre-info/6000203072273,Toronto
354,REXALL #901,Pharmacy Immunization Site,-79.24950150700001,43.737273419,2682 EGLINTON AVE EAST,Toronto,ON,,https://www.rexall.ca/covid-19/vaccines,Toronto
355,SHOPPERS DRUG MART #501,Pharmacy Immunization Site,-79.244802095,43.754611876,685 MCCOWAN ROAD,Toronto,ON,416-431-4822,https://www.shoppersdrugmart.ca/covid19,Toronto
356,WAL-MART PHARMACY,Pharmacy Immunization Site,-79.47341306600001,43.70917554,1305 LAWRENCE AVE W,Toronto,ON,,https://www.walmart.ca/cp/shop/covid-19-vaccinations-centre-info/6000203072273,Toronto
357,REXALL #8168,Pharmacy Immunization Site,-79.489215621,43.72425819,1235 WILSON AVE,Toronto,ON,,https://www.rexall.ca/covid-19/vaccines,Toronto
358,SHOPPERS DRUG MART#840,Pharmacy Immunization Site,-79.51535671800001,43.75676438,3975 JANE ST,Toronto,ON,416-630-2553,https://www.shoppersdrugmart.ca/covid19,Toronto
359,CASSANDRA PHARMACY,Pharmacy Immunization Site,-79.314114597,43.752550325,2040 VICTORIA PARK AVE,Toronto,ON,416-449-2040,https://www.guardian-ida-pharmacies.ca/,Toronto
360,SHOPPERS DRUG MART #1242,Pharmacy Immunization Site,-79.205982857,43.781112865,2863 ELLESMERE RD,Toronto,ON,416-724-6055,https://www.shoppersdrugmart.ca/covid19,Toronto
361,SHOPPERS DRUG MART #990,Pharmacy Immunization Site,-79.510976356,43.720197762,1597 WILSON AVE,Toronto,ON,,https://www.shoppersdrugmart.ca/covid19,Toronto
362,FOOD BASICS PHARMACY #596,Pharmacy Immunization Site,-79.269312074,43.809220727,1571 SANDHURST CIR,Toronto,ON,,https://metropharmacy.medmeapp.com/schedule,Toronto
363,Wellmedica Bay Street,Pharmacy Immunization Site,-79.386362291533,43.663464152659,901 Bay Street,Toronto,ON,416-597-0464,,Toronto
364,Woods Drug Store,Pharmacy Immunization Site,-79.311407808723,43.670661788211,130 Kingston Road,Toronto,ON,416-691-3771,,Toronto
365,John and Weston Discount Drugs,Pharmacy Immunization Site,-79.517332551135,43.701336776211,17 John Street,Toronto,ON,416-248-8885,,Toronto
366,Rexall,Pharmacy Immunization Site,-79.560298949228,43.608908225373,190 Sherway Drive,Toronto,ON,,https://www.rexall.ca/covid-19/vaccines,Toronto
367,Shoppers Drug Mart,Pharmacy Immunization Site,-79.46896403755601,43.786550889424,1881 Steeles Avenue West,Toronto,ON,416-665-2631,https://covid-19.shoppersdrugmart.ca/en,Toronto
368,Freshco Pharmacy,Pharmacy Immunization Site,-79.407051922268,43.654310869017,410 Bathurst Street,Toronto,ON,,https://www.pharmacyappointments.ca/,Toronto
369,Main Drug Mart,Pharmacy Immunization Site,-79.421635035759,43.649368497301,1169 Dundas Street West,Toronto,ON,,,Toronto
370,Medical Pharmacy,Pharmacy Immunization Site,-79.403409493387,43.657621384872,340 College Street,Toronto,ON,416-922-4145,,Toronto
371,One Medical Pharmacy,Pharmacy Immunization Site,-79.328872666544,43.727381866205,"20 Wynford Drive, Unit 102",Toronto,ON,416-443-1444,https://onemedicalpharmacy.weebly.com/,Toronto
372,Shoppers Drug Mart,Pharmacy Immunization Site,-79.38619780696,43.668751214587,728 Yonge Street,Toronto,ON,,https://covid-19.shoppersdrugmart.ca/en,Toronto
373,2160 Weston Road,Pharmacy Immunization Site,-79.525419206869,43.703085220691,2160 Weston Road,Toronto,ON,416-244-8191,https://maindrugmart.medmeapp.ca/schedule/,Toronto
374,Lakeside Pharmacy,Pharmacy Immunization Site,-79.489438365,43.614273804,2438 Lake Shore Blvd. West,Toronto,ON,416-252-2999,,Toronto
375,Rexall,Pharmacy Immunization Site,-79.42271710185,43.643343180327,1093 Queen Street West,Toronto,ON,416-531-7446,https://www.rexall.ca/,Toronto
376,Shoppers Drug Mart,Pharmacy Immunization Site,-79.361311342325,43.660386700658,"593 Dundas Street East, South Tower",Toronto,ON,416-214-9440,https://covid-19.shoppersdrugmart.ca/en,Toronto
377,Shoppers Drug Mart,Pharmacy Immunization Site,-79.36740165581701,43.664124383028,467 Parliament Street,Toronto,ON,,https://covid-19.shoppersdrugmart.ca/en,Toronto
378,Shoppers Drug Mart,Pharmacy Immunization Site,-79.290691015341,43.689887942737,3003 Danforth Avenue,Toronto,ON,,https://covid-19.shoppersdrugmart.ca/en,Toronto
379,Shoppers Drug Mart,Pharmacy Immunization Site,-79.34885102737,43.688888084446,1012 Pape Avenue,Toronto,ON,,https://covid-19.shoppersdrugmart.ca/en,Toronto
380,Shoppers Drug Mart,Pharmacy Immunization Site,-79.385317457669,43.658343992891,700 Bay Street,Toronto,ON,416-979-2424,https://covid-19.shoppersdrugmart.ca/en,Toronto
381,Shoppers Drug Mart,Pharmacy Immunization Site,-79.38772367116,43.657347969153,555 University Avenue,Toronto,ON,,https://covid-19.shoppersdrugmart.ca/en,Toronto
382,Shoppers Drug Mart,Pharmacy Immunization Site,-79.46664787671401,43.760244162885,1115 Lodestar Road Building E,Toronto,ON,,https://covid-19.shoppersdrugmart.ca/en,Toronto
383,Shoppers Drug Mart,Pharmacy Immunization Site,-79.364092215342,43.655683126719,351 Queen Street East,Toronto,ON,,https://covid-19.shoppersdrugmart.ca/en,Toronto
384,Shoppers Simply Pharmacy,Pharmacy Immunization Site,-79.445008099997,43.677423308439,"1223 St. Clair Avenue West, Unit 1221",Toronto,ON,,https://covid-19.shoppersdrugmart.ca/en,Toronto
385,The Drug Store Pharmacy,Pharmacy Immunization Site,-79.42066128650499,43.672352904111,650 Dupont Street,Toronto,ON,,https://covid19.yourhealthmattershere.ca/en,Toronto
386,Agape Pharmacy,Pharmacy Immunization Site,-79.347420791556,43.748436133648,"10 Mallard Road, Unit C107",Toronto,ON,647-344-3153,https://agapepharmacy.ca/,Toronto
387,Yonge Cummer Pharmacy,Pharmacy Immunization Site,-79.417121906845,43.787418678401,5925 Yonge Street,Toronto,ON,647-547-8184,,Toronto
388,Ash Medical Pharmacy,Pharmacy Immunization Site,-79.238136564637,43.739550253992,"2900 Eglinton Avenue East, Unit 3",Toronto,ON,,https://myrxhealth.ca/amp/,Toronto
389,Guildview Pharmacy,Pharmacy Immunization Site,-79.198445006943,43.758814301368,4160 Kingston Road,Toronto,ON,416-283-5388,https://guildviewpharmacy.ca/,Toronto
390,Maple Drug Mart,Pharmacy Immunization Site,-79.263560351094,43.751546223389,2645 Lawrence Avenue East,Toronto,ON,647-427-5842,https://mapledrugmart.com/,Toronto
391,Akron Pharmacy,Pharmacy Immunization Site,-79.487651937712,43.617691905907,2318 Lake Shore Boulevard West,Toronto,ON,416-259-6361,https://theakronpharmacy.com/,Toronto
392,Weston Jane Pharmacy,Pharmacy Immunization Site,-79.49584828499999,43.689037346,1292 Weston Rd,Toronto,ON,647-344-9111,,Toronto
393,Nhatrang Drug Mart,Pharmacy Immunization Site,-79.464139811,43.73150664,736 Wilson Avenue,Toronto,ON,416-635-1586,,Toronto
394,Pharmasave,Pharmacy Immunization Site,-79.217490071,43.737767955,"3485 Kingston Road, Scarborough",Toronto,ON,416-261-3346,,Toronto
395,Wilson Pro Pharmacy,Pharmacy Immunization Site,-79.470048966367,43.730320456417,928 Wilson Avenue,Toronto,ON,416-630-0300,https://wilsonpropharmacy.myappts.ca/src/,Toronto
396,Community Choice Pharmacy - Rexdale,Pharmacy Immunization Site,-79.57174072209401,43.719510720942,8 Taber Road,Toronto,ON,416-746-8260,https://www.communitychoice.ca,Toronto
397,Ultima Pharmacy,Pharmacy Immunization Site,-79.391982635586,43.765678372955,311 Sheppard Avenue East,Toronto,ON,647-705-7572,https://ultimapharmacy.ca/,Toronto
398,Danforth Village Pharmacy,Pharmacy Immunization Site,-79.27606112209401,43.69458786869,"3400 Danforth Avenue, Unit 6",Toronto,ON,416-691-6602,https://www.danforthvillmed.com/,Toronto
399,Midland Pharmacy,Pharmacy Immunization Site,-79.267957706749,43.768445606394,1207 Ellesmere Road,Toronto,ON,416-285-7418,,Toronto
400,Beech Medical Pharmacy,Pharmacy Immunization Site,-79.290925066274,43.68035593579901,855 Kingston Road,Toronto,ON,416-699-1118,,Toronto
401,Dalecliff Medical Pharmacy,Pharmacy Immunization Site,-79.302654837438,43.760551244864,"209 Ellesmere Road, Unit 2",Toronto,ON,416-445-6978,https://www.guardian-ida-pharmacies.ca/,Toronto
402,Danforth Neighbourhood Pharmacy Care,Pharmacy Immunization Site,-79.305017437438,43.687833491843,2416 Danforth Avenue,Toronto,ON,416-691-3871,,Toronto
403,Datu's Pharmacy,Pharmacy Immunization Site,-79.45150619325899,43.654527630971,"2238 Dundas Street West, Unit 103",Toronto,ON,416-588-4559,,Toronto
404,Duke Pharmacy,Pharmacy Immunization Site,-79.462716664421,43.665691679278,2798 Dundas Street West,Toronto,ON,416-767-8800,https://www.dukepharmacy.ca/,Toronto
405,Heritage Pharmacy,Pharmacy Immunization Site,-79.32576862209299,43.68326682507,1488 Danforth Avenue,Toronto,ON,416-469-0444,https://www.heritagepharmacy.ca,Toronto
406,Liberty Market Pharmacy,Pharmacy Immunization Site,-79.418770864423,43.638759695431,"171 East Liberty Street, Unit 102",Toronto,ON,416-984-4147,https://www.libertymarketpharmacy.com/,Toronto
407,Pharmacy Go Caledonia,Pharmacy Immunization Site,-79.463520340701,43.682797412488,324 Silverthorn Avenue,Toronto,ON,,https://pharmacygo.com/,Toronto
408,Vina Pharmacy,Pharmacy Immunization Site,-79.43645352209499,43.641133344552,1460 Queen Street West,Toronto,ON,416-588-8538,https://www.vinapharmacy.ca/,Toronto
409,Shoppers Drug Mart,Pharmacy Immunization Site,-79.519516728833,43.701483032193,1995 Weston Road,Toronto,ON,,https://covid-19.shoppersdrugmart.ca/en,Toronto
410,Shoppers Drug Mart,Pharmacy Immunization Site,-79.360937199996,43.714540871846,935 Eglinton Avenue West,Toronto,ON,,https://covid-19.shoppersdrugmart.ca/en,Toronto
411,Metro Pharmacy,Pharmacy Immunization Site,-79.216335057759,43.743228136154,3221 Eglinton Avenue East,Toronto,ON,,https://www.metro.ca/en/services/pharmacy/covid-19,Toronto
412,Metro Pharmacy,Pharmacy Immunization Site,-79.313568157668,43.75680185094,15 Ellesmere Road,Toronto,ON,,https://www.metro.ca/en/services/pharmacy/covid-19,Toronto
413,NoFrills Pharmacy,Pharmacy Immunization Site,-79.29969466930801,43.726693211771,1880 Eglinton Avenue East,Toronto,ON,,https://covid19.nofrills.ca/en,Toronto
414,Real Canadian Superstore,Pharmacy Immunization Site,-79.263118586505,43.77824208170401,1755 Brimley Road,Toronto,ON,,https://covid19.realcanadiansuperstore.ca/en,Toronto
415,Rexall,Pharmacy Immunization Site,-79.22138127116099,43.809236120427,1371 Neilson Road,Toronto,ON,,https://www.rexall.ca/covid-19/vaccines,Toronto
416,Shoppers Drug Mart,Pharmacy Immunization Site,-79.250115242324,43.706899392123,2301 Kingston Road,Toronto,ON,,https://covid-19.shoppersdrugmart.ca/en,Toronto
417,Shoppers Drug Mart,Pharmacy Immunization Site,-79.26785967301301,43.733270512919,2428 Eglinton Avenue East,Toronto,ON,,https://covid-19.shoppersdrugmart.ca/en,Toronto
418,CAMH Pharmacy,Pharmacy Immunization Site,-79.41758891534,43.643547307497,1001 Queen Street West,Toronto,ON,416-535-8501,,Toronto
419,Main Drug Mart,Pharmacy Immunization Site,-79.30584527800001,43.73092251,"1646 Victoria Park Ave, Unit 7",Toronto,ON,416-752-9088,,Toronto
420,Newe Town Medical Pharmacy,Pharmacy Immunization Site,-79.31529249152899,43.797497363637,"3420 Finch Avenue East, Unit 102",Toronto,ON,416-494-1486,https://www.newetownepharmacy.com/,Toronto
421,Noble IDA Pharmacy,Pharmacy Immunization Site,-79.236146566385,43.739966607276,2934 Eglinton Avenue East,Toronto,ON,416-667-8488,https://a.telehippo.com/o/Noble,Toronto
422,Oasis Drug Mart,Pharmacy Immunization Site,-79.257068964583,43.770762875171,"1501 Ellesmere Road, Unit 100",Toronto,ON,647-351-4400,https://docs.google.com/forms/d/e/1FAIpQLSeqQpYJIAazCBNNloHMc7N7VqamKcC3jwvwryosI21cWAKeLg/viewform,Toronto
423,Pharmalinx Guardian Pharmacy,Pharmacy Immunization Site,-79.26848696457699,43.789029734859,"2101 Brimley Road, Unit 103",Toronto,ON,647-297-6700,https://pharmalinx.ca/,Toronto
424,Scarborough Discount Pharmacy,Pharmacy Immunization Site,-79.244149979968,43.74436439622,"1375 Danforth Road, Unit 3",Toronto,ON,416-261-0848,https://www.centraleasthealthline.ca/displayService.aspx?id=199343,Toronto
425,1 Clinic Rx Pharmacy,Pharmacy Immunization Site,-79.37592003384999,43.643736359557,16 Yonge Street,Toronto,ON,647-344-8800,https://1clinicrxpharmacy.com/,Toronto
426,Blair Court Pharmacy,Pharmacy Immunization Site,-79.34190719335599,43.689796095417,266 Donlands Avenue,Toronto,ON,,https://www.blaircourtpharmacy.com/,Toronto
427,Blue Sky Pharmacy,Pharmacy Immunization Site,-79.443677406872,43.678271465181,"1176 St. Clair Avenue West, Unit A",Toronto,ON,,https://blueskypharmacy.medmeapp.ca/schedule,Toronto
428,Cloud Pharmacy,Pharmacy Immunization Site,-79.378711293379,43.656062377714,55 Dundas Street East,Toronto,ON,,https://www.cloudpharmacy.ca/,Toronto
429,Guardian Sheppard Community Pharmacy,Pharmacy Immunization Site,-79.199384349214,43.802764440813,"1265 Morningside Avenue, Unit 109",Toronto,ON,647-799-0669,https://www.guardian-ida-pharmacies.ca,Toronto
430,Long Branch Pharmacy,Pharmacy Immunization Site,-79.54517376642499,43.59013837230301,3857 Lake Shore Boulevard West,Toronto,ON,416-259-2000,https://www.remedys.ca/en/ontario/toronto/long-branch-pharmacy-7051891,Toronto
431,Maple Leaf Medical Pharmacy,Pharmacy Immunization Site,-79.384053908713,43.661626135317,14 College Street,Toronto,ON,,https://mapleleafmedicalpharmacy.com/,Toronto
432,Pharmacy By The Grange,Pharmacy Immunization Site,-79.39045536,43.65430455,"275 Dundas Street W, Unit 9-10, M5T 3K1",Toronto,ON,416-593-4696,https://www.guardian-ida-pharmacies.ca/en/ontario/toronto/pharmacy-by-the-grange-7026271,Toronto
433,Procare Pharmacy,Pharmacy Immunization Site,-79.346419420381,43.744907896123,1262 Don Mills Road,Toronto,ON,,https://www.procare-pharmacy.ca/locations/north-york,Toronto
434,Shuter St. Pharmacy,Pharmacy Immunization Site,-79.365434776225,43.657095951203,"290 Shuter Street, 2nd Floor",Toronto,ON,647-352-2252,https://www.shuterstpharmacy.com/,Toronto
435,Theodore Pharmacy,Pharmacy Immunization Site,-79.30719150691,43.713941183069,1450 O'Connor Drive,Toronto,ON,416-701-1001,https://www.guardian-ida-pharmacies.ca/en/ontario/toronto/theodore-pharmacy-7015227,Toronto
