,idx,facility_name,health_authority,alternative_name,longitude,latitude,street_addr,city,province,postal_code,provider,filename
0,0,Centre Le Cardinal inc.,RLS de Rivière-des-Prairies - Anjou - Montréal-Est,Centre Le Cardinal inc.,-73.4883346558,45.6524505615,"12900, rue Notre-Dame Est",Montréal,QC,H1A1R9,Province of Quebec,QC_healthcare_establishments.csv
1,1,Groupe Roy santé Inc.,RLS de Côte-des-Neiges - Métro - Parc-Extension,Groupe Roy santé Inc.,-73.5729370117,45.5122146606,"3550, rue Saint-Urbain",Montréal,QC,H2X4C5,Province of Quebec,QC_healthcare_establishments.csv
2,2,Centre régional de santé et de services sociaux de la Baie-James,,CRSSS de la Baie-James,-74.3570785522,49.913394928,"312, 3e Rue",Jamésie,QC,G8P1N5,Province of Quebec,QC_healthcare_establishments.csv
3,3,Centre hospitalier de l'Université de Montréal,RLS des Faubourgs - Plateau-Mont-Royal - St-Louis-du-Parc,CHUM,-73.5559463501,45.5108375549,"850, rue Saint-Denis",Montréal,QC,H2X0A9,Province of Quebec,QC_healthcare_establishments.csv
4,4,CHSLD Résidence Bourg-Joli Inc.,RLS de Richelieu-Yamaska,CHSLD Résidence Bourg-Joli Inc.,-72.964225769,45.6335144043,"2915, boulevard Laframboise",Les Maskoutains,QC,J2S4Z3,Province of Quebec,QC_healthcare_establishments.csv
5,5,Conseil de la nation atikamekw,,Conseil de la nation atikamekw,-73.7873306274,47.9025650024,wemotaci,La Tuque,QC,G0X3R0,Province of Quebec,QC_healthcare_establishments.csv
6,6,Le CHSLD des Premières Nations du Timiskaming,,Le CHSLD des Premières Nations du Timiskaming,-79.4703979492,47.6070137024,"20, avenue Algonquin",Témiscamingue,QC,J0Z3B0,Province of Quebec,QC_healthcare_establishments.csv
7,7,CHSLD de la Côte Boisée Inc.,RLS de Lanaudière-Sud,CHSLD de la Côte Boisée Inc.,-73.6615905762,45.7127571106,"4300, rue d'Angora",Les Moulins,QC,J6X4P1,Province of Quebec,QC_healthcare_establishments.csv
8,8,CLSC Naskapi,RLS de Kawawachikamach,CLSC Naskapi,-66.764251709,54.8612480164,Case postale 5154,Caniapiscau,QC,G0G2Z0,Province of Quebec,QC_healthcare_establishments.csv
9,9,Centre d'hébergement de la Marée Inc.,RLS de Rivière-des-Prairies - Anjou - Montréal-Est,Centre d'hébergement de la Marée Inc.,-73.6190414429,45.6300621033,"7015, boulevard Gouin Est",Montréal,QC,H1E5N2,Province of Quebec,QC_healthcare_establishments.csv
10,10,Prodimax Inc.,RLS de Laval,Prodimax Inc.,-73.8588943481,45.5621910095,"1050, 15e avenue",Laval,QC,H7R4N9,Province of Quebec,QC_healthcare_establishments.csv
11,11,Santé Courville inc.,RLS de Laval,Santé Courville inc.,-73.8550033569,45.5432891846,"5200, 80e Rue",Laval,QC,H7R5T6,Province of Quebec,QC_healthcare_establishments.csv
12,12,Centre intégré de santé et de services sociaux des Îles,RLS des Îles-de-la-Madeleine,CISSS des Îles,-61.8687705994,47.3755760193,"430, chemin Principal (Cap-aux-Meules)",Communauté maritime des Îles-de-la-Madeleine,QC,G4T1R9,Province of Quebec,QC_healthcare_establishments.csv
13,13,Centre d'hébergement de la Villa-les-Tilleuls Inc.,RLS de Laval,Centre d'hébergement de la Villa-les-Tilleuls Inc.,-73.752243042,45.6267585754,"5590, boulevard des Laurentides",Laval,QC,H7K2K2,Province of Quebec,QC_healthcare_establishments.csv
14,14,"Centre d'hébergement et de soins de longue durée du Manoir-de-l'Ouest-de-l'Île, S.E.C.",RLS de Pierrefonds - Lac Saint-Louis,"CHSLD du Manoir-de-l'Ouest-de-l'Île, S.E.C.",-73.8856124878,45.462852478,"17725, boulevard de Pierrefonds",Montréal,QC,H9J3L1,Province of Quebec,QC_healthcare_establishments.csv
15,15,Groupe Champlain Inc,RLS de Rivière-des-Prairies - Anjou - Montréal-Est,Groupe Champlain Inc.,-73.6037445068,45.6160697937,"7150, rue Marie-Victorin",Montréal,QC,H1G2J5,Province of Quebec,QC_healthcare_establishments.csv
16,16,Centre d'hébergement et de soins de longue durée des Floralies-de-Lachine Inc.,RLS de Dorval - Lachine - Lasalle,CHSLD des Floralies-de-Lachine Inc.,-73.6918411255,45.4408454895,"650, 32e Avenue",Montréal,QC,H8T3K4,Province of Quebec,QC_healthcare_establishments.csv
17,17,Centre d'hébergement et de soins de longue durée des Floralies-de-Lasalle Inc.,RLS de Dorval - Lachine - Lasalle,CHSLD des Floralies-de-Lasalle Inc.,-73.6090316772,45.4241905212,"8200, rue Georges",Montréal,QC,H8P3T6,Province of Quebec,QC_healthcare_establishments.csv
18,18,Centre d'hébergement et de soins de longue durée Côte-Jardin Inc.,RLS de Québec-Sud,CHSLD Côte-Jardin Inc.,-71.2610244751,46.7881507874,"880, avenue Painchaud",Québec,QC,G1S0A3,Province of Quebec,QC_healthcare_establishments.csv
19,19,Centre d'hébergement et de soins de longue durée du Château-sur-le-Lac-de-Sainte-Geneviève inc.,RLS de Pierrefonds - Lac Saint-Louis,CHSLD du Château-sur-le-Lac-de-Sainte-Geneviève inc.,-73.8744659424,45.4779891968,"16289, boulevard Gouin Ouest",Montréal,QC,H9H1E2,Province of Quebec,QC_healthcare_establishments.csv
20,20,Vigi Santé Ltée,RLS de Pierrefonds - Lac Saint-Louis,Vigi Santé Ltée,-73.816116333,45.4802017212,"197, rue Thornhill",Montréal,QC,H9B3H8,Province of Quebec,QC_healthcare_establishments.csv
21,21,Centre d'hébergement et de soins de longue durée Providence - Saint-Joseph inc.,RLS de Hochelaga - Mercier-Ouest - Rosemont,CHSLD Providence - Saint-Joseph inc.,-73.5674591064,45.5789260864,"5605, rue Beaubien Est",Montréal,QC,H1T1X4,Province of Quebec,QC_healthcare_establishments.csv
22,22,Maison des ainées de St-Timothée Inc.,RLS du Suroît,Maison des ainées de St-Timothée Inc.,-74.0367050171,45.2893562317,"1, rue des Aînés",Beauharnois-Salaberry,QC,J6S6M8,Province of Quebec,QC_healthcare_establishments.csv
23,23,CHSLD Domaine Saint-Dominique S.E.C.,RLS de Québec-Sud,CHSLD Domaine Saint-Dominique S.E.C.,-71.2416000366,46.7950134277,"1045, boulevard René-Lévesque Ouest",Québec,QC,G1S1V3,Province of Quebec,QC_healthcare_establishments.csv
24,24,Centre d'hébergement et de soins de longue durée de Saint-Lambert-sur-le-Golf Inc.,RLS Pierre-Boucher,CHSLD de Saint-Lambert-sur-le-Golf Inc.,-73.4443664551,45.6024894714,"549, rue de Verrazano",Longueuil,QC,J4B7W2,Province of Quebec,QC_healthcare_establishments.csv
25,25,Centre d'hébergement et de soins de longue durée Wales Inc.,RLS de Val Saint-François,CHSLD Wales Inc.,-72.1738052368,45.6754226685,"506, Route 243",Le Val-Saint-François,QC,J0B2H0,Province of Quebec,QC_healthcare_establishments.csv
26,26,CHSLD Age3 Inc.,RLS de Laval,CHSLD Age3 Inc.,-73.7676696777,45.547000885,"4410, boulevard Saint-Martin Ouest",Laval,QC,H7T1C3,Province of Quebec,QC_healthcare_establishments.csv
27,27,Centre d'hébergement et de soins de longue durée du Boisé Sainte-Thérèse Inc.,RLS de Thérèse-De Blainville,CHSLD Boisé Ste-Thérèse,-73.840927124,45.6491622925,"179, place Fabien-Drapeau",Thérèse-De Blainville,QC,J7E5W6,Province of Quebec,QC_healthcare_establishments.csv
28,28,Centre de réadaptation en dépendance du Nouveau Départ Inc.,RLS de Côte-des-Neiges - Métro - Parc-Extension,Centre de réadapt. en dépendance du Nouveau Départ Inc.,-73.6224365234,45.5223045349,"1110, avenue Beaumont",Montréal,QC,H3P3E5,Province of Quebec,QC_healthcare_establishments.csv
29,29,Centre d'hébergement et de soins de longue durée de Sainte-Catherine S.E.C.,RLS de Jardins-Roussillon,CHSLD de Sainte-Catherine S.E.C.,-73.5433731079,45.4003067017,"3065, boulevard Marie-Victorin",Roussillon,QC,J5C1Z3,Province of Quebec,QC_healthcare_establishments.csv
30,30,Centre d'hébergement et de soins de longue durée Angus Inc.,RLS de Hochelaga - Mercier-Ouest - Rosemont,CHSLD Angus Inc.,-73.5606231689,45.5465431213,"3200, rue Omer-Lavallée",Montréal,QC,H1Y3P5,Province of Quebec,QC_healthcare_establishments.csv
31,31,CHU de Québec – Université Laval,RLS de Québec-Sud,CHU de Québec – UL,-71.2109909058,46.8153915405,"11, côte du Palais",Québec,QC,G1R2J6,Province of Quebec,QC_healthcare_establishments.csv
32,32,Centre d'hébergement et de soins de longue durée Argyle Inc.,RLS de Champlain,CHSLD Argyle Inc.,-73.5147018433,45.5015411377,"33, avenue Argyle",Longueuil,QC,J4P3P5,Province of Quebec,QC_healthcare_establishments.csv
33,33,Centre d'hébergement et de soins de longue durée du Groupe-Santé-Arbec Inc.,RLS de Lanaudière-Nord,CHSLD Groupe-Santé-Arbec Inc.,-73.7022247314,46.0508613586,"3931, rue Lakeshore Drive",Matawinie,QC,J0K1S0,Province of Quebec,QC_healthcare_establishments.csv
34,34,Centre d'hébergement et de soins de longue durée de Saint-Jean-sur-Richelieu S.E.C.,RLS du Haut-Richelieu - Rouville,CHSLD de Saint-Jean-sur-Richelieu S.E.C.,-73.2614974976,45.311580658,"40, rue Labrèche",Le Haut-Richelieu,QC,J3B0J3,Province of Quebec,QC_healthcare_establishments.csv
35,35,Centre d'hébergement et de soins de longue durée Valeo Inc.,RLS de Champlain,CHSLD Valeo Inc.,-73.501701355,45.5095596313,"700, rue Docteur-Chevrier",Longueuil,QC,J4P0A4,Province of Quebec,QC_healthcare_establishments.csv
36,36,Centre intégré de santé et de services sociaux du Bas-Saint-Laurent,RLS de Rimouski,CISSS du Bas-Saint-Laurent,-68.5404815674,48.4433555603,"355, boulevard Saint-Germain Ouest",Rimouski-Neigette,QC,G5L3N2,Province of Quebec,QC_healthcare_establishments.csv
37,37,Centre intégré universitaire de santé et de services sociaux du Saguenay – Lac-Saint-Jean,RLS de Chicoutimi,CIUSSS du Saguenay – Lac-Saint-Jean,-71.0400390625,48.4213104248,"930, rue Jacques-Cartier Est",Saguenay,QC,G7H7K9,Province of Quebec,QC_healthcare_establishments.csv
38,38,Centre intégré universitaire de santé et de services sociaux de la Capitale-Nationale,RLS de Québec-Nord,CIUSSS de la Capitale-Nationale,-71.2197647095,46.8566360474,"2915, avenue du Bourg-Royal",Québec,QC,G1C3S2,Province of Quebec,QC_healthcare_establishments.csv
39,39,Centre intégré universitaire de santé et de services sociaux de la Mauricie-et-du-Centre-du-Québec,RLS de Trois-Rivières,CIUSSS de la Mauricie-et-du-Centre-du-Québec,-72.5371017456,46.3427963257,"858, terrasse Turcotte",Trois-Rivières,QC,G9A5C5,Province of Quebec,QC_healthcare_establishments.csv
40,40,Centre intégré universitaire de santé et de services sociaux de l'Estrie – Centre hospitalier universitaire de Sherbrooke,RLS de Sherbrooke,CIUSSS de l'Estrie – CHUS,-71.9150848389,45.4042434692,"375, rue Argyll",Sherbrooke,QC,J1J3H5,Province of Quebec,QC_healthcare_establishments.csv
41,41,Centre intégré universitaire de santé et de services sociaux de l'Ouest-de-l'Île-de-Montréal,RLS de Pierrefonds - Lac Saint-Louis,CIUSSS de l'Ouest-de-l'Île-de-Montréal,-73.8336715698,45.448551178,"2400, boulevard des Sources, 2e étage",Montréal,QC,H9R0E9,Province of Quebec,QC_healthcare_establishments.csv
42,42,Centre intégré universitaire de santé et de services sociaux du Centre-Ouest-de-l'Île-de-Montréal,RLS de Côte-des-Neiges - Métro - Parc-Extension,CIUSSS du Centre-Ouest-de-l'Île-de-Montréal,-73.6288070679,45.4978103638,"3755, chemin de la Côte-Sainte-Catherin",Montréal,QC,H3T1E2,Province of Quebec,QC_healthcare_establishments.csv
43,43,Centre intégré universitaire de santé et de services sociaux du Centre-Sud-de-l'Île-de-Montréal,RLS des Faubourgs - Plateau-Mont-Royal - St-Louis-du-Parc,CIUSSS du Centre-Sud-de-l'Île-de-Montréal,-73.5635604858,45.5253562927,"1560, rue Sherbrooke Est",Montréal,QC,H2L4M1,Province of Quebec,QC_healthcare_establishments.csv
44,44,Centre intégré universitaire de santé et de services sociaux du Nord-de-l'Île-de-Montréal,RLS d'Ahuntsic - Montréal-Nord,CIUSSS du Nord-de-l'Île-de-Montréal,-73.6876525879,45.5475997925,"555, boulevard Gouin Ouest",Montréal,QC,H3L1K5,Province of Quebec,QC_healthcare_establishments.csv
45,45,Centre intégré universitaire de santé et de services sociaux de l'Est-de-l'Île-de-Montréal,RLS de Hochelaga - Mercier-Ouest - Rosemont,CIUSSS de l'Est-de-l'Île-de-Montréal,-73.5584640503,45.5742149353,"5415, boulevard de l'Assomption",Montréal,QC,H1T2M4,Province of Quebec,QC_healthcare_establishments.csv
46,46,Centre intégré de santé et de services sociaux de l'Outaouais,RLS de Grande-Rivière - Hull - Gatineau,CISSS de l'Outaouais,-75.7229309082,45.4801902771,"80, avenue Gatineau",Gatineau,QC,J8T4J3,Province of Quebec,QC_healthcare_establishments.csv
47,47,Centre intégré de santé et de services sociaux de l'Abitibi-Témiscamingue,RLS de Rouyn-Noranda,CISSS de l'Abitibi-Témiscamingue,-79.0210037231,48.2433586121,"1, 9e Rue",Rouyn-Noranda,QC,J9X2A9,Province of Quebec,QC_healthcare_establishments.csv
48,48,Centre intégré de santé et de services sociaux de la Côte-Nord,RLS de la Haute-Côte-Nord - Manicouagan,CISSS de la Côte-Nord,-68.2569503784,49.1904411316,"835, boulevard Jolliet",Manicouagan,QC,G5C1P5,Province of Quebec,QC_healthcare_establishments.csv
49,49,Centre intégré de santé et de services sociaux de la Gaspésie,RLS de La Côte-de-Gaspé,CISSS de la Gaspésie,-64.4966506958,48.8129425049,"215, boulevard de York Ouest",La Côte-de-Gaspé,QC,G4X2W2,Province of Quebec,QC_healthcare_establishments.csv
50,50,Centre intégré de santé et de services sociaux de Laval,RLS de Laval,CISSS de Laval,-73.7108230591,45.6033210754,"1755, boulevard René-Laennec",Laval,QC,H7M3L9,Province of Quebec,QC_healthcare_establishments.csv
51,51,Centre intégré de santé et de services sociaux de Lanaudière,RLS de Lanaudière-Nord,CISSS de Lanaudière,-73.4410705566,46.0181846619,"260, rue Lavaltrie Sud",Joliette,QC,J6E5X7,Province of Quebec,QC_healthcare_establishments.csv
52,52,Centre intégré de santé et de services sociaux des Laurentides,RLS de la Rivière-du-Nord - Mirabel-Nord,CISSS des Laurentides,-74.0001907349,45.7655715942,"290, rue de Montigny",La Rivière-du-Nord,QC,J7Z5T3,Province of Quebec,QC_healthcare_establishments.csv
53,53,Centre intégré de santé et de services sociaux de la Montérégie-Centre,RLS de Champlain,CISSS de la Montérégie-Centre,-73.4842071533,45.4977531433,"3141, boulevard Taschereau, bureau 220",Longueuil,QC,J4V2H2,Province of Quebec,QC_healthcare_establishments.csv
54,54,Centre intégré de santé et de services sociaux de la Montérégie-Est,RLS de Richelieu-Yamaska,CISSS de la Montérégie-Est,-72.9594726563,45.6348342896,"2750, boulevard Laframboise",Les Maskoutains,QC,J2S4Y8,Province of Quebec,QC_healthcare_establishments.csv
55,55,Centre intégré de santé et de services sociaux de la Montérégie-Ouest,RLS de Jardins-Roussillon,CISSS de la Montérégie-Ouest,-73.7634429932,45.3456611633,"200, boulevard Brisebois",Roussillon,QC,J6K4W8,Province of Quebec,QC_healthcare_establishments.csv
56,56,Centre intégré de santé et de services sociaux de Chaudière-Appalaches,RLS Alphonse-Desjardins,CISSS de Chaudière-Appalaches,-71.0452041626,46.4648017883,"363, route Cameron",La Nouvelle-Beauce,QC,G6E3E2,Province of Quebec,QC_healthcare_establishments.csv
57,57,Centre d'hébergement et de soins de longue durée Waldorf S.E.C.,RLS de Côte-Saint-Luc - NDG - Montréal-Ouest,CHSLD Waldorf S.E.C.,-73.6583023071,45.4606971741,"7400, chemin de la Côte-Saint-luc",Montréal,QC,H4W3J4,Province of Quebec,QC_healthcare_establishments.csv
58,58,Centre d'hébergement et de soins de longue durée de la Villa-de-Val-des-Arbres Inc.,RLS de Laval,CHSLD de la Villa-de-Val-des-Arbres inc.,-73.6773605347,45.6056098938,"3245, boulevard Saint-Martin Est",Laval,QC,H7E4T6,Province of Quebec,QC_healthcare_establishments.csv
59,59,Centre d'hébergement et de soins de longue durée au Cœur-de-la-Vie inc.,RLS de la Rivière-du-Nord - Mirabel-Nord,CHSLD au Cœur-de-la-Vie inc.,-74.0143737793,45.7774887085,"325, rue Barrette, 1er étage",La Rivière-du-Nord,QC,J7Y0J8,Province of Quebec,QC_healthcare_establishments.csv
60,60,Centre d'hébergement et de soins de longue durée Louise-Faubert Inc.,RLS de Lanaudière-Sud,CHSLD Louise-Faubert Inc.,-73.7286453247,45.6871833801,"751, rue Marcel-De La Sablonnière",Les Moulins,QC,J6Y0M4,Province of Quebec,QC_healthcare_establishments.csv
61,61,Centre d'hébergement et de soins de longue durée Marguerite-Rocheleau inc.,RLS de Lanaudière-Sud,CHSLD Marguerite-Rocheleau inc.,-73.7286453247,45.6871833801,"751, rue Marcel-De La Sablonnière",Les Moulins,QC,J6Y0M4,Province of Quebec,QC_healthcare_establishments.csv
62,62,Centre d'hébergement et de soins de longue durée Michèle-Bohec inc.,RLS de Lanaudière-Sud,CHSLD Michèle-Bohec inc.,-73.7286453247,45.6871833801,"751, rue Marcel-De La Sablonnière",Les Moulins,QC,J6Y0M4,Province of Quebec,QC_healthcare_establishments.csv
63,63,Centre d'hébergement et de soins de longue durée L.-B.-Desjardins Inc.,RLS des Pays-d'en-Haut,CHSLD L.-B.-Desjardins Inc.,-74.1569900513,45.8891906738,"55, avenue Hochar",Les Pays-d'en-Haut,QC,J0R1R6,Province of Quebec,QC_healthcare_establishments.csv
64,64,Centre d'hébergement et de soins de longue durée des Patriotes Inc.,RLS de Laval,CHSLD des Patriotes Inc.,-73.6773605347,45.6056098938,"3245, boulevard Saint-Martin Est",Laval,QC,H7E4T6,Province of Quebec,QC_healthcare_establishments.csv
65,65,Centre d'hébergement et de soins de longue durée des Îles-de-la-Madeleine inc.,RLS des Îles-de-la-Madeleine,Centre d'hébergement et de soins de longue durée des Îl,-61.8730888367,47.3731307983,"596, chemin Principal",Communauté maritime des Îles-de-la-Madeleine,QC,G4T1G1,Province of Quebec,QC_healthcare_establishments.csv
66,66,Centre d'hébergement et de soins de longue durée de Laval S.E.C.,RLS de Laval,CHSLD de Laval S.E.C.,-73.7665557861,45.5708618164,"2805, boulevard Chomedey",Laval,QC,H7P0C2,Province of Quebec,QC_healthcare_establishments.csv
67,67,Centre d'hébergement et de soins de longue durée de Granby S.E.C.,RLS de la Haute-Yamaska,CHSLD de Granby S.E.C.,-72.7621536255,45.4074707031,"80, rue Godue",La Haute-Yamaska,QC,J2J2Z7,Province of Quebec,QC_healthcare_establishments.csv
68,68,Centre de soins prolongés Grace Dart,RLS de Hochelaga - Mercier-Ouest - Rosemont,Centre de soins prolongés Grace Dart,-73.5289077759,45.5594596863,"5155, rue Sainte-Catherine Est",Montréal,QC,H1V2A5,Province of Quebec,QC_healthcare_establishments.csv
69,69,Hôpital juif de réadaptation,RLS de Laval,Hôpital juif de réadaptation,-73.7376403809,45.5487289429,"3205, place Alton-Goldbloom",Laval,QC,H7V1R2,Province of Quebec,QC_healthcare_establishments.csv
70,70,Centre de réadaptation Lethbridge-Layton-Mackay,RLS de Côte-Saint-Luc - NDG - Montréal-Ouest,Centre de réadaptation Lethbridge-Layton-Mackay,-73.6341323853,45.4583435059,"7005, boulevard De Maisonneuve Ouest",Montréal,QC,H4B1T3,Province of Quebec,QC_healthcare_establishments.csv
71,71,CHSLD Providence Notre-Dame de Lourdes inc.,RLS de Hochelaga - Mercier-Ouest - Rosemont,CHSLD Providence Notre-Dame de Lourdes inc.,-73.5406951904,45.549785614,"1870, boulevard Pie-IX",Montréal,QC,H1V2C6,Province of Quebec,QC_healthcare_establishments.csv
72,72,Atelier le fil d'Ariane Inc.,RLS des Faubourgs - Plateau-Mont-Royal - St-Louis-du-Parc,Atelier le fil d'Ariane Inc.,-73.5838394165,45.5294494629,"4837, rue Boyer, app. 100",Montréal,QC,H2J3E6,Province of Quebec,QC_healthcare_establishments.csv
73,73,Résidence Angelica,RLS d'Ahuntsic - Montréal-Nord,Résidence Angelica,-73.6513366699,45.5899391174,"3435, boulevard Gouin Est",Montréal,QC,H1H1B1,Province of Quebec,QC_healthcare_establishments.csv
74,74,Centre de santé et de services sociaux du Haut-Saint-Laurent,RLS du Haut-Saint-Laurent,CSSS du Haut-Saint-Laurent,-73.9998703003,45.1263427734,"28, rue Gale",Le Haut-Saint-Laurent,QC,J0S1K0,Province of Quebec,QC_healthcare_establishments.csv
75,75,CHSLD Bayview Inc.,RLS de Pierrefonds - Lac Saint-Louis,CHSLD Bayview Inc.,-73.786567688,45.4486465454,"27, chemin Lakeshore",Montréal,QC,H9S4H1,Province of Quebec,QC_healthcare_establishments.csv
76,76,Résidence Berthiaume-Du Tremblay,RLS d'Ahuntsic - Montréal-Nord,Résidence Berthiaume-Du Tremblay,-73.6630554199,45.5674171448,"1635, boulevard Gouin Est",Montréal,QC,H2C1C2,Province of Quebec,QC_healthcare_establishments.csv
77,77,La corporation Notre-Dame de Bon-Secours,RLS de Québec-Sud,La corporation Notre-Dame de Bon-Secours,-71.2566070557,46.788066864,"990, rue Gérard-Morisset",Québec,QC,G1S1X6,Province of Quebec,QC_healthcare_establishments.csv
78,78,Hôpital Jeffery Hale - Saint Brigid's,RLS de Québec-Sud,Hôpital Jeffery Hale - Saint Brigid's,-71.2530822754,46.7966499329,"1250, chemin Sainte-Foy",Québec,QC,G1S2M6,Province of Quebec,QC_healthcare_establishments.csv
79,79,Hôpital Santa Cabrini,RLS de Hochelaga - Mercier-Ouest - Rosemont,Hôpital Santa Cabrini,-73.5717163086,45.5801391602,"5655, rue Saint-Zotique Est",Montréal,QC,H1T1P7,Province of Quebec,QC_healthcare_establishments.csv
80,80,Institut de Cardiologie de Montréal,RLS de Hochelaga - Mercier-Ouest - Rosemont,ICM,-73.5778198242,45.573764801,"5000, rue Bélanger",Montréal,QC,H1T1C8,Province of Quebec,QC_healthcare_establishments.csv
81,81,Hôpital Marie-Clarac des Soeurs de Charité de Ste-Marie (1995) Inc.,RLS d'Ahuntsic - Montréal-Nord,Hôp. Marie-Clarac des Soeurs de Charité de Ste-Marie,-73.6497421265,45.5908355713,"3530, boulevard Gouin Est",Montréal,QC,H1H1B7,Province of Quebec,QC_healthcare_establishments.csv
82,82,Clinique communautaire de Pointe St-Charles,RLS de Verdun - Côte St-Paul - St-Henri - Pointe-St-Charles,Clinique communautaire de Pointe St-Charles,-73.556892395,45.4783477783,"500, avenue Ash",Montréal,QC,H3K2R4,Province of Quebec,QC_healthcare_establishments.csv
83,83,Centre de réadaptation en déficience intellectuelle et en troubles envahissants du développement de l'Estrie,RLS de Sherbrooke,CRDITED de l'Estrie,-71.9151916504,45.4101142883,"1621, rue Prospect",Sherbrooke,QC,J1J1K4,Province of Quebec,QC_healthcare_establishments.csv
84,84,Maison Elizabeth,RLS de Côte-Saint-Luc - NDG - Montréal-Ouest,Maison Elizabeth,-73.606880188,45.4752159119,"2131, avenue de Marlowe",Montréal,QC,H4A3L4,Province of Quebec,QC_healthcare_establishments.csv
85,85,Centre Miriam,RLS de Côte-des-Neiges - Métro - Parc-Extension,Centre Miriam,-73.6618652344,45.4963607788,"8160, chemin Royden",Montréal,QC,H4P2T2,Province of Quebec,QC_healthcare_establishments.csv
86,86,Centre universitaire de santé McGill,RLS de Côte-Saint-Luc - NDG - Montréal-Ouest,CUSM,-73.5890350342,45.4970474243,"1001, boulevard Décarie",Montréal,QC,H4A3J1,Province of Quebec,QC_healthcare_establishments.csv
87,87,Havre-Jeunesse,RLS de Verdun - Côte St-Paul - St-Henri - Pointe-St-Charles,Havre-Jeunesse,-73.5627212524,45.4601860046,"4360, boulevard Lasalle",Montréal,QC,H4G2A8,Province of Quebec,QC_healthcare_establishments.csv
88,88,Centre d'hébergement et de soins de longue durée Heather Inc.,RLS de Lanaudière-Nord,CHSLD Heather Inc.,-73.7022247314,46.0508613586,"3931, Lakeshore Drive",Matawinie,QC,J0K1S0,Province of Quebec,QC_healthcare_establishments.csv
89,89,L'Hôpital général juif Sir Mortimer B. Davis,RLS de Côte-des-Neiges - Métro - Parc-Extension,L'Hôpital général juif Sir Mortimer B. Davis,-73.6288070679,45.4978103638,"3755, chemin de la Côte-Sainte-Catherin",Montréal,QC,H3T1E2,Province of Quebec,QC_healthcare_establishments.csv
90,90,Centre hospitalier universitaire Sainte-Justine,RLS de Côte-des-Neiges - Métro - Parc-Extension,CHU Sainte-Justine,-73.6249465942,45.5031547546,"3175, chemin de la Côte-Sainte-Catherin",Montréal,QC,H3T1C5,Province of Quebec,QC_healthcare_establishments.csv
91,91,La résidence de Lachute,RLS d'Argenteuil,La résidence de Lachute,-74.339263916,45.6566467285,"377, rue Principale",Argenteuil,QC,J8H1Y1,Province of Quebec,QC_healthcare_establishments.csv
92,92,Centre de santé Tulattavik de l'Ungava,,Centre de santé Tulattavik de l'Ungava,-68.4052734375,58.1070480347,Kuujjuaq,Administration régionale Kativik,QC,J0M1C0,Province of Quebec,QC_healthcare_establishments.csv
93,93,Centre hospitalier de St. Mary,RLS de Côte-des-Neiges - Métro - Parc-Extension,Centre hospitalier de St. Mary,-73.6241378784,45.4949417114,"3830, avenue Lacombe",Montréal,QC,H3T1M5,Province of Quebec,QC_healthcare_establishments.csv
94,94,Institut national de psychiatrie légale Philippe-Pinel,RLS de Rivière-des-Prairies - Anjou - Montréal-Est,Institut national de psychiatrie légale Philippe-Pinel,-73.5336151123,45.6560554504,"10905, boulevard Henri-Bourassa Est",Montréal,QC,H1C1H1,Province of Quebec,QC_healthcare_establishments.csv
95,95,Résidence Riviera Inc.,RLS de Laval,Résidence Riviera Inc.,-73.7343673706,45.5486755371,"2999, boulevard Notre-Dame",Laval,QC,H7V4C4,Province of Quebec,QC_healthcare_establishments.csv
96,96,L'Hôpital chinois de Montréal (1963),RLS des Faubourgs - Plateau-Mont-Royal - St-Louis-du-Parc,L'Hôpital chinois de Montréal (1963),-73.5581207275,45.5095558167,"189, avenue Viger Est",Montréal,QC,H2X3Y9,Province of Quebec,QC_healthcare_establishments.csv
97,97,Pavillon Ste-Marie Inc.,RLS de la Rivière-du-Nord - Mirabel-Nord,Pavillon Ste-Marie Inc.,-74.0083770752,45.8080062866,"45, rue du Pavillon",La Rivière-du-Nord,QC,J7Y3R6,Province of Quebec,QC_healthcare_establishments.csv
98,98,Les cèdres - Centre d'accueil pour personnes agées,RLS du Nord de l'Île - Saint-Laurent,Les cèdres - Centre d'accueil pour personnes agees,-73.6799240112,45.5170021057,"1275, boulevard de la Côte-Vertu",Montréal,QC,H4L4V2,Province of Quebec,QC_healthcare_establishments.csv
99,99,Centre d'hébergement du Boisé Ltée,RLS de Québec-Sud,Centre d'hébergement du Boisé Ltée,-71.321395874,46.754032135,"3690, boulevard Neilson",Québec,QC,G1W0A9,Province of Quebec,QC_healthcare_establishments.csv
100,100,La corporation du Centre hospitalier gériatrique Maimonides,RLS de Côte-Saint-Luc - NDG - Montréal-Ouest,La corporation du Centre hosp. gériatrique Maimonides,-73.6684265137,45.4715499878,"5795, avenue Caldwell",Montréal,QC,H4W1W3,Province of Quebec,QC_healthcare_establishments.csv
101,101,Pavillon Bellevue Inc.,RLS Alphonse-Desjardins,Pavillon Bellevue Inc.,-71.1567382813,46.819103241,"99, rue Monseigneur-Bourget",Lévis,QC,G6V9V2,Province of Quebec,QC_healthcare_establishments.csv
102,102,Centre métropolitain de chirurgie plastique Inc.,RLS d'Ahuntsic - Montréal-Nord,Centre métropolitain de chirurgie plastique Inc.,-73.6929397583,45.5454483032,"999, rue de Salaberry",Montréal,QC,H3L1L2,Province of Quebec,QC_healthcare_establishments.csv
103,103,Hôpital Mont-Sinai,RLS de Côte-Saint-Luc - NDG - Montréal-Ouest,Hôpital Mont-Sinai,-73.6573410034,45.4738426208,"5690, boulevard Cavendish",Montréal,QC,H4W1S7,Province of Quebec,QC_healthcare_establishments.csv
104,104,Hôpital Shriners pour enfants (Québec) Inc.,RLS de Côte-Saint-Luc - NDG - Montréal-Ouest,Hôpital Shriners pour enfants (Québec) Inc.,-73.6019973755,45.4717750549,"1003, boulevard Décarie",Montréal,QC,H4A0A9,Province of Quebec,QC_healthcare_establishments.csv
105,105,Accueil du Rivage Inc.,RLS de Richelieu-Yamaska,Accueil du Rivage Inc.,-73.1733551025,45.7780685425,"1008, rue du Rivage",La Vallée-du-Richelieu,QC,J0L1R0,Province of Quebec,QC_healthcare_establishments.csv
106,106,Institut universitaire de cardiologie et de pneumologie de Québec – Université Laval,RLS de Québec-Sud,IUCPQ – UL,-71.2976608276,46.7790908813,"2725, chemin Sainte-Foy",Québec,QC,G1V4G5,Province of Quebec,QC_healthcare_establishments.csv
107,107,Manoir St-Patrice inc.,RLS de Laval,Manoir St-Patrice inc.,-73.7410354614,45.5418167114,"3615, boulevard Perron",Laval,QC,H7V1P4,Province of Quebec,QC_healthcare_establishments.csv
108,108,Institut universitaire en santé mentale Douglas,RLS de Verdun - Côte St-Paul - St-Henri - Pointe-St-Charles,Institut universitaire en santé mentale Douglas,-73.5843582153,45.4421348572,"6875, boulevard Lasalle",Montréal,QC,H4H1R3,Province of Quebec,QC_healthcare_establishments.csv
109,109,CHSLD Juif de Montréal,RLS de Côte-des-Neiges - Métro - Parc-Extension,CHSLD Juif de Montréal,-73.6337585449,45.4929847717,"5725, avenue Victoria",Montréal,QC,H3W3H6,Province of Quebec,QC_healthcare_establishments.csv
110,110,Centre de santé et de services sociaux - Institut universitaire de gériatrie de Sherbrooke,RLS de Sherbrooke,CSSS- Institut universitaire de gériatrie de Sherbrooke,-71.8951034546,45.3906669617,"1036, rue Belvédère Sud",Sherbrooke,QC,J1H4C4,Province of Quebec,QC_healthcare_establishments.csv
111,111,Centre d'accueil Le Programme de Portage Inc.,RLS de Verdun - Côte St-Paul - St-Henri - Pointe-St-Charles,Centre d'accueil Le Programme de Portage inc.,-73.5725097656,45.4918365479,"865, place Richmond",Montréal,QC,H3J1V8,Province of Quebec,QC_healthcare_establishments.csv
112,112,Conseil cri de la santé et des services sociaux de la Baie James,,CCSSS de la Baie James,-78.8957366943,53.7826538086,Case postale 250,Eeyou Istchee,QC,J0M1E0,Province of Quebec,QC_healthcare_establishments.csv
113,113,La Maison Michel Sarrazin,RLS de Québec-Sud,La Maison Michel Sarrazin,-71.2515945435,46.7734794617,"2101, chemin Saint-Louis",Québec,QC,G1T1P5,Province of Quebec,QC_healthcare_establishments.csv
114,114,Villa Belle Rive Inc.,RLS d'Ahuntsic - Montréal-Nord,Villa Belle Rive Inc.,-73.6356506348,45.6135787964,"5320, boulevard Gouin Est",Montréal,QC,H1G1B4,Province of Quebec,QC_healthcare_establishments.csv
115,115,Bande Indienne des Montagnais de Sept-Iles et Maliotenam,RLS de Sept-Îles,Bande Ind. des Montagnais de Sept-Iles et Maliotenam,-66.4036636353,50.2211761475,"1089, avenue de Quen",Sept-Rivières,QC,G4R4L9,Province of Quebec,QC_healthcare_establishments.csv
116,116,Conseil de la Nation Huronne Wendat,RLS de Québec-Nord,Conseil de la Nation Huronne Wendat,-71.3571166992,46.8625564575,"255, place Chef Michel Laveau",Québec,QC,G0A4V0,Province of Quebec,QC_healthcare_establishments.csv
117,117,Pekuakamiulnuatsh Takuhikan,RLS du Domaine-du-Roy,Pekuakamiulnuatsh Takuhikan,-72.2292785645,48.5763092041,"1671, rue Ouiatchouan",Le Domaine-du-Roy,QC,G0W2H0,Province of Quebec,QC_healthcare_establishments.csv
118,118,Conseil des Mohawks de Kahnawake,RLS de Jardins-Roussillon,Conseil des Mohawks de Kahnawake,-73.6763534546,45.4138755798,Case postale 720,Roussillon,QC,J0L1B0,Province of Quebec,QC_healthcare_establishments.csv
119,119,88980 Canada Inc.,RLS de Pierrefonds - Lac Saint-Louis,88980 Canada Inc.,-73.8835525513,45.4189491272,"34, avenue Woodland",Montréal,QC,H9W4V9,Province of Quebec,QC_healthcare_establishments.csv
120,120,Centre de santé Inuulitsivik - Inuulitsivik Healthcenter,,Centre de santé Inuulitsivik,-77.2757949829,60.037651062,Chemin Baie d'Hudson,Administration régionale Kativik,QC,J0M1P0,Province of Quebec,QC_healthcare_establishments.csv
121,121,Chateau Westmount Inc.,RLS de Côte-des-Neiges - Métro - Parc-Extension,Chateau Westmount Inc.,-73.6001586914,45.4771652222,"4860, boulevard De Maisonneuve Ouest",Montréal,QC,H3Z3G2,Province of Quebec,QC_healthcare_establishments.csv
122,122,Centre d'hébergement St-Francois Inc.,RLS de Chicoutimi,Centre d'hébergement St-Francois Inc.,-71.0394973755,48.4230995178,"912, rue Jacques-Cartier Est",Saguenay,QC,G7H2A9,Province of Quebec,QC_healthcare_establishments.csv
123,123,Placements M.G.O. Inc.,RLS de Laval,Placements M.G.O. Inc.,-73.6474456787,45.6865501404,"5855, rue Boulard",Laval,QC,H7B1A3,Province of Quebec,QC_healthcare_establishments.csv
124,124,Manoir Soleil Inc.,RLS du Haut-Richelieu - Rouville,Manoir Soleil Inc.,-73.2959899902,45.4613571167,"125, rue Daigneault",La Vallée-du-Richelieu,QC,J3L1G7,Province of Quebec,QC_healthcare_establishments.csv
125,125,Conseil Mohawk d'Akwesasne,RLS du Haut-Saint-Laurent,Conseil Mohawk d'Akwesasne,-74.6025085449,45.0087394714,"95, Snye School road",Le Haut-Saint-Laurent,QC,H0M1A1,Province of Quebec,QC_healthcare_establishments.csv
126,126,Hôpital Ste-Monique inc.,RLS de Québec-Sud,Hopital Ste-Monique Inc.,-71.3263092041,46.8044166565,"4805, boulevard Wilfrid-Hamel",Québec,QC,G1P2J7,Province of Quebec,QC_healthcare_establishments.csv
127,127,Centre d'accueil Saint-Joseph de Lévis Inc.,RLS Alphonse-Desjardins,Centre d'accueil Saint-Joseph de Lévis Inc.,-71.1886901855,46.7991447449,"5445, rue Saint-Louis",Lévis,QC,G6V4G9,Province of Quebec,QC_healthcare_establishments.csv
128,128,Centre d'accueil Marcelle Ferron Inc.,RLS de Champlain,Centre d'accueil Marcelle Ferron Inc.,-73.4943847656,45.446056366,"8600, boulevard Marie-Victorin",Longueuil,QC,J4X1A1,Province of Quebec,QC_healthcare_establishments.csv
129,129,Jardins du Haut Saint-Laurent (1992) Inc.,RLS de Québec-Sud,Jardins du Haut Saint-Laurent (1992) Inc.,-71.3782043457,46.7369422913,"4770, rue Saint-Félix",Québec,QC,G3A1B1,Province of Quebec,QC_healthcare_establishments.csv
130,130,Centre d'hébergement St-Jean-Eudes Inc.,RLS de Québec-Nord,Centre d'hébergement St-Jean-Eudes Inc.,-71.2595214844,46.8505249023,"6000, 3e Avenue Ouest",Québec,QC,G1H7J5,Province of Quebec,QC_healthcare_establishments.csv
131,131,Résidence Sorel-Tracy Inc.,RLS Pierre-De Saurel,Résidence Sorel-Tracy Inc.,-73.1436767578,46.0282249451,"4025, rue Frontenac",Pierre-De Saurel,QC,J3R4G8,Province of Quebec,QC_healthcare_establishments.csv
132,132,2863-9839 Québec Inc.,RLS de Vaudreuil-Soulanges,2863-9839 Québec Inc.,-74.0412597656,45.4034423828,"170, rue Boileau",Vaudreuil-Soulanges,QC,J7V8A3,Province of Quebec,QC_healthcare_establishments.csv
133,133,Centre hospitalier Saint-François inc.,RLS de Québec-Sud,Centre hospitalier Saint-François inc.,-71.2359771729,46.8290405273,"1604, 1re Avenue",Québec,QC,G1L3L6,Province of Quebec,QC_healthcare_establishments.csv
134,134,Centre d'hébergement et de soins de longue durée de La Maison Legault inc.,RLS de Québec-Sud,CHSLD de La Maison Legault inc.,-71.2886199951,46.7577552795,"3035, chemin Saint-Louis",Québec,QC,G1W1R5,Province of Quebec,QC_healthcare_establishments.csv
135,135,Centre d'hébergement et de soins de longue durée Bourget inc.,RLS de Rivière-des-Prairies - Anjou - Montréal-Est,CHSLD Bourget inc.,-73.4927597046,45.6338005066,"11570, rue Notre-Dame Est",Montréal,QC,H1B2X4,Province of Quebec,QC_healthcare_establishments.csv
136,136,Centre d'hébergement et de soins de longue durée Bussey (Québec) inc.,RLS de Dorval - Lachine - Lasalle,CHSLD Bussey (Québec) inc.,-73.683303833,45.4330787659,"2069, boulevard Saint-Joseph",Montréal,QC,H8S4B7,Province of Quebec,QC_healthcare_establishments.csv
137,137,Foyer Saints-Anges de Ham-Nord Inc.,RLS d’Arthabaska-et-de-L’Érable,Foyer Saints-Anges de Ham-Nord Inc.,-71.6477737427,45.9038162231,"493, rue Principale",Arthabaska,QC,G0P1A0,Province of Quebec,QC_healthcare_establishments.csv
138,138,Villa Medica Inc.,RLS des Faubourgs - Plateau-Mont-Royal - St-Louis-du-Parc,Villa Medica Inc.,-73.5687408447,45.5149726868,"225, rue Sherbrooke Est",Montréal,QC,H2X1C9,Province of Quebec,QC_healthcare_establishments.csv
