OPERATOR_NAME,BUSINESS_NAME,TYPE,STREET_ADDRESS,CITY,POSTAL_CODE,BUSINESS_PHONE,INSPECTION_URL,GOVERNING_ACT,GOVERNING_REGULATION,HEALTH_AUTHORITY,MENTAL_HEALTH,MENTAL_HEALTH_PUBLIC_UNITS,MENTAL_HEALTH_PRIVATE_PAY_UNITS,SENIOR_ASSISTED_LIVING,SENIOR_PUBLIC_UNITS,SENIOR_PRIVATE_PAY_UNITS,SUPPORTIVE_RECOVERY,SUPPORTIVE_RECOVERY_PUBLIC_UNITS,SUPPORTIVE_RECOVERY_PRIVATE_PAY_UNITS,LONGITUDE,LATITUDE
Amica Arbutus Manor Inc.,Amica Arbutus Manor,Assisted Living,2125 Eddington Drive,Vancouver,V6L 3A9,(604) 736-8936,https://connect.health.gov.bc.ca/assisted-living,http://www.bclaws.ca/civix/document/id/complete/statreg/02075_01,http://www.bclaws.ca/civix/document/id/complete/statreg/217_2004 http://www.bclaws.ca/civix/document/id/complete/statreg/218_2004,Vancouver Coastal,N,,,Y,0,60,N,,,-123.1558789,49.2476316
Amica Somerset House Inc.,Amica Somerset House,Assisted Living,540 Dallas Road,Victoria,V8V 4X9,(250) 380-9121,https://connect.health.gov.bc.ca/assisted-living,http://www.bclaws.ca/civix/document/id/complete/statreg/02075_01,http://www.bclaws.ca/civix/document/id/complete/statreg/217_2004 http://www.bclaws.ca/civix/document/id/complete/statreg/218_2004,Island Health,N,,,Y,0,68,N,,,-123.3762578,48.411872
Amica West Vancouver Inc.,Amica West Vancouver,Assisted Living,659 Clyde Avenue,West Vancouver,V7T 1C8,(604) 921-9181,https://connect.health.gov.bc.ca/assisted-living,http://www.bclaws.ca/civix/document/id/complete/statreg/02075_01,http://www.bclaws.ca/civix/document/id/complete/statreg/217_2004 http://www.bclaws.ca/civix/document/id/complete/statreg/218_2004,Vancouver Coastal,N,,,Y,0,87,N,,,-123.1332044,49.3285715
Augustine House Society,Augustine House,Assisted Living,3820 Arthur Drive,Delta,V4K 5E6,(604) 940-6005,https://connect.health.gov.bc.ca/assisted-living,http://www.bclaws.ca/civix/document/id/complete/statreg/02075_01,http://www.bclaws.ca/civix/document/id/complete/statreg/217_2004 http://www.bclaws.ca/civix/document/id/complete/statreg/218_2004,Fraser Health,N,,,Y,20,55,N,,,-123.0769909,49.0730448
John Howard Society Thompson Region,Bedford Manor,Assisted Living,529 Seymour Street,Kamloops,V2C 0A1,(250) 434-1702,https://connect.health.gov.bc.ca/assisted-living,http://www.bclaws.ca/civix/document/id/complete/statreg/02075_01,http://www.bclaws.ca/civix/document/id/complete/statreg/217_2004 http://www.bclaws.ca/civix/document/id/complete/statreg/218_2004,Interior Health,N,,,Y,76,0,N,,,-120.3283813,50.6747498
0869632 BC LTD,Bevan Village,Assisted Living,33386 Bevan Avenue,Abbotsford,V2S 5G6,(604) 850-5416,https://connect.health.gov.bc.ca/assisted-living,http://www.bclaws.ca/civix/document/id/complete/statreg/02075_01,http://www.bclaws.ca/civix/document/id/complete/statreg/217_2004 http://www.bclaws.ca/civix/document/id/complete/statreg/218_2004,Fraser Health,N,,,Y,0,35,N,,,-122.2992395,49.0413325
Lake Country Senior Housing Society,Blue Heron Villa,Assisted Living,9509 Main Street,Lake Country,V4V 2N3,(250) 766-1660,https://connect.health.gov.bc.ca/assisted-living,http://www.bclaws.ca/civix/document/id/complete/statreg/02075_01,http://www.bclaws.ca/civix/document/id/complete/statreg/217_2004 http://www.bclaws.ca/civix/document/id/complete/statreg/218_2004,Interior Health,N,,,Y,25,0,N,,,-119.4039656,50.0204549
Grand Forks and District Housing Society,Boundary Lodge Assisted Living,Assisted Living,7130 9th Street,Grand Forks,V0H 1H4,(250) 443-0006,https://connect.health.gov.bc.ca/assisted-living,http://www.bclaws.ca/civix/document/id/complete/statreg/02075_01,http://www.bclaws.ca/civix/document/id/complete/statreg/217_2004 http://www.bclaws.ca/civix/document/id/complete/statreg/218_2004,Interior Health,N,,,Y,17,1,N,,,-118.4443059,49.0288153
Chartwell Master Care LP (Chartwell Carrington Place),Carrington Place,Assisted Living,4651  - 4751  23rd Street,Vernon,V1T 4K7,(250) 545-5704,https://connect.health.gov.bc.ca/assisted-living,http://www.bclaws.ca/civix/document/id/complete/statreg/02075_01,http://www.bclaws.ca/civix/document/id/complete/statreg/217_2004 http://www.bclaws.ca/civix/document/id/complete/statreg/218_2004,Interior Health,N,,,Y,0,55,N,,,-119.2619121,50.2812067
Chartwell Master Care LP,Churchill House,Assisted Living,150 West 29th Street,North Vancouver,V7N 2J8,(604) 904-1199,https://connect.health.gov.bc.ca/assisted-living,http://www.bclaws.ca/civix/document/id/complete/statreg/02075_01,http://www.bclaws.ca/civix/document/id/complete/statreg/217_2004 http://www.bclaws.ca/civix/document/id/complete/statreg/218_2004,Vancouver Coastal,N,,,Y,32,27,N,,,-123.0733402,49.3360817
Baptist Housing Society of BC,Clarendon Court,Assisted Living,6404 Clarendon Street,Vancouver,V5S 4X9,(604) 324-6230,https://connect.health.gov.bc.ca/assisted-living,http://www.bclaws.ca/civix/document/id/complete/statreg/02075_01,http://www.bclaws.ca/civix/document/id/complete/statreg/217_2004 http://www.bclaws.ca/civix/document/id/complete/statreg/218_2004,Vancouver Coastal,N,,,Y,56,4,N,,,-123.0554181,49.2255956
Arrowsmith Health Care (2011) Society,Cokely Manor,Assisted Living,266A Moilliet Street,Parksville,V9P 1M9,(250) 947-9777,https://connect.health.gov.bc.ca/assisted-living,http://www.bclaws.ca/civix/document/id/complete/statreg/02075_01,http://www.bclaws.ca/civix/document/id/complete/statreg/217_2004 http://www.bclaws.ca/civix/document/id/complete/statreg/218_2004,Island Health,N,,,Y,30,0,N,,,-124.3236216,49.3161292
Golden Life Management Corp.,Columbia Garden Village,Assisted Living,"800-10th Avenue, PO Box 578",Invermere,V0A 1K0,(250) 341-3350,https://connect.health.gov.bc.ca/assisted-living,http://www.bclaws.ca/civix/document/id/complete/statreg/02075_01,http://www.bclaws.ca/civix/document/id/complete/statreg/217_2004 http://www.bclaws.ca/civix/document/id/complete/statreg/218_2004,Interior Health,N,,,Y,8,32,N,,,-116.0331677,50.5076471
608698 BC Ltd. dba Harmony Living for Seniors,Harmony Living for Seniors - Kelowna,Assisted Living,962-964  Laurier Avenue,Kelowna,V1Y 6B1,(250) 861-3991,https://connect.health.gov.bc.ca/assisted-living,http://www.bclaws.ca/civix/document/id/complete/statreg/02075_01,http://www.bclaws.ca/civix/document/id/complete/statreg/217_2004 http://www.bclaws.ca/civix/document/id/complete/statreg/218_2004,Interior Health,N,,,Y,0,17,N,,,-119.4806541,49.8824813
Okanagan Mental Health Services Society,Coral House,Assisted Living,1367 Bernard Ave,Kelowna,V1Y 6R5,(250) 717-3030,https://connect.health.gov.bc.ca/assisted-living,http://www.bclaws.ca/civix/document/id/complete/statreg/02075_01,http://www.bclaws.ca/civix/document/id/complete/statreg/217_2004 http://www.bclaws.ca/civix/document/id/complete/statreg/218_2004,Interior Health,Y,10,0,N,,,N,,,-119.4683825,49.8860284
Smithers Community Services Association,Cottonwood Manor,Assisted Living,2261 Copeland Avenue,Houston,V0J 1Z0,(250) 845-3770,https://connect.health.gov.bc.ca/assisted-living,http://www.bclaws.ca/civix/document/id/complete/statreg/02075_01,http://www.bclaws.ca/civix/document/id/complete/statreg/217_2004 http://www.bclaws.ca/civix/document/id/complete/statreg/218_2004,Northern Health,N,,,Y,6,0,N,,,-126.6497314,54.39689
"Diversicare Canada Management Services Co., Inc.",Courtyard Gardens,Assisted Living,7051 Moffatt Road,Richmond,V6Y 3W2,(604)273 4148,https://connect.health.gov.bc.ca/assisted-living,http://www.bclaws.ca/civix/document/id/complete/statreg/02075_01,http://www.bclaws.ca/civix/document/id/complete/statreg/217_2004 http://www.bclaws.ca/civix/document/id/complete/statreg/218_2004,Vancouver Coastal,N,,,Y,57,30,N,,,-123.1441684,49.162097
Courtyard Terrace Assisted Living Residence Partnership,Courtyard Terrace,Assisted Living,3730 Burke Street,Burnaby,V5H 1A3,(604) 437-6262,https://connect.health.gov.bc.ca/assisted-living,http://www.bclaws.ca/civix/document/id/complete/statreg/02075_01,http://www.bclaws.ca/civix/document/id/complete/statreg/217_2004 http://www.bclaws.ca/civix/document/id/complete/statreg/218_2004,Fraser Health,N,,,Y,40,7,N,,,-123.0225089,49.2365917
Golden Life Management Corp.,Crest View Village,Assisted Living,"800 Cavell St, RR4",Creston,V0B 1G4,(250) 428-9986,https://connect.health.gov.bc.ca/assisted-living,http://www.bclaws.ca/civix/document/id/complete/statreg/02075_01,http://www.bclaws.ca/civix/document/id/complete/statreg/217_2004 http://www.bclaws.ca/civix/document/id/complete/statreg/218_2004,Interior Health,N,,,Y,23,20,N,,,-116.5157147,49.1043599
The Cridge Centre for the Family,Cridge Village Seniors Centre,Assisted Living,1307 Hillside Avenue,Victoria,V8T 0A2,(250) 384-8058,https://connect.health.gov.bc.ca/assisted-living,http://www.bclaws.ca/civix/document/id/complete/statreg/02075_01,http://www.bclaws.ca/civix/document/id/complete/statreg/217_2004 http://www.bclaws.ca/civix/document/id/complete/statreg/218_2004,Island Health,N,,,Y,38,0,N,,,-123.3505342,48.4395848
Dania Society,Dania Manor,Assisted Living,4155 Norland Avenue,Burnaby,V5G 3S7,(604) 299-1379,https://connect.health.gov.bc.ca/assisted-living,http://www.bclaws.ca/civix/document/id/complete/statreg/02075_01,http://www.bclaws.ca/civix/document/id/complete/statreg/217_2004 http://www.bclaws.ca/civix/document/id/complete/statreg/218_2004,Fraser Health,N,,,Y,40,10,N,,,-122.9747356,49.2472342
Sienna-Baltic (Cascades) Inc.,The Cascades,Assisted Living,45586 McIntosh Drive,Chilliwack,V2P 7W8,(604) 795-2500,https://connect.health.gov.bc.ca/assisted-living,http://www.bclaws.ca/civix/document/id/complete/statreg/02075_01,http://www.bclaws.ca/civix/document/id/complete/statreg/217_2004 http://www.bclaws.ca/civix/document/id/complete/statreg/218_2004,Fraser Health,N,,,Y,45,3,N,,,-121.9629698,49.160818
Golden Life Management Corp.,Castle Wood Village,Assisted Living,525 Columbia Street,Castlegar,V1N 1G7,(250) 365-6686,https://connect.health.gov.bc.ca/assisted-living,http://www.bclaws.ca/civix/document/id/complete/statreg/02075_01,http://www.bclaws.ca/civix/document/id/complete/statreg/217_2004 http://www.bclaws.ca/civix/document/id/complete/statreg/218_2004,Interior Health,N,,,Y,15,35,N,,,-117.6656779,49.323826
Vancouver Coastal Health Authority,Cedar Garden Assisted Living,Assisted Living,1250 Cedar Village Close,North Vancouver,V7J 3P3,(604) 904-6409,https://connect.health.gov.bc.ca/assisted-living,http://www.bclaws.ca/civix/document/id/complete/statreg/02075_01,http://www.bclaws.ca/civix/document/id/complete/statreg/217_2004 http://www.bclaws.ca/civix/document/id/complete/statreg/218_2004,Vancouver Coastal,N,,,Y,30,0,N,,,-123.0400524,49.3264386
Chalmers Foundation,Chalmers Lodge,Assisted Living,1450 West 12th Avenue,Vancouver,V6H 1M9,(604) 731-3178,https://connect.health.gov.bc.ca/assisted-living,http://www.bclaws.ca/civix/document/id/complete/statreg/02075_01,http://www.bclaws.ca/civix/document/id/complete/statreg/217_2004 http://www.bclaws.ca/civix/document/id/complete/statreg/218_2004,Vancouver Coastal,N,,,Y,0,115,N,,,-123.1374537,49.2604752
Penticton and District Society for Community Living,Chestnut Place,Assisted Living,453 Winnipeg Street,Penticton,V2A 5M7,(250) 490-0200,https://connect.health.gov.bc.ca/assisted-living,http://www.bclaws.ca/civix/document/id/complete/statreg/02075_01,http://www.bclaws.ca/civix/document/id/complete/statreg/217_2004 http://www.bclaws.ca/civix/document/id/complete/statreg/218_2004,Interior Health,N,,,Y,30,3,N,,,-119.5948946,49.495406
Good Samaritan Canada,Christenson Village,Assisted Living,585 Shaw Road,Gibsons,V0N 1V8,(604) 886-8747,https://connect.health.gov.bc.ca/assisted-living,http://www.bclaws.ca/civix/document/id/complete/statreg/02075_01,http://www.bclaws.ca/civix/document/id/complete/statreg/217_2004 http://www.bclaws.ca/civix/document/id/complete/statreg/218_2004,Vancouver Coastal,N,,,Y,60,0,N,,,-123.5202772,49.4044948
Luther Court Society,Luther Court,Assisted Living,1525 Cedar Hill Cross Road,Victoria,V8P 5M1,(250) 477-7241,https://connect.health.gov.bc.ca/assisted-living,http://www.bclaws.ca/civix/document/id/complete/statreg/02075_01,http://www.bclaws.ca/civix/document/id/complete/statreg/217_2004 http://www.bclaws.ca/civix/document/id/complete/statreg/218_2004,Island Health,N,,,Y,30,0,N,,,-123.3364271,48.4619202
Baptist Housing Society of BC,Marrion Village,Assisted Living,1968 Bee Street,Victoria,V8R 6P6,(250) 592-2593,https://connect.health.gov.bc.ca/assisted-living,http://www.bclaws.ca/civix/document/id/complete/statreg/02075_01,http://www.bclaws.ca/civix/document/id/complete/statreg/217_2004 http://www.bclaws.ca/civix/document/id/complete/statreg/218_2004,Island Health,N,,,Y,50,2,N,,,-123.3213476,48.4311828
Mennonite Benevolent Society,Menno Assisted Living,Assisted Living,2021 Primrose Street,Abbotsford,V2S 2Y9,(604) 851-4004,https://connect.health.gov.bc.ca/assisted-living,http://www.bclaws.ca/civix/document/id/complete/statreg/02075_01,http://www.bclaws.ca/civix/document/id/complete/statreg/217_2004 http://www.bclaws.ca/civix/document/id/complete/statreg/218_2004,Fraser Health,N,,,Y,41,54,N,,,-122.309596,49.0386276
Northern Health Authority,McConnell Estates,Assisted Living,4701 Kerby Avenue,Terrace,V8G 5V4,(250) 631-4268,https://connect.health.gov.bc.ca/assisted-living,http://www.bclaws.ca/civix/document/id/complete/statreg/02075_01,http://www.bclaws.ca/civix/document/id/complete/statreg/217_2004 http://www.bclaws.ca/civix/document/id/complete/statreg/218_2004,Northern Health,N,,,Y,22,0,N,,,-128.5928816,54.5327526
Saint Elizabeth Health Services,Millennium Tower,Assisted Living,1175 Broughton Street,Vancouver,V6G 3K9,(604) 408-9897,https://connect.health.gov.bc.ca/assisted-living,http://www.bclaws.ca/civix/document/id/complete/statreg/02075_01,http://www.bclaws.ca/civix/document/id/complete/statreg/217_2004 http://www.bclaws.ca/civix/document/id/complete/statreg/218_2004,Vancouver Coastal,N,,,Y,41,0,N,,,-123.1363126,49.2840797
Halcyon Assisted Living Society,Moberly Manor Assisted Living,Assisted Living,711 West First Street,Revelstoke,V0E 2S0,(250) 837-3147,https://connect.health.gov.bc.ca/assisted-living,http://www.bclaws.ca/civix/document/id/complete/statreg/02075_01,http://www.bclaws.ca/civix/document/id/complete/statreg/217_2004 http://www.bclaws.ca/civix/document/id/complete/statreg/218_2004,Interior Health,N,,,Y,11,0,N,,,-118.2019885,51.0024513
Mountain Lake Seniors Community Partnership,Mountain Lake Seniors Community,Assisted Living,908 Eleventh Street,Nelson,V1L 7A6,(250) 352-2600,https://connect.health.gov.bc.ca/assisted-living,http://www.bclaws.ca/civix/document/id/complete/statreg/02075_01,http://www.bclaws.ca/civix/document/id/complete/statreg/217_2004 http://www.bclaws.ca/civix/document/id/complete/statreg/218_2004,Interior Health,N,,,Y,29,11,N,,,-117.2656912,49.5085719
Good Samaritan Canada,Mountainview Village,Assisted Living,1540 K.L.O. Road,Kelowna,V1W 3P6,(250) 717-3918,https://connect.health.gov.bc.ca/assisted-living,http://www.bclaws.ca/civix/document/id/complete/statreg/02075_01,http://www.bclaws.ca/civix/document/id/complete/statreg/217_2004 http://www.bclaws.ca/civix/document/id/complete/statreg/218_2004,Interior Health,N,,,Y,89,0,N,,,-119.4649933,49.8616964
673848 B.C. Ltd.,Nicola Meadows Assisted Living,Assisted Living,2670 Garcia Street,Merritt,V1K 1B8,(250) 378-4254,https://connect.health.gov.bc.ca/assisted-living,http://www.bclaws.ca/civix/document/id/complete/statreg/02075_01,http://www.bclaws.ca/civix/document/id/complete/statreg/217_2004 http://www.bclaws.ca/civix/document/id/complete/statreg/218_2004,Interior Health,N,,,Y,13,12,N,,,-120.7835847,50.1148415
Nikkei Seniors Health Care and Housing Society,Nikkei Home,Assisted Living,6680 Southoaks Crescent,Burnaby,V5E 4N3,(604) 777-5000,https://connect.health.gov.bc.ca/assisted-living,http://www.bclaws.ca/civix/document/id/complete/statreg/02075_01,http://www.bclaws.ca/civix/document/id/complete/statreg/217_2004 http://www.bclaws.ca/civix/document/id/complete/statreg/218_2004,Fraser Health,N,,,Y,59,0,N,,,-122.9651274,49.2174881
Progressive Intercultural Community Services Society,PICS Assisted Living,Assisted Living,12075 - 75A Avenue,Surrey,V3W 1S8,(604) 596-0052,https://connect.health.gov.bc.ca/assisted-living,http://www.bclaws.ca/civix/document/id/complete/statreg/02075_01,http://www.bclaws.ca/civix/document/id/complete/statreg/217_2004 http://www.bclaws.ca/civix/document/id/complete/statreg/218_2004,Fraser Health,N,,,Y,49,0,N,,,-122.8879445,49.1403167
Good Samaritan Canada,Pioneer Lodge,Assisted Living,1051 6th Avenue NE,Salmon Arm,V1E 0A6,(250) 804-4814,https://connect.health.gov.bc.ca/assisted-living,http://www.bclaws.ca/civix/document/id/complete/statreg/02075_01,http://www.bclaws.ca/civix/document/id/complete/statreg/217_2004 http://www.bclaws.ca/civix/document/id/complete/statreg/218_2004,Interior Health,N,,,Y,30,0,N,,,-119.2727977,50.7046521
Kaigo Retirement Communities Ltd.,Pioneer Square,Assisted Living,2865 Willowdale Drive,Armstrong,V0E 1B1,(250) 546-3396,https://connect.health.gov.bc.ca/assisted-living,http://www.bclaws.ca/civix/document/id/complete/statreg/02075_01,http://www.bclaws.ca/civix/document/id/complete/statreg/217_2004 http://www.bclaws.ca/civix/document/id/complete/statreg/218_2004,Interior Health,N,,,Y,20,0,N,,,-119.1958505,50.4453194
Belvedere Care Centre Inc.,Residences at Belvedere,Assisted Living,750 Delestre Avenue,Coquitlam,V3K 0A1,(604) 939-1930,https://connect.health.gov.bc.ca/assisted-living,http://www.bclaws.ca/civix/document/id/complete/statreg/02075_01,http://www.bclaws.ca/civix/document/id/complete/statreg/217_2004 http://www.bclaws.ca/civix/document/id/complete/statreg/218_2004,Fraser Health,N,,,Y,60,20,N,,,-122.8782194,49.2407092
CSH Riverside Manor Inc.,Riverside Manor,Assisted Living,765 Old Hope Princeton Way,Hope,V0X 1L4,(604) 860-4700,https://connect.health.gov.bc.ca/assisted-living,http://www.bclaws.ca/civix/document/id/complete/statreg/02075_01,http://www.bclaws.ca/civix/document/id/complete/statreg/217_2004 http://www.bclaws.ca/civix/document/id/complete/statreg/218_2004,Fraser Health,N,,,Y,12,0,N,,,-121.4235351,49.3759263
Golden Life Management Corp.,Rocky Mountain Village,Assisted Living,55 Cokato Road,Fernie,V0B 1M4,(250) 423-4214,https://connect.health.gov.bc.ca/assisted-living,http://www.bclaws.ca/civix/document/id/complete/statreg/02075_01,http://www.bclaws.ca/civix/document/id/complete/statreg/217_2004 http://www.bclaws.ca/civix/document/id/complete/statreg/218_2004,Interior Health,N,,,Y,12,4,N,,,-115.0666592,49.4923848
Elim Housing Society & Elim Christian Care Society,Elim Village - Emerald Building,Assisted Living,9080 159th Street,Surrey,V4N 5T6,(604) 583-3546,https://connect.health.gov.bc.ca/assisted-living,http://www.bclaws.ca/civix/document/id/complete/statreg/02075_01,http://www.bclaws.ca/civix/document/id/complete/statreg/217_2004 http://www.bclaws.ca/civix/document/id/complete/statreg/218_2004,Fraser Health,N,,,Y,53,56,N,,,-122.7813437,49.1676368
Chartwell Retirement Residences,Chartwell Langley Gardens Retirement Residence,Assisted Living,8888 - 202 Street,Langley,V1M 4A7,(604) 888-0228,https://connect.health.gov.bc.ca/assisted-living,http://www.bclaws.ca/civix/document/id/complete/statreg/02075_01,http://www.bclaws.ca/civix/document/id/complete/statreg/217_2004 http://www.bclaws.ca/civix/document/id/complete/statreg/218_2004,Fraser Health,N,,,Y,0,85,N,,,-122.6598375,49.1654942
Evergreen Heights Baptist Housing Society,Evergreen Heights,Assisted Living,1501 Everall Street,White Rock,V4B 0A1,(604) 541-3817,https://connect.health.gov.bc.ca/assisted-living,http://www.bclaws.ca/civix/document/id/complete/statreg/02075_01,http://www.bclaws.ca/civix/document/id/complete/statreg/217_2004 http://www.bclaws.ca/civix/document/id/complete/statreg/218_2004,Fraser Health,N,,,Y,84,1,N,,,-122.8095263,49.0294086
HCN-Revera Lessee (Fleetwood Villa) LP GP Inc. o/a Fleetwood Villa,Fleetwood Villa,Assisted Living,16028  83rd Avenue,Surrey,V4N 0N2,(604) 590-2889,https://connect.health.gov.bc.ca/assisted-living,http://www.bclaws.ca/civix/document/id/complete/statreg/02075_01,http://www.bclaws.ca/civix/document/id/complete/statreg/217_2004 http://www.bclaws.ca/civix/document/id/complete/statreg/218_2004,Fraser Health,N,,,Y,9,45,N,,,-122.7780217,49.1534447
Seaview Seniors Housing Society,Forest Glen,Assisted Living,"Box 833, 1783 St. Jacques Blvd.",Ucluelet,V0R 3A0,(250) 726-2789,https://connect.health.gov.bc.ca/assisted-living,http://www.bclaws.ca/civix/document/id/complete/statreg/02075_01,http://www.bclaws.ca/civix/document/id/complete/statreg/217_2004 http://www.bclaws.ca/civix/document/id/complete/statreg/218_2004,Island Health,N,,,Y,3,0,N,,,-125.5523697,48.942746
Active Care Senior Services Ltd.,Greenfield Gardens,Assisted Living,1607 Greenfield Ave,Kamloops,V2B 4N4,(250) 554-9244,https://connect.health.gov.bc.ca/assisted-living,http://www.bclaws.ca/civix/document/id/complete/statreg/02075_01,http://www.bclaws.ca/civix/document/id/complete/statreg/217_2004 http://www.bclaws.ca/civix/document/id/complete/statreg/218_2004,Interior Health,N,,,Y,0,21,N,,,-120.384838,50.7043198
Greenwoods Eldercare Society,Braehaven Assisted Living,Assisted Living,137 Blain Road,Salt Spring Island,V8K 0A1,(250) 537-5561,https://connect.health.gov.bc.ca/assisted-living,http://www.bclaws.ca/civix/document/id/complete/statreg/02075_01,http://www.bclaws.ca/civix/document/id/complete/statreg/217_2004 http://www.bclaws.ca/civix/document/id/complete/statreg/218_2004,Island Health,N,,,Y,30,0,N,,,-123.5095093,48.8623409
S.U.C.C.E.S.S. Multi-Level Care Society,Harmony House - Vancouver,Assisted Living,580 Shanghai Alley,Vancouver,V6B 1N8,(604) 648-0012,https://connect.health.gov.bc.ca/assisted-living,http://www.bclaws.ca/civix/document/id/complete/statreg/02075_01,http://www.bclaws.ca/civix/document/id/complete/statreg/217_2004 http://www.bclaws.ca/civix/document/id/complete/statreg/218_2004,Vancouver Coastal,N,,,Y,33,0,N,,,-123.1053779,49.2799982
Haro Park Centre Society,Haro Park,Assisted Living,1233 Haro Street,Vancouver,V6E 3Y5,(604) 687-5584,https://connect.health.gov.bc.ca/assisted-living,http://www.bclaws.ca/civix/document/id/complete/statreg/02075_01,http://www.bclaws.ca/civix/document/id/complete/statreg/217_2004 http://www.bclaws.ca/civix/document/id/complete/statreg/218_2004,Vancouver Coastal,N,,,Y,28,0,N,,,-123.1284501,49.2856281
"Diversicare Canada Management Services Co., Inc.",Hawthorn Park Retirement Community,Assisted Living,867 K.L.O. Road,Kelowna,V1Y 9G5,(250) 861-6636,https://connect.health.gov.bc.ca/assisted-living,http://www.bclaws.ca/civix/document/id/complete/statreg/02075_01,http://www.bclaws.ca/civix/document/id/complete/statreg/217_2004 http://www.bclaws.ca/civix/document/id/complete/statreg/218_2004,Interior Health,N,,,Y,0,40,N,,,-119.4838649,49.8600973
"Benchmark Lifestyles, Inc.",Heritage House (Oliver),Assisted Living,409 Salamander Ave,Oliver,V0H 1T3,(250) 498-0622,https://connect.health.gov.bc.ca/assisted-living,http://www.bclaws.ca/civix/document/id/complete/statreg/02075_01,http://www.bclaws.ca/civix/document/id/complete/statreg/217_2004 http://www.bclaws.ca/civix/document/id/complete/statreg/218_2004,Interior Health,N,,,Y,33,20,N,,,-119.545803,49.1875106
Kaigo Retirement Communities Ltd.,Heritage Square,Assisted Living,3904-27th Street,Vernon,V1T 4X7,(250) 545-2060,https://connect.health.gov.bc.ca/assisted-living,http://www.bclaws.ca/civix/document/id/complete/statreg/02075_01,http://www.bclaws.ca/civix/document/id/complete/statreg/217_2004 http://www.bclaws.ca/civix/document/id/complete/statreg/218_2004,Interior Health,N,,,Y,23,2,N,,,-119.26823,50.270687
Good Samaritan Canada,Heron Grove,Assisted Living,4900 - 20th Street,Vernon,V1T 9W3,(250) 542-6101,https://connect.health.gov.bc.ca/assisted-living,http://www.bclaws.ca/civix/document/id/complete/statreg/02075_01,http://www.bclaws.ca/civix/document/id/complete/statreg/217_2004 http://www.bclaws.ca/civix/document/id/complete/statreg/218_2004,Interior Health,N,,,Y,38,2,N,,,-119.259139,50.2830685
Victoria Cool Aid Society,Hillside Terrace,Assisted Living,1460 Hillside Ave,Victoria,V8T 2B7,(250) 383-1977,https://connect.health.gov.bc.ca/assisted-living,http://www.bclaws.ca/civix/document/id/complete/statreg/02075_01,http://www.bclaws.ca/civix/document/id/complete/statreg/217_2004 http://www.bclaws.ca/civix/document/id/complete/statreg/218_2004,Island Health,N,,,Y,45,0,N,,,-123.342568,48.4425235
Icelandic Care Home Hofn Society,Icelandic Harbour,Assisted Living,2020 Harrison Drive,Vancouver,V5P 2P6,(604) 321-3812,https://connect.health.gov.bc.ca/assisted-living,http://www.bclaws.ca/civix/document/id/complete/statreg/02075_01,http://www.bclaws.ca/civix/document/id/complete/statreg/217_2004 http://www.bclaws.ca/civix/document/id/complete/statreg/218_2004,Vancouver Coastal,N,,,Y,72,0,N,,,-123.0638421,49.2093852
Campbell River and District Association for Community Living,Ironwood Place,Assisted Living,1351 Ironwood Street,Campbell River,V9W 5Z7,(250) 287-4486,https://connect.health.gov.bc.ca/assisted-living,http://www.bclaws.ca/civix/document/id/complete/statreg/02075_01,http://www.bclaws.ca/civix/document/id/complete/statreg/217_2004 http://www.bclaws.ca/civix/document/id/complete/statreg/218_2004,Island Health,N,,,Y,54,0,N,,,-125.2545522,50.0285603
M'akola Housing Society,Jesken Aerie,Assisted Living,817 Goldstream Avenue,Victoria,V9B 2X8,(250) 474-1524,https://connect.health.gov.bc.ca/assisted-living,http://www.bclaws.ca/civix/document/id/complete/statreg/02075_01,http://www.bclaws.ca/civix/document/id/complete/statreg/217_2004 http://www.bclaws.ca/civix/document/id/complete/statreg/218_2004,Island Health,N,,,Y,60,0,N,,,-123.5018758,48.449097
Golden Life Management Corp.,Joseph Creek Village,Assisted Living,1901 Willowbrook Drive,Cranbrook,V1C 6S4,(250) 417-0666,https://connect.health.gov.bc.ca/assisted-living,http://www.bclaws.ca/civix/document/id/complete/statreg/02075_01,http://www.bclaws.ca/civix/document/id/complete/statreg/217_2004 http://www.bclaws.ca/civix/document/id/complete/statreg/218_2004,Interior Health,N,,,Y,28,37,N,,,-115.7470729,49.5273009
Chartwell Master Care LP together with 107153 BC Ltd.,Chartwell Kamloops Retirement Residence,Assisted Living,628 Tranquille Road,Kamloops,V2B 3H6,(250) 376-5363,https://connect.health.gov.bc.ca/assisted-living,http://www.bclaws.ca/civix/document/id/complete/statreg/02075_01,http://www.bclaws.ca/civix/document/id/complete/statreg/217_2004 http://www.bclaws.ca/civix/document/id/complete/statreg/218_2004,Interior Health,N,,,Y,0,60,N,,,-120.3601186,50.6952226
KinVillage Association,KinVillage Assisted Living,Assisted Living,5440 10th Avenue,Delta,V4M 3Y9,(604) 943-0155,https://connect.health.gov.bc.ca/assisted-living,http://www.bclaws.ca/civix/document/id/complete/statreg/02075_01,http://www.bclaws.ca/civix/document/id/complete/statreg/217_2004 http://www.bclaws.ca/civix/document/id/complete/statreg/218_2004,Fraser Health,N,,,Y,68,0,N,,,-123.0724206,49.0214427
Powell River Kiwanis Housing Society,Kiwanis Garden Manor,Assisted Living,4923 Kiwanis Avenue,Powell River,V8A 5H5,(604) 485-5210,https://connect.health.gov.bc.ca/assisted-living,http://www.bclaws.ca/civix/document/id/complete/statreg/02075_01,http://www.bclaws.ca/civix/document/id/complete/statreg/217_2004 http://www.bclaws.ca/civix/document/id/complete/statreg/218_2004,Vancouver Coastal,N,,,Y,40,0,N,,,-124.5207197,49.849559
Nanaimo District Senior Citizens' Housing Development Society,Kiwanis Suites,Assisted Living,1234 Kiwanis Crescent,Nanaimo,V9S 5Y1,(250) 753-6471,https://connect.health.gov.bc.ca/assisted-living,http://www.bclaws.ca/civix/document/id/complete/statreg/02075_01,http://www.bclaws.ca/civix/document/id/complete/statreg/217_2004 http://www.bclaws.ca/civix/document/id/complete/statreg/218_2004,Island Health,N,,,Y,28,0,N,,,-123.9684613,49.1863565
Vantage Living Inc.,Kiwanis Manor,Assisted Living,959 21st Street,West Vancouver,V7V 4Y3,(604) 922-6149,https://connect.health.gov.bc.ca/assisted-living,http://www.bclaws.ca/civix/document/id/complete/statreg/02075_01,http://www.bclaws.ca/civix/document/id/complete/statreg/217_2004 http://www.bclaws.ca/civix/document/id/complete/statreg/218_2004,Vancouver Coastal,N,,,Y,36,0,N,,,-123.1687216,49.3333445
4 All Seasons Holdings Ltd.,La Rosa Gardens,Assisted Living,1211 Cloke Road,Ladysmith,V9G 2B6,(250) 245-1016,https://connect.health.gov.bc.ca/assisted-living,http://www.bclaws.ca/civix/document/id/complete/statreg/02075_01,http://www.bclaws.ca/civix/document/id/complete/statreg/217_2004 http://www.bclaws.ca/civix/document/id/complete/statreg/218_2004,Island Health,N,,,Y,22,0,N,,,-123.8346916,48.9962982
Northern Health Authority,Laurier Manor - Northern Health Authority,Assisted Living,2175 - 9th Avenue,Prince George,V2M 5E3,(250) 561-1408,https://connect.health.gov.bc.ca/assisted-living,http://www.bclaws.ca/civix/document/id/complete/statreg/02075_01,http://www.bclaws.ca/civix/document/id/complete/statreg/217_2004 http://www.bclaws.ca/civix/document/id/complete/statreg/218_2004,Northern Health,N,,,Y,32,0,N,,,-122.7659153,53.9162705
South Vancouver Island Housing Society,Legion Manor,Assisted Living,7601 East Saanich Road,Victoria,V8M 0A4,(250) 652-3261,https://connect.health.gov.bc.ca/assisted-living,http://www.bclaws.ca/civix/document/id/complete/statreg/02075_01,http://www.bclaws.ca/civix/document/id/complete/statreg/217_2004 http://www.bclaws.ca/civix/document/id/complete/statreg/218_2004,Island Health,N,,,Y,20,0,N,,,-123.4179964,48.5882046
Dawson Heights Housing Ltd.,The Cedars,Assisted Living,3710 Cedar Hill Road,Victoria,V8P 5V5,(250) 477-4850,https://connect.health.gov.bc.ca/assisted-living,http://www.bclaws.ca/civix/document/id/complete/statreg/02075_01,http://www.bclaws.ca/civix/document/id/complete/statreg/217_2004 http://www.bclaws.ca/civix/document/id/complete/statreg/218_2004,Island Health,N,,,Y,10,0,N,,,-123.3383825,48.4622038
Mission Association for Seniors Housing,The Cedars (Mission),Assisted Living,7380 Hurd Street,Mission,V2V 3H5,(604) 826-2194,https://connect.health.gov.bc.ca/assisted-living,http://www.bclaws.ca/civix/document/id/complete/statreg/02075_01,http://www.bclaws.ca/civix/document/id/complete/statreg/217_2004 http://www.bclaws.ca/civix/document/id/complete/statreg/218_2004,Fraser Health,N,,,Y,40,18,N,,,-122.331947,49.1362414
Chartwell Master Care LP (Chartwell Chatsworth Retirement Residence),Chartwell Chatsworth Retirement Residences,Assisted Living,1831 Parkview Crescent,Kelowna,V1X 7G7,(250) 860-1064,https://connect.health.gov.bc.ca/assisted-living,http://www.bclaws.ca/civix/document/id/complete/statreg/02075_01,http://www.bclaws.ca/civix/document/id/complete/statreg/217_2004 http://www.bclaws.ca/civix/document/id/complete/statreg/218_2004,Interior Health,N,,,Y,0,55,N,,,-119.4258835,49.880941
"Diversicare Canada Management Services Co., Inc.",The Concorde Assisted Living Residence,Assisted Living,3235 Skaha Lake Road,Penticton,V2A 6G5,(250) 490-8800,https://connect.health.gov.bc.ca/assisted-living,http://www.bclaws.ca/civix/document/id/complete/statreg/02075_01,http://www.bclaws.ca/civix/document/id/complete/statreg/217_2004 http://www.bclaws.ca/civix/document/id/complete/statreg/218_2004,Interior Health,N,,,Y,23,19,N,,,-119.5889566,49.4597583
The Louis Brier Jewish Residence Society,The Harry and Jeanette Weinberg (of Baltimore) Residence,Assisted Living,5650 Osler Street,Vancouver,V6M 2W9,(604) 261-9622,https://connect.health.gov.bc.ca/assisted-living,http://www.bclaws.ca/civix/document/id/complete/statreg/02075_01,http://www.bclaws.ca/civix/document/id/complete/statreg/217_2004 http://www.bclaws.ca/civix/document/id/complete/statreg/218_2004,Vancouver Coastal,N,,,Y,14,26,N,,,-123.1292174,49.2346299
Steeples Housing Society,The Steeples,Assisted Living,9910 Esplanade Street,Chemainus,V0R 1K1,(250) 246-1805,https://connect.health.gov.bc.ca/assisted-living,http://www.bclaws.ca/civix/document/id/complete/statreg/02075_01,http://www.bclaws.ca/civix/document/id/complete/statreg/217_2004 http://www.bclaws.ca/civix/document/id/complete/statreg/218_2004,Island Health,N,,,Y,16,0,N,,,-123.7166365,48.9270048
Thompson View Manor Society,Thompson View Lodge,Assisted Living,710 Elm Street,Ashcroft,V0K 1A0,(250) 453-0085,https://connect.health.gov.bc.ca/assisted-living,http://www.bclaws.ca/civix/document/id/complete/statreg/02075_01,http://www.bclaws.ca/civix/document/id/complete/statreg/217_2004 http://www.bclaws.ca/civix/document/id/complete/statreg/218_2004,Interior Health,N,,,Y,10,0,N,,,-121.2793767,50.7342929
Thornebridge Gardens Holdings Ltd.,Thornebridge Gardens,Assisted Living,649 8th Avenue,New Westminster,V3M 2R2,(604) 524-6100,https://connect.health.gov.bc.ca/assisted-living,http://www.bclaws.ca/civix/document/id/complete/statreg/02075_01,http://www.bclaws.ca/civix/document/id/complete/statreg/217_2004 http://www.bclaws.ca/civix/document/id/complete/statreg/218_2004,Fraser Health,N,,,Y,0,45,N,,,-122.9251906,49.2153674
Lakes District Senior Citizens Housing Association,Tweedsmuir House,Assisted Living,53 9th Avenue,Burns Lake,V0J 1E0,(250) 692-3781,https://connect.health.gov.bc.ca/assisted-living,http://www.bclaws.ca/civix/document/id/complete/statreg/02075_01,http://www.bclaws.ca/civix/document/id/complete/statreg/217_2004 http://www.bclaws.ca/civix/document/id/complete/statreg/218_2004,Northern Health,N,,,Y,17,0,N,,,-125.7640971,54.2354138
Yellowhead Pioneer Residence Society,Yellowhead Pioneer Residence,Assisted Living,4557 Barriere Town Road,Barriere,V0E 1E0,(250) 672-0019,https://connect.health.gov.bc.ca/assisted-living,http://www.bclaws.ca/civix/document/id/complete/statreg/02075_01,http://www.bclaws.ca/civix/document/id/complete/statreg/217_2004 http://www.bclaws.ca/civix/document/id/complete/statreg/218_2004,Interior Health,N,,,Y,10,0,N,,,-120.1250719,51.1812148
Halcyon Assisted Living Society,Halcyon House,Assisted Living,83 8th Avenue,Nakusp,V0G 1R0,(250) 265-3692,https://connect.health.gov.bc.ca/assisted-living,http://www.bclaws.ca/civix/document/id/complete/statreg/02075_01,http://www.bclaws.ca/civix/document/id/complete/statreg/217_2004 http://www.bclaws.ca/civix/document/id/complete/statreg/218_2004,Interior Health,N,,,Y,10,7,N,,,-117.8077844,50.2402094
Delta King Place Housing Society,Delta King Place,Assisted Living,701 Mountainview Square,Kitimat,V8C 2N1,(250) 632-6535,https://connect.health.gov.bc.ca/assisted-living,http://www.bclaws.ca/civix/document/id/complete/statreg/02075_01,http://www.bclaws.ca/civix/document/id/complete/statreg/217_2004 http://www.bclaws.ca/civix/document/id/complete/statreg/218_2004,Northern Health,N,,,Y,15,0,N,,,-128.6504321,54.0500231
S.U.C.C.E.S.S. Multi-Level Care Society,Austin Harris Residence,Assisted Living,5411 Moncton Street,Richmond,V7E 0A8,(604) 277-9819,https://connect.health.gov.bc.ca/assisted-living,http://www.bclaws.ca/civix/document/id/complete/statreg/02075_01,http://www.bclaws.ca/civix/document/id/complete/statreg/217_2004 http://www.bclaws.ca/civix/document/id/complete/statreg/218_2004,Vancouver Coastal,N,,,Y,50,0,N,,,-123.1642599,49.1257461
The Sto:lo Nation,Sto:lo Elders Lodge,Assisted Living,7519 Topaz Drive,Chilliwack,V2R 0E8,(604) 858-5591,https://connect.health.gov.bc.ca/assisted-living,http://www.bclaws.ca/civix/document/id/complete/statreg/02075_01,http://www.bclaws.ca/civix/document/id/complete/statreg/217_2004 http://www.bclaws.ca/civix/document/id/complete/statreg/218_2004,Fraser Health,N,,,Y,15,0,N,,,-121.9666998,49.1386487
North Shore Private Hospital (1985) Ltd.,Lynn Valley House,Assisted Living,1070 Lynn Valley Road,North Vancouver,V7J 1Z8,(604) 982-3725,https://connect.health.gov.bc.ca/assisted-living,http://www.bclaws.ca/civix/document/id/complete/statreg/02075_01,http://www.bclaws.ca/civix/document/id/complete/statreg/217_2004 http://www.bclaws.ca/civix/document/id/complete/statreg/218_2004,Vancouver Coastal,N,,,Y,0,4,N,,,-123.0446964,49.3340774
Northern Health Authority,Heritage Manor II,Assisted Living,9824  106th Avenue,Fort Saint John,V1J 2N9,(250) 787-2376,https://connect.health.gov.bc.ca/assisted-living,http://www.bclaws.ca/civix/document/id/complete/statreg/02075_01,http://www.bclaws.ca/civix/document/id/complete/statreg/217_2004 http://www.bclaws.ca/civix/document/id/complete/statreg/218_2004,Northern Health,N,,,Y,24,0,N,,,-120.8454429,56.2522386
0741858 B.C. Ltd,Nicola Valley Seniors Residence - The Florentine,Assisted Living,4100 Belshaw Street,Merritt,V1K 0A5,(250) 378-5300,https://connect.health.gov.bc.ca/assisted-living,http://www.bclaws.ca/civix/document/id/complete/statreg/02075_01,http://www.bclaws.ca/civix/document/id/complete/statreg/217_2004 http://www.bclaws.ca/civix/document/id/complete/statreg/218_2004,Interior Health,N,,,Y,0,51,N,,,-120.7634019,50.1246261
Smithers Community Services Association,The Meadows,Assisted Living,1180 Alberta Street,Smithers,V0J 2N0,(250) 847-8884,https://connect.health.gov.bc.ca/assisted-living,http://www.bclaws.ca/civix/document/id/complete/statreg/02075_01,http://www.bclaws.ca/civix/document/id/complete/statreg/217_2004 http://www.bclaws.ca/civix/document/id/complete/statreg/218_2004,Northern Health,N,,,Y,14,0,N,,,-127.1650266,54.7752656
Harrison Landing Inc.,Harrison Landing,Assisted Living,20899 Douglas Cresent,Langley,V3A 9L3,(604) 530-7075,https://connect.health.gov.bc.ca/assisted-living,http://www.bclaws.ca/civix/document/id/complete/statreg/02075_01,http://www.bclaws.ca/civix/document/id/complete/statreg/217_2004 http://www.bclaws.ca/civix/document/id/complete/statreg/218_2004,Fraser Health,N,,,Y,0,36,N,,,-122.6453631,49.1013665
Alberni Valley Assisted Living Society,Heritage Place (Alberni Valley),Assisted Living,4360 Heritage Lane,Port Alberni,V9Y 4C3,(250) 723-0480,https://connect.health.gov.bc.ca/assisted-living,http://www.bclaws.ca/civix/document/id/complete/statreg/02075_01,http://www.bclaws.ca/civix/document/id/complete/statreg/217_2004 http://www.bclaws.ca/civix/document/id/complete/statreg/218_2004,Island Health,N,,,Y,26,0,N,,,-124.7994974,49.2533611
The Royale West Coast LP  dba Mayfair Terrace Retirement Residence,Mayfair Terrace Retirement Residence,Assisted Living,2267 Kelly Avenue,Port Coquitlam,V3C 6N4,(604) 552-5552,https://connect.health.gov.bc.ca/assisted-living,http://www.bclaws.ca/civix/document/id/complete/statreg/02075_01,http://www.bclaws.ca/civix/document/id/complete/statreg/217_2004 http://www.bclaws.ca/civix/document/id/complete/statreg/218_2004,Fraser Health,N,,,Y,0,40,N,,,-122.7811519,49.259316
Amica Beechwood Village Inc.,Amica Beechwood Village,Assisted Living,2315 Mills Road,Sidney,V8L 5W6,(250) 655-0849,https://connect.health.gov.bc.ca/assisted-living,http://www.bclaws.ca/civix/document/id/complete/statreg/02075_01,http://www.bclaws.ca/civix/document/id/complete/statreg/217_2004 http://www.bclaws.ca/civix/document/id/complete/statreg/218_2004,Island Health,N,,,Y,0,50,N,,,-123.403863,48.6542837
Amica Mature Lifestyles Inc.,Amica Douglas House,Assisted Living,50 Douglas Street,Victoria,V8V 2N8,(250) 383-6258,https://connect.health.gov.bc.ca/assisted-living,http://www.bclaws.ca/civix/document/id/complete/statreg/02075_01,http://www.bclaws.ca/civix/document/id/complete/statreg/217_2004 http://www.bclaws.ca/civix/document/id/complete/statreg/218_2004,Island Health,N,,,Y,0,30,N,,,-123.369556,48.4106234
Good Samaritan Canada,Village By the Station,Assisted Living,270 Hastings Avenue,Penticton,V2A 2V6,(250) 490-4949,https://connect.health.gov.bc.ca/assisted-living,http://www.bclaws.ca/civix/document/id/complete/statreg/02075_01,http://www.bclaws.ca/civix/document/id/complete/statreg/217_2004 http://www.bclaws.ca/civix/document/id/complete/statreg/218_2004,Interior Health,N,,,Y,35,0,N,,,-119.5957868,49.4844104
West Shore Lodge Ltd.,West Shore Lodge,Assisted Living,1828 Island Highway,Colwood,V9B 1J2,(250) 478-7527,https://connect.health.gov.bc.ca/assisted-living,http://www.bclaws.ca/civix/document/id/complete/statreg/02075_01,http://www.bclaws.ca/civix/document/id/complete/statreg/217_2004 http://www.bclaws.ca/civix/document/id/complete/statreg/218_2004,Island Health,N,,,Y,6,0,N,,,-123.4691908,48.4444075
Rodica Senior Home Care House,Rodica Senior Home Care House,Assisted Living,2568 Victoria Street,Prince George,V2L 5G8,(250) 563-9566,https://connect.health.gov.bc.ca/assisted-living,http://www.bclaws.ca/civix/document/id/complete/statreg/02075_01,http://www.bclaws.ca/civix/document/id/complete/statreg/217_2004 http://www.bclaws.ca/civix/document/id/complete/statreg/218_2004,Northern Health,N,,,Y,0,12,N,,,-122.7548885,53.8980527
Golden Life Management Corp.,Rose Wood Village,Assisted Living,8125 Devito Drive,Trail,V1R 4X9,(250) 364-3150,https://connect.health.gov.bc.ca/assisted-living,http://www.bclaws.ca/civix/document/id/complete/statreg/02075_01,http://www.bclaws.ca/civix/document/id/complete/statreg/217_2004 http://www.bclaws.ca/civix/document/id/complete/statreg/218_2004,Interior Health,N,,,Y,26,9,N,,,-117.6366632,49.0929297
Action Line Housing Society,Seton Villa,Assisted Living,3755 McGill Street,Burnaby,V5C 1M2,(604) 291-0607,https://connect.health.gov.bc.ca/assisted-living,http://www.bclaws.ca/civix/document/id/complete/statreg/02075_01,http://www.bclaws.ca/civix/document/id/complete/statreg/217_2004 http://www.bclaws.ca/civix/document/id/complete/statreg/218_2004,Fraser Health,N,,,Y,28,0,N,,,-123.0216295,49.2888133
Beacon Community Association,Shoal Centre Assisted Living,Assisted Living,10030 Resthaven Drive,Sidney,V8L 3G4,(778) 351-0896,https://connect.health.gov.bc.ca/assisted-living,http://www.bclaws.ca/civix/document/id/complete/statreg/02075_01,http://www.bclaws.ca/civix/document/id/complete/statreg/217_2004 http://www.bclaws.ca/civix/document/id/complete/statreg/218_2004,Island Health,N,,,Y,25,0,N,,,-123.4028861,48.6540525
Wrinch Memorial Foundation,Skeena Place,Assisted Living,4780 Janze Way,Hazelton,V0J 1Y1,(250) 842-5217,https://connect.health.gov.bc.ca/assisted-living,http://www.bclaws.ca/civix/document/id/complete/statreg/02075_01,http://www.bclaws.ca/civix/document/id/complete/statreg/217_2004 http://www.bclaws.ca/civix/document/id/complete/statreg/218_2004,Northern Health,N,,,Y,6,0,N,,,-127.6495885,55.2600649
Lower Similkameen Community Services Society,Kyalami Place,Assisted Living,720 3rd Street,Keremeos,V0X 1N3,(250) 499-2366,https://connect.health.gov.bc.ca/assisted-living,http://www.bclaws.ca/civix/document/id/complete/statreg/02075_01,http://www.bclaws.ca/civix/document/id/complete/statreg/217_2004 http://www.bclaws.ca/civix/document/id/complete/statreg/218_2004,Interior Health,N,,,Y,13,1,N,,,-119.8332064,49.2049938
The Governing Council of The Salvation Army,Southview Heights,Assisted Living,7252 Kerr Street,Vancouver,V5S 3V2,(604) 438-3367,https://connect.health.gov.bc.ca/assisted-living,http://www.bclaws.ca/civix/document/id/complete/statreg/02075_01,http://www.bclaws.ca/civix/document/id/complete/statreg/217_2004 http://www.bclaws.ca/civix/document/id/complete/statreg/218_2004,Vancouver Coastal,N,,,Y,53,0,N,,,-123.0405446,49.2177384
Tabor Home Society,Tabor Court,Assisted Living,31954 Sunrise Crescent,Abbotsford,V2T 1N6,(604) 859-8718,https://connect.health.gov.bc.ca/assisted-living,http://www.bclaws.ca/civix/document/id/complete/statreg/02075_01,http://www.bclaws.ca/civix/document/id/complete/statreg/217_2004 http://www.bclaws.ca/civix/document/id/complete/statreg/218_2004,Fraser Health,N,,,Y,88,16,N,,,-122.3384901,49.0465321
PR Seniors Housing Management 3 Ltd.,Terraces on 7th,Assisted Living,1570 West 7th Avenue,Vancouver,V6J 5M1,(604) 738-8380,https://connect.health.gov.bc.ca/assisted-living,http://www.bclaws.ca/civix/document/id/complete/statreg/02075_01,http://www.bclaws.ca/civix/document/id/complete/statreg/217_2004 http://www.bclaws.ca/civix/document/id/complete/statreg/218_2004,Vancouver Coastal,N,,,Y,3,22,N,,,-123.1399961,49.2651363
Eagle Valley Senior Citizen Housing Society,Eagle Valley Manor,Assisted Living,319 Gordon Mackie Lane,Sicamous,V0E 2V1,(250) 836-2314,https://connect.health.gov.bc.ca/assisted-living,http://www.bclaws.ca/civix/document/id/complete/statreg/02075_01,http://www.bclaws.ca/civix/document/id/complete/statreg/217_2004 http://www.bclaws.ca/civix/document/id/complete/statreg/218_2004,Interior Health,N,,,Y,12,0,N,,,-118.9823727,50.8339774
Morgan Heights Care Ltd.,The Residence at Morgan Heights,Assisted Living,15955 - 27th Avenue,Surrey,V3Z 3W3,(604) 535-1118,https://connect.health.gov.bc.ca/assisted-living,http://www.bclaws.ca/civix/document/id/complete/statreg/02075_01,http://www.bclaws.ca/civix/document/id/complete/statreg/217_2004 http://www.bclaws.ca/civix/document/id/complete/statreg/218_2004,Fraser Health,N,,,Y,36,4,N,,,-122.7798803,49.0511752
Optima Retirement Services Ltd.,Royal Crescent Gardens,Assisted Living,11698 - 226th Street,Maple Ridge,V2X 6H1,(604) 463-6077,https://connect.health.gov.bc.ca/assisted-living,http://www.bclaws.ca/civix/document/id/complete/statreg/02075_01,http://www.bclaws.ca/civix/document/id/complete/statreg/217_2004 http://www.bclaws.ca/civix/document/id/complete/statreg/218_2004,Fraser Health,N,,,Y,51,0,N,,,-122.5958527,49.2158637
The Royale LP,Pacifica Retirement Residence,Assisted Living,2525 King George Blvd.,Surrey,V4P 0C8,(604) 535-9194,https://connect.health.gov.bc.ca/assisted-living,http://www.bclaws.ca/civix/document/id/complete/statreg/02075_01,http://www.bclaws.ca/civix/document/id/complete/statreg/217_2004 http://www.bclaws.ca/civix/document/id/complete/statreg/218_2004,Fraser Health,N,,,Y,0,50,N,,,-122.7976625,49.0477777
The Hamlets at Penticton Residence Inc.,The Hamlets at Penticton,Assisted Living,103 Duncan Avenue West,Penticton,V2A 2Y3,(250) 490-8503,https://connect.health.gov.bc.ca/assisted-living,http://www.bclaws.ca/civix/document/id/complete/statreg/02075_01,http://www.bclaws.ca/civix/document/id/complete/statreg/217_2004 http://www.bclaws.ca/civix/document/id/complete/statreg/218_2004,Interior Health,N,,,Y,0,20,N,,,-119.5897419,49.4840615
Northern Health Authority,Summit Residence,Assisted Living,1335 Summit Avenue,Prince Rupert,V8J 4L2,(250) 622-6451,https://connect.health.gov.bc.ca/assisted-living,http://www.bclaws.ca/civix/document/id/complete/statreg/02075_01,http://www.bclaws.ca/civix/document/id/complete/statreg/217_2004 http://www.bclaws.ca/civix/document/id/complete/statreg/218_2004,Northern Health,N,,,Y,15,0,N,,,-130.3292831,54.3042162
Shannon Falls Retirement Residence Partnership,Shannon Falls Retirement Residence,Assisted Living,114-38225 Third Avenue,Squamish,V8B 0S2,(604) 848-2000,https://connect.health.gov.bc.ca/assisted-living,http://www.bclaws.ca/civix/document/id/complete/statreg/02075_01,http://www.bclaws.ca/civix/document/id/complete/statreg/217_2004 http://www.bclaws.ca/civix/document/id/complete/statreg/218_2004,Vancouver Coastal,N,,,Y,20,10,N,,,-123.1539384,49.702788
The Royale West Coast LP,Peninsula Retirement Residence,Assisted Living,2088 - 152 Street,Surrey,V4A 9Z4,(604) 538-2033,https://connect.health.gov.bc.ca/assisted-living,http://www.bclaws.ca/civix/document/id/complete/statreg/02075_01,http://www.bclaws.ca/civix/document/id/complete/statreg/217_2004 http://www.bclaws.ca/civix/document/id/complete/statreg/218_2004,Fraser Health,N,,,Y,0,45,N,,,-122.8008907,49.0396008
HCN - Revera Lessee (Whitecliff) LP,Whitecliff Retirement Residence,Assisted Living,15501 - 16th Avenue,Surrey,V4A 9M5,(604) 538-7227,https://connect.health.gov.bc.ca/assisted-living,http://www.bclaws.ca/civix/document/id/complete/statreg/02075_01,http://www.bclaws.ca/civix/document/id/complete/statreg/217_2004 http://www.bclaws.ca/civix/document/id/complete/statreg/218_2004,Fraser Health,N,,,Y,0,40,N,,,-122.7930809,49.0312747
Resurrection Recovery Resources Society,Freedom's Door,Assisted Living,1279 Centennial Crescent,Kelowna,V1Y 6K3,(250) 717-0472,https://connect.health.gov.bc.ca/assisted-living,http://www.bclaws.ca/civix/document/id/complete/statreg/02075_01,http://www.bclaws.ca/civix/document/id/complete/statreg/217_2004 http://www.bclaws.ca/civix/document/id/complete/statreg/218_2004,Interior Health,N,,,N,,,Y,20,20,-119.471561,49.8832475
John Howard Society of Okanagan & Kootenay,1043 Harvey House,Assisted Living,1043 Harvey Ave,Kelowna,V1Y6E4,(250) 717-0702,https://connect.health.gov.bc.ca/assisted-living,http://www.bclaws.ca/civix/document/id/complete/statreg/02075_01,http://www.bclaws.ca/civix/document/id/complete/statreg/217_2004 http://www.bclaws.ca/civix/document/id/complete/statreg/218_2004,Island Health,Y,9,0,N,,,N,,,-119.4784911,49.8832462
Lookout Housing and Health Society,Lookout Dovercourt,Assisted Living,1606 Lynn Valley Road,North Vancouver,V7J 2B4,(604) 982-9126,https://connect.health.gov.bc.ca/assisted-living,http://www.bclaws.ca/civix/document/id/complete/statreg/02075_01,http://www.bclaws.ca/civix/document/id/complete/statreg/217_2004 http://www.bclaws.ca/civix/document/id/complete/statreg/218_2004,Vancouver Coastal,N,,,N,,,Y,0,19,-123.0283132,49.34259
The Royale West Coast GP Corporation as gp of The Royale West Coast LP,Rideau Retirement Residence,Assisted Living,1850 Rosser Avenue,Burnaby,V5C 5E1,(604) 291-1792,https://connect.health.gov.bc.ca/assisted-living,http://www.bclaws.ca/civix/document/id/complete/statreg/02075_01,http://www.bclaws.ca/civix/document/id/complete/statreg/217_2004 http://www.bclaws.ca/civix/document/id/complete/statreg/218_2004,Fraser Health,N,,,Y,0,40,N,,,-123.0055473,49.2677316
Quesnel Seniors Housing,Maeford Place Assisted Living Centre,Assisted Living,574 Kinchant Street,Quesnel,V2J 2R8,(250) 992-8342,https://connect.health.gov.bc.ca/assisted-living,http://www.bclaws.ca/civix/document/id/complete/statreg/02075_01,http://www.bclaws.ca/civix/document/id/complete/statreg/217_2004 http://www.bclaws.ca/civix/document/id/complete/statreg/218_2004,Northern Health,N,,,Y,35,1,N,,,-122.4938872,52.9819649
Connexus Community Resources Society,Riverside Place,Assisted Living,242 Louvain Street,Vanderhoof,V0J 3A0,(250) 567-9205,https://connect.health.gov.bc.ca/assisted-living,http://www.bclaws.ca/civix/document/id/complete/statreg/02075_01,http://www.bclaws.ca/civix/document/id/complete/statreg/217_2004 http://www.bclaws.ca/civix/document/id/complete/statreg/218_2004,Northern Health,N,,,Y,14,0,N,,,-124.0131889,54.0215498
The Hamlets at Westsyde Residence Inc.,The Hamlets at Westsyde,Assisted Living,3255 Overlander Drive,Kamloops,V2B 0A5,(250) 579-9061,https://connect.health.gov.bc.ca/assisted-living,http://www.bclaws.ca/civix/document/id/complete/statreg/02075_01,http://www.bclaws.ca/civix/document/id/complete/statreg/217_2004 http://www.bclaws.ca/civix/document/id/complete/statreg/218_2004,Interior Health,N,,,Y,10,25,N,,,-120.3413596,50.7709541
Good Samaritan Canada,Good Samaritan Canada Victoria Heights,Assisted Living,230 Ross Drive,New Westminster,V3L 0B1,(604) 523-9227,https://connect.health.gov.bc.ca/assisted-living,http://www.bclaws.ca/civix/document/id/complete/statreg/02075_01,http://www.bclaws.ca/civix/document/id/complete/statreg/217_2004 http://www.bclaws.ca/civix/document/id/complete/statreg/218_2004,Fraser Health,N,,,Y,57,2,N,,,-122.8997466,49.2134562
Origin at Longwood,Origin at Longwood,Assisted Living,6205 Oliver Road,Nanaimo,V9T 6T1,(250) 751-7755,https://connect.health.gov.bc.ca/assisted-living,http://www.bclaws.ca/civix/document/id/complete/statreg/02075_01,http://www.bclaws.ca/civix/document/id/complete/statreg/217_2004 http://www.bclaws.ca/civix/document/id/complete/statreg/218_2004,Island Health,N,,,Y,0,40,N,,,-124.0321766,49.2207915
Golden Life Management Corp.,Garden View Village,Assisted Living,280 4th Avenue,Kimberley,V1A 2R6,(250) 427-4014,https://connect.health.gov.bc.ca/assisted-living,http://www.bclaws.ca/civix/document/id/complete/statreg/02075_01,http://www.bclaws.ca/civix/document/id/complete/statreg/217_2004 http://www.bclaws.ca/civix/document/id/complete/statreg/218_2004,Interior Health,N,,,Y,13,28,N,,,-115.9872666,49.6907045
BG Cedars Society,The Cedars at Beulah Gardens,Assisted Living,3355 East 5th Avenue,Vancouver,V5M 0A1,(604) 251-4114,https://connect.health.gov.bc.ca/assisted-living,http://www.bclaws.ca/civix/document/id/complete/statreg/02075_01,http://www.bclaws.ca/civix/document/id/complete/statreg/217_2004 http://www.bclaws.ca/civix/document/id/complete/statreg/218_2004,Vancouver Coastal,N,,,Y,89,0,N,,,-123.0322605,49.2661816
Strive Living Society,Liberty Place,Assisted Living,7899 17th Avenue,Burnaby,V3N 1M1,(604) 526-9933,https://connect.health.gov.bc.ca/assisted-living,http://www.bclaws.ca/civix/document/id/complete/statreg/02075_01,http://www.bclaws.ca/civix/document/id/complete/statreg/217_2004 http://www.bclaws.ca/civix/document/id/complete/statreg/218_2004,Fraser Health,N,,,Y,20,0,N,,,-122.9352675,49.224454
Queen Charlotte Housing Development Society,Martin Manor,Assisted Living,306 - 2nd Avenue,Queen Charlotte,V0T 1S0,(250) 559-8800,https://connect.health.gov.bc.ca/assisted-living,http://www.bclaws.ca/civix/document/id/complete/statreg/02075_01,http://www.bclaws.ca/civix/document/id/complete/statreg/217_2004 http://www.bclaws.ca/civix/document/id/complete/statreg/218_2004,Northern Health,N,,,Y,0,4,N,,,-132.0842161,53.2553621
Sunridge Seniors Community Partnership,The Meadows at Sunridge Place,Assisted Living,361 Bundock Avenue,Duncan,V9L 3P1,(250) 748-8048,https://connect.health.gov.bc.ca/assisted-living,http://www.bclaws.ca/civix/document/id/complete/statreg/02075_01,http://www.bclaws.ca/civix/document/id/complete/statreg/217_2004 http://www.bclaws.ca/civix/document/id/complete/statreg/218_2004,Island Health,N,,,Y,50,0,N,,,-123.6975203,48.7777428
Langley Lions Housing Society,Evergreen Timbers,Assisted Living,5464 - 203rd Street,Langley,V3A 0A4,(604) 530-7171,https://connect.health.gov.bc.ca/assisted-living,http://www.bclaws.ca/civix/document/id/complete/statreg/02075_01,http://www.bclaws.ca/civix/document/id/complete/statreg/217_2004 http://www.bclaws.ca/civix/document/id/complete/statreg/218_2004,Fraser Health,N,,,Y,58,0,N,,,-122.659687,49.1014015
Capital Region Housing Corporation,Parry Place,Assisted Living,408 Parry Street,Victoria,V8V 2H7,(250) 382-4443,https://connect.health.gov.bc.ca/assisted-living,http://www.bclaws.ca/civix/document/id/complete/statreg/02075_01,http://www.bclaws.ca/civix/document/id/complete/statreg/217_2004 http://www.bclaws.ca/civix/document/id/complete/statreg/218_2004,Island Health,N,,,Y,21,0,N,,,-123.3725864,48.4158031
Providence Health Care Society,Honoria Conway at St. Vincent's Heather,Assisted Living,4875 Heather Street,Vancouver,V5Z 0A7,(604) 876-7191,https://connect.health.gov.bc.ca/assisted-living,http://www.bclaws.ca/civix/document/id/complete/statreg/02075_01,http://www.bclaws.ca/civix/document/id/complete/statreg/217_2004 http://www.bclaws.ca/civix/document/id/complete/statreg/218_2004,Vancouver Coastal,N,,,Y,60,0,N,,,-123.1220866,49.2420243
Baptist Housing Enhanced Living Communities,The Village at Smith Creek,Assisted Living,2425 Orlin Road,West Kelowna,V4T 1N3,(250) 768-0488,https://connect.health.gov.bc.ca/assisted-living,http://www.bclaws.ca/civix/document/id/complete/statreg/02075_01,http://www.bclaws.ca/civix/document/id/complete/statreg/217_2004 http://www.bclaws.ca/civix/document/id/complete/statreg/218_2004,Interior Health,N,,,Y,62,11,N,,,-119.6267443,49.8431243
Baptist Housing Enhanced Living Communities,Sun Pointe Village,Assisted Living,700 Rutland Road North,Kelowna,V1X 7W8,(250) 491-1400,https://connect.health.gov.bc.ca/assisted-living,http://www.bclaws.ca/civix/document/id/complete/statreg/02075_01,http://www.bclaws.ca/civix/document/id/complete/statreg/217_2004 http://www.bclaws.ca/civix/document/id/complete/statreg/218_2004,Interior Health,N,,,Y,20,40,N,,,-119.3878245,49.896263
The Baptist Housing Society,The Village at Mill Creek,Assisted Living,1450 Sutherland Avenue,Kelowna,V1Y 5Y5,(250) 860-2216,https://connect.health.gov.bc.ca/assisted-living,http://www.bclaws.ca/civix/document/id/complete/statreg/02075_01,http://www.bclaws.ca/civix/document/id/complete/statreg/217_2004 http://www.bclaws.ca/civix/document/id/complete/statreg/218_2004,Interior Health,N,,,Y,38,58,N,,,-119.4678022,49.8808104
Sooke Elderly Citizens Housing Society,Ayre Manor,Assisted Living,6754 Ayre Road,Sooke,V9Z 1K1,(250) 642-1750,https://connect.health.gov.bc.ca/assisted-living,http://www.bclaws.ca/civix/document/id/complete/statreg/02075_01,http://www.bclaws.ca/civix/document/id/complete/statreg/217_2004 http://www.bclaws.ca/civix/document/id/complete/statreg/218_2004,Island Health,N,,,Y,20,5,N,,,-123.7269856,48.3775504
Creekside Landing Ltd.,Creekside Landing,Assisted Living,6190 Okanagan Landing Road,Vernon,V1H 1M3,(250) 549-9550,https://connect.health.gov.bc.ca/assisted-living,http://www.bclaws.ca/civix/document/id/complete/statreg/02075_01,http://www.bclaws.ca/civix/document/id/complete/statreg/217_2004 http://www.bclaws.ca/civix/document/id/complete/statreg/218_2004,Interior Health,N,,,Y,24,14,N,,,-119.3223493,50.2465633
Strive Living Society,Freedom Place,Assisted Living,10342  148th Street,Surrey,V3R 3X3,(604) 634-3300,https://connect.health.gov.bc.ca/assisted-living,http://www.bclaws.ca/civix/document/id/complete/statreg/02075_01,http://www.bclaws.ca/civix/document/id/complete/statreg/217_2004 http://www.bclaws.ca/civix/document/id/complete/statreg/218_2004,Fraser Health,N,,,Y,20,0,N,,,-122.8116906,49.1902003
Wagner Hills Farm Society,Wagner Hills Farm,Assisted Living,8061  264th Street,Langley,V1M 3M3,(604) 856-9432,https://connect.health.gov.bc.ca/assisted-living,http://www.bclaws.ca/civix/document/id/complete/statreg/02075_01,http://www.bclaws.ca/civix/document/id/complete/statreg/217_2004 http://www.bclaws.ca/civix/document/id/complete/statreg/218_2004,Fraser Health,N,,,N,,,Y,28,28,-122.4959869,49.1493257
Golden Community Resources Society,Mountain View Assisted Living,Assisted Living,750 - 8th Avenue South,Golden,V0A 1H0,(250) 344-7924,https://connect.health.gov.bc.ca/assisted-living,http://www.bclaws.ca/civix/document/id/complete/statreg/02075_01,http://www.bclaws.ca/civix/document/id/complete/statreg/217_2004 http://www.bclaws.ca/civix/document/id/complete/statreg/218_2004,Interior Health,N,,,Y,8,0,N,,,-116.9674653,51.2978943
Northern Health Authority,Nick Grosse Assisted Living Residence,Assisted Living,2524 Harrison Road,Masset,V0T 1M0,(250) 626-4735,https://connect.health.gov.bc.ca/assisted-living,http://www.bclaws.ca/civix/document/id/complete/statreg/02075_01,http://www.bclaws.ca/civix/document/id/complete/statreg/217_2004 http://www.bclaws.ca/civix/document/id/complete/statreg/218_2004,Northern Health,N,,,Y,4,0,N,,,-132.1582983,54.0203264
Dawson Creek Society for Community Living,Northview,Assisted Living,1125 -  90th Avenue,Dawson Creek,V1G 5A3,(250) 719-0072,https://connect.health.gov.bc.ca/assisted-living,http://www.bclaws.ca/civix/document/id/complete/statreg/02075_01,http://www.bclaws.ca/civix/document/id/complete/statreg/217_2004 http://www.bclaws.ca/civix/document/id/complete/statreg/218_2004,Northern Health,N,,,Y,26,0,N,,,-120.2357658,55.7733071
Westcoast Native Health Care Society,Tsawaayuus (Rainbow Gardens),Assisted Living,6222 Compton Rd,Port Alberni,V9Y 7B8,(250) 724-5655,https://connect.health.gov.bc.ca/assisted-living,http://www.bclaws.ca/civix/document/id/complete/statreg/02075_01,http://www.bclaws.ca/civix/document/id/complete/statreg/217_2004 http://www.bclaws.ca/civix/document/id/complete/statreg/218_2004,Island Health,N,,,Y,10,0,N,,,-124.8485097,49.2700639
Sienna-Baltic (Mariposa) Inc.,Mariposa Gardens,Assisted Living,8816 97th Street,Osoyoos,V0H 1V5,(250) 495-8124,https://connect.health.gov.bc.ca/assisted-living,http://www.bclaws.ca/civix/document/id/complete/statreg/02075_01,http://www.bclaws.ca/civix/document/id/complete/statreg/217_2004 http://www.bclaws.ca/civix/document/id/complete/statreg/218_2004,Interior Health,N,,,Y,10,16,N,,,-119.4770583,49.034727
The Royale LP,Astoria Retirement Residence,Assisted Living,2245 Kelly Avenue,Port Coquitlam,V3C 0B1,(604) 944-2341,https://connect.health.gov.bc.ca/assisted-living,http://www.bclaws.ca/civix/document/id/complete/statreg/02075_01,http://www.bclaws.ca/civix/document/id/complete/statreg/217_2004 http://www.bclaws.ca/civix/document/id/complete/statreg/218_2004,Fraser Health,N,,,Y,0,52,N,,,-122.780012,49.259309
Northern Health Authority,Gateway Lodge - Northern Health Authority,Assisted Living,1462 - 20th Avenue,Prince George,V2L 0B3,(250) 645-6100,https://connect.health.gov.bc.ca/assisted-living,http://www.bclaws.ca/civix/document/id/complete/statreg/02075_01,http://www.bclaws.ca/civix/document/id/complete/statreg/217_2004 http://www.bclaws.ca/civix/document/id/complete/statreg/218_2004,Northern Health,N,,,Y,53,0,N,,,-122.7528145,53.9056389
Berwick Investments Ltd.,Berwick on the Lake,Assisted Living,3201 Ross Road,Nanaimo,V9T 6L9,(250) 729-7995,https://connect.health.gov.bc.ca/assisted-living,http://www.bclaws.ca/civix/document/id/complete/statreg/02075_01,http://www.bclaws.ca/civix/document/id/complete/statreg/217_2004 http://www.bclaws.ca/civix/document/id/complete/statreg/218_2004,Island Health,N,,,Y,0,36,N,,,-124.0036075,49.2100736
Berwick Retirement Royal Oak,Berwick Royal Oak,Assisted Living,4680 Elk Lake Drive,Victoria,V8Z 0B4,(250) 386-4680,https://connect.health.gov.bc.ca/assisted-living,http://www.bclaws.ca/civix/document/id/complete/statreg/02075_01,http://www.bclaws.ca/civix/document/id/complete/statreg/217_2004 http://www.bclaws.ca/civix/document/id/complete/statreg/218_2004,Island Health,N,,,Y,0,40,N,,,-123.3874866,48.5031019
Harrison Pointe Inc.,Harrison Pointe,Assisted Living,21616  52nd Avenue,Langley,V2Y 1L7,(604) 530-1101,https://connect.health.gov.bc.ca/assisted-living,http://www.bclaws.ca/civix/document/id/complete/statreg/02075_01,http://www.bclaws.ca/civix/document/id/complete/statreg/217_2004 http://www.bclaws.ca/civix/document/id/complete/statreg/218_2004,Fraser Health,N,,,Y,0,50,N,,,-122.6237865,49.09714
Berwick Investments Ltd.,Berwick on the Park,Assisted Living,60 Whiteshield Crescent South,Kamloops,V2E 2S9,(250) 377-7275,https://connect.health.gov.bc.ca/assisted-living,http://www.bclaws.ca/civix/document/id/complete/statreg/02075_01,http://www.bclaws.ca/civix/document/id/complete/statreg/217_2004 http://www.bclaws.ca/civix/document/id/complete/statreg/218_2004,Interior Health,N,,,Y,0,25,N,,,-120.3371268,50.6578025
Chetwynd Senior Citizens Housing,Surerus Place,Assisted Living,5353 - 47th Avenue,Chetwynd,V0C 1J0,(250) 788-3736,https://connect.health.gov.bc.ca/assisted-living,http://www.bclaws.ca/civix/document/id/complete/statreg/02075_01,http://www.bclaws.ca/civix/document/id/complete/statreg/217_2004 http://www.bclaws.ca/civix/document/id/complete/statreg/218_2004,Northern Health,N,,,Y,5,0,N,,,-121.6403206,55.6980704
Golden Life Management Corp.,Lake View Village,Assisted Living,1020 - 7th Street,Nelson,V1L 0A2,(250) 352-0051,https://connect.health.gov.bc.ca/assisted-living,http://www.bclaws.ca/civix/document/id/complete/statreg/02075_01,http://www.bclaws.ca/civix/document/id/complete/statreg/217_2004 http://www.bclaws.ca/civix/document/id/complete/statreg/218_2004,Interior Health,N,,,Y,0,25,N,,,-117.2714026,49.5095412
HCN Revera Lessee (Hollyburn House) GP Inc,Hollyburn House,Assisted Living,2095 Marine Drive,West Vancouver,V7V 4V5,(604) 922-7616,https://connect.health.gov.bc.ca/assisted-living,http://www.bclaws.ca/civix/document/id/complete/statreg/02075_01,http://www.bclaws.ca/civix/document/id/complete/statreg/217_2004 http://www.bclaws.ca/civix/document/id/complete/statreg/218_2004,Vancouver Coastal,N,,,Y,0,30,N,,,-123.167157,49.3299082
Scottsdale House Ltd,Scottsdale House,Assisted Living,11779 72nd Ave,Delta,V4E 3B9,(604) 572-9550,https://connect.health.gov.bc.ca/assisted-living,http://www.bclaws.ca/civix/document/id/complete/statreg/02075_01,http://www.bclaws.ca/civix/document/id/complete/statreg/217_2004 http://www.bclaws.ca/civix/document/id/complete/statreg/218_2004,Fraser Health,Y,0,7,N,,,N,,,-122.8966099,49.1342868
Casa Living Inc.,The Wesbrooke,Assisted Living,12000 190A Street,Pitt Meadows,V3Y 0E4,(604) 460-7006,https://connect.health.gov.bc.ca/assisted-living,http://www.bclaws.ca/civix/document/id/complete/statreg/02075_01,http://www.bclaws.ca/civix/document/id/complete/statreg/217_2004 http://www.bclaws.ca/civix/document/id/complete/statreg/218_2004,Fraser Health,N,,,Y,0,30,N,,,-122.6932986,49.2205915
M'akola Housing Society,Ts'i'ts'uwatul' Lelum,Assisted Living,5755 Allenby Road,Duncan,V9L 0E6,(250) 597-2252,https://connect.health.gov.bc.ca/assisted-living,http://www.bclaws.ca/civix/document/id/complete/statreg/02075_01,http://www.bclaws.ca/civix/document/id/complete/statreg/217_2004 http://www.bclaws.ca/civix/document/id/complete/statreg/218_2004,Island Health,N,,,Y,50,0,N,,,-123.7081958,48.775945
Swedish Canadian Rest Home Association,Swedish Assisted Living Residence,Assisted Living,7230 Halifax Street,Burnaby,V5A 0B2,(604) 420-1124,https://connect.health.gov.bc.ca/assisted-living,http://www.bclaws.ca/civix/document/id/complete/statreg/02075_01,http://www.bclaws.ca/civix/document/id/complete/statreg/217_2004 http://www.bclaws.ca/civix/document/id/complete/statreg/218_2004,Fraser Health,N,,,Y,46,10,N,,,-122.9518022,49.267425
Chartwell Retirement Residences,Carrington House,Assisted Living,32679 6th Ave,Mission,V2V 1Y8,(604) 826-4747,https://connect.health.gov.bc.ca/assisted-living,http://www.bclaws.ca/civix/document/id/complete/statreg/02075_01,http://www.bclaws.ca/civix/document/id/complete/statreg/217_2004 http://www.bclaws.ca/civix/document/id/complete/statreg/218_2004,Fraser Health,N,,,Y,0,40,N,,,-122.3198366,49.1390997
Heshun Rosewood Senior Centre Inc.,Heshun Rosewood Senior Centre,Assisted Living,11742 225 Street,Maple Ridge,V2X 6E4,(604) 463-1078,https://connect.health.gov.bc.ca/assisted-living,http://www.bclaws.ca/civix/document/id/complete/statreg/02075_01,http://www.bclaws.ca/civix/document/id/complete/statreg/217_2004 http://www.bclaws.ca/civix/document/id/complete/statreg/218_2004,Fraser Health,N,,,Y,0,20,N,,,-122.5984433,49.2159184
Berwick Retirement Comox Ltd.,Berwick Comox Valley,Assisted Living,1700 Comox Avenue,Comox,V9M 4H4,(250) 339-1690,https://connect.health.gov.bc.ca/assisted-living,http://www.bclaws.ca/civix/document/id/complete/statreg/02075_01,http://www.bclaws.ca/civix/document/id/complete/statreg/217_2004 http://www.bclaws.ca/civix/document/id/complete/statreg/218_2004,Island Health,N,,,Y,0,35,N,,,-124.9221833,49.6727148
Pathway to Freedom Recovery Society,Pathway to Freedom - 9034 Prince Charles,Assisted Living,9034 Prince Charles Blvd,Surrey,V3V1R5,(604) 496-0772,https://connect.health.gov.bc.ca/assisted-living,http://www.bclaws.ca/civix/document/id/complete/statreg/02075_01,http://www.bclaws.ca/civix/document/id/complete/statreg/217_2004 http://www.bclaws.ca/civix/document/id/complete/statreg/218_2004,Fraser Health,N,,,N,,,Y,5,0,-122.8652873,49.166834
Maria Rosario de Vera Martinez  (Rose),Clover Heights Retirement Home,Assisted Living,6209 - 184th Street,Surrey,V3S 8B1,(604) 372-1131,https://connect.health.gov.bc.ca/assisted-living,http://www.bclaws.ca/civix/document/id/complete/statreg/02075_01,http://www.bclaws.ca/civix/document/id/complete/statreg/217_2004 http://www.bclaws.ca/civix/document/id/complete/statreg/218_2004,Fraser Health,N,,,Y,0,11,N,,,-122.7128453,49.1151396
The Realistic Success Recovery Society,Realistic Success - Trilogy House One,Assisted Living,13516 80th Ave,Surrey,V8W 3C1,(778) 885-4369,https://connect.health.gov.bc.ca/assisted-living,http://www.bclaws.ca/civix/document/id/complete/statreg/02075_01,http://www.bclaws.ca/civix/document/id/complete/statreg/217_2004 http://www.bclaws.ca/civix/document/id/complete/statreg/218_2004,Fraser Health,N,,,N,,,Y,6,0,-122.8482177,49.1480086
The Realistic Success Recovery Society,Realistic Success - Trilogy House Four,Assisted Living,13358 78A Ave,Surrey,V8W 7B7,(778) 885-4369,https://connect.health.gov.bc.ca/assisted-living,http://www.bclaws.ca/civix/document/id/complete/statreg/02075_01,http://www.bclaws.ca/civix/document/id/complete/statreg/217_2004 http://www.bclaws.ca/civix/document/id/complete/statreg/218_2004,Fraser Health,N,,,N,,,Y,6,0,-122.852393,49.1452475
The Realistic Success Recovery Society,Realistic Success - Trilogy House Two,Assisted Living,13519 80th Ave,Surrey,V3W 3C2,(778) 885-4369,https://connect.health.gov.bc.ca/assisted-living,http://www.bclaws.ca/civix/document/id/complete/statreg/02075_01,http://www.bclaws.ca/civix/document/id/complete/statreg/217_2004 http://www.bclaws.ca/civix/document/id/complete/statreg/218_2004,Fraser Health,N,,,N,,,Y,6,0,-122.8480055,49.1483087
CSH-HCN LESSEE (IMPERIAL) LP,Imperial Place Retirement Residence,Assisted Living,13853 102nd Ave,Surrey,V3T5P6,(604) 581-1555,https://connect.health.gov.bc.ca/assisted-living,http://www.bclaws.ca/civix/document/id/complete/statreg/02075_01,http://www.bclaws.ca/civix/document/id/complete/statreg/217_2004 http://www.bclaws.ca/civix/document/id/complete/statreg/218_2004,Fraser Health,N,,,Y,0,30,N,,,-122.8383224,49.1879219
BC New Hope Recovery Society,Baldy Hughes Therapeutic Community,Assisted Living,34000 Blackwater Rd,Prince George,V2N 6H1,(250) 964-3136,https://connect.health.gov.bc.ca/assisted-living,http://www.bclaws.ca/civix/document/id/complete/statreg/02075_01,http://www.bclaws.ca/civix/document/id/complete/statreg/217_2004 http://www.bclaws.ca/civix/document/id/complete/statreg/218_2004,Northern Health,N,,,N,,,Y,6,31,-122.9342,53.6172363
Chartwell Retirement Residences,Crescent Gardens,Assisted Living,1222 King George Highway,Surrey,V4A 9W6,(604) 541-8861,https://connect.health.gov.bc.ca/assisted-living,http://www.bclaws.ca/civix/document/id/complete/statreg/02075_01,http://www.bclaws.ca/civix/document/id/complete/statreg/217_2004 http://www.bclaws.ca/civix/document/id/complete/statreg/218_2004,Fraser Health,N,,,Y,0,40,N,,,-122.7667834,49.0244562
City Centre Care Society,Cooper Place,Assisted Living,306 East Cordova Street,Vancouver,V6A 1L5,(604) 684-2545,https://connect.health.gov.bc.ca/assisted-living,http://www.bclaws.ca/civix/document/id/complete/statreg/02075_01,http://www.bclaws.ca/civix/document/id/complete/statreg/217_2004 http://www.bclaws.ca/civix/document/id/complete/statreg/218_2004,Vancouver Coastal,N,,,Y,69,0,N,,,-123.0970954,49.2819785
Chartwell Master Care LP,Chartwell Birchwood,Assisted Living,45650 Patten Avenue,Chilliwack,V2P 1S4,(604) 792-8793,https://connect.health.gov.bc.ca/assisted-living,http://www.bclaws.ca/civix/document/id/complete/statreg/02075_01,http://www.bclaws.ca/civix/document/id/complete/statreg/217_2004 http://www.bclaws.ca/civix/document/id/complete/statreg/218_2004,Fraser Health,N,,,Y,0,35,N,,,-121.9612481,49.1692644
Place of Refuge Society,Place of Refuge,Assisted Living,655 East 49th Ave,Vancouver,V5W 2H1,(604) 324-5011,https://connect.health.gov.bc.ca/assisted-living,http://www.bclaws.ca/civix/document/id/complete/statreg/02075_01,http://www.bclaws.ca/civix/document/id/complete/statreg/217_2004 http://www.bclaws.ca/civix/document/id/complete/statreg/218_2004,Vancouver Coastal,N,,,N,,,Y,8,0,-123.0917971,49.2257723
Hope for Freedom Society,Hope for Freedom Resurrection House 1,Assisted Living,3237 Liverpool St,Port Coquitlam,V3B 3V5,(604) 464-0475,https://connect.health.gov.bc.ca/assisted-living,http://www.bclaws.ca/civix/document/id/complete/statreg/02075_01,http://www.bclaws.ca/civix/document/id/complete/statreg/217_2004 http://www.bclaws.ca/civix/document/id/complete/statreg/218_2004,Fraser Health,N,,,N,,,Y,0,4,-122.7605748,49.2714483
Psalm 23 Transition Society,Psalm 23 - Training Centre,Assisted Living,115 Cariboo Hwy 97,Clinton,V0K 1K0,(250) 459-2220,https://connect.health.gov.bc.ca/assisted-living,http://www.bclaws.ca/civix/document/id/complete/statreg/02075_01,http://www.bclaws.ca/civix/document/id/complete/statreg/217_2004 http://www.bclaws.ca/civix/document/id/complete/statreg/218_2004,Interior Health,N,,,N,,,Y,10,0,-121.5152328,51.2228585
Psalm 23 Transition Society,Psalm 23 -Sober Living,Assisted Living,31794 Peardonville Rd,Abbotsford,V2T 1L4,(604) 835-0855,https://connect.health.gov.bc.ca/assisted-living,http://www.bclaws.ca/civix/document/id/complete/statreg/02075_01,http://www.bclaws.ca/civix/document/id/complete/statreg/217_2004 http://www.bclaws.ca/civix/document/id/complete/statreg/218_2004,Fraser Health,N,,,N,,,Y,5,0,-122.3427611,49.045601
Comox Valley Recovery Centre Society,Comox Valley Recovery Centre,Assisted Living,641 Menzies Ave,Courtenay,V9N 3C3,(250) 338-7144,https://connect.health.gov.bc.ca/assisted-living,http://www.bclaws.ca/civix/document/id/complete/statreg/02075_01,http://www.bclaws.ca/civix/document/id/complete/statreg/217_2004 http://www.bclaws.ca/civix/document/id/complete/statreg/218_2004,Island Health,N,,,N,,,Y,12,3,-125.0064758,49.6861093
VisionQuest Recovery Society,VisionQuest - Harte House,Assisted Living,13238 87B Ave,Surrey,V3W 6B8,(604) 743-0598,https://connect.health.gov.bc.ca/assisted-living,http://www.bclaws.ca/civix/document/id/complete/statreg/02075_01,http://www.bclaws.ca/civix/document/id/complete/statreg/217_2004 http://www.bclaws.ca/civix/document/id/complete/statreg/218_2004,Fraser Health,N,,,N,,,Y,4,1,-122.8557709,49.1619793
VisionQuest Recovery Society,VisionQuest - Discovery House,Assisted Living,33416 George Ferguson Way,Abbotsford,V2S 2L8,(604) 637-6356,https://connect.health.gov.bc.ca/assisted-living,http://www.bclaws.ca/civix/document/id/complete/statreg/02075_01,http://www.bclaws.ca/civix/document/id/complete/statreg/217_2004 http://www.bclaws.ca/civix/document/id/complete/statreg/218_2004,Fraser Health,N,,,N,,,Y,4,1,-122.2985231,49.0512156
Yahweh Saves Recovery Ministry,Joshua House - Rossland,Assisted Living,32575 Rossland Pl,Abbotsford,V2T 3S8,(604) 556-7390,https://connect.health.gov.bc.ca/assisted-living,http://www.bclaws.ca/civix/document/id/complete/statreg/02075_01,http://www.bclaws.ca/civix/document/id/complete/statreg/217_2004 http://www.bclaws.ca/civix/document/id/complete/statreg/218_2004,Fraser Health,N,,,N,,,Y,0,7,-122.3214198,49.049235
North Island Supportive Recovery Society,Second Chance Recovery House,Assisted Living,647 Birch Street,Campbell River,V9W GY4,(250) 830-1103,https://connect.health.gov.bc.ca/assisted-living,http://www.bclaws.ca/civix/document/id/complete/statreg/02075_01,http://www.bclaws.ca/civix/document/id/complete/statreg/217_2004 http://www.bclaws.ca/civix/document/id/complete/statreg/218_2004,Island Health,N,,,N,,,Y,4,0,-125.2425221,50.0200897
Island Crisis Care Society,Island Crisis Care Society Hirst House,Assisted Living,151 East Hirst Ave,Parksville,V9P 2G4,(250) 954-3268,https://connect.health.gov.bc.ca/assisted-living,http://www.bclaws.ca/civix/document/id/complete/statreg/02075_01,http://www.bclaws.ca/civix/document/id/complete/statreg/217_2004 http://www.bclaws.ca/civix/document/id/complete/statreg/218_2004,Island Health,Y,0,6,N,,,N,,,-124.3104481,49.3193687
Chartwell Master Care LP,Chartwell Willow Retirement Community,Assisted Living,12275 - 224th St,Maple Ridge,V2X 6H5,(604) 466-8602,https://connect.health.gov.bc.ca/assisted-living,http://www.bclaws.ca/civix/document/id/complete/statreg/02075_01,http://www.bclaws.ca/civix/document/id/complete/statreg/217_2004 http://www.bclaws.ca/civix/document/id/complete/statreg/218_2004,Fraser Health,N,,,Y,0,30,N,,,-122.6019985,49.2253028
Freedom House Recovery Society,Freedom House 13765 & 13767 - 105 Ave,Assisted Living,13765 - 105 Ave,Surrey,V3T 2A1,(604) 970-2956,https://connect.health.gov.bc.ca/assisted-living,http://www.bclaws.ca/civix/document/id/complete/statreg/02075_01,http://www.bclaws.ca/civix/document/id/complete/statreg/217_2004 http://www.bclaws.ca/civix/document/id/complete/statreg/218_2004,Fraser Health,N,,,N,,,Y,0,9,-122.8406361,49.193639
North Island Crisis and Counselling Centre Society,New Beginnings,Assisted Living,8735 Hastings St,Port Hardy,V0N 2P0,(250) 949-8333,https://connect.health.gov.bc.ca/assisted-living,http://www.bclaws.ca/civix/document/id/complete/statreg/02075_01,http://www.bclaws.ca/civix/document/id/complete/statreg/217_2004 http://www.bclaws.ca/civix/document/id/complete/statreg/218_2004,Island Health,N,,,N,,,Y,8,0,-127.4933266,50.7226457
Campbell River and North Island Transition Society,Ann Elmore House,Assisted Living,608 Alder Street,Campbell River,V9W 2P2,(250) 286-3666,https://connect.health.gov.bc.ca/assisted-living,http://www.bclaws.ca/civix/document/id/complete/statreg/02075_01,http://www.bclaws.ca/civix/document/id/complete/statreg/217_2004 http://www.bclaws.ca/civix/document/id/complete/statreg/218_2004,Island Health,N,,,N,,,Y,4,0,-125.2411919,50.0195231
Canadian Mental Health Association - Pt. Alberni Branch,Port House,Assisted Living,4527 Morton St,Port Alberni,V9Y 3T5,(250) 724-2279,https://connect.health.gov.bc.ca/assisted-living,http://www.bclaws.ca/civix/document/id/complete/statreg/02075_01,http://www.bclaws.ca/civix/document/id/complete/statreg/217_2004 http://www.bclaws.ca/civix/document/id/complete/statreg/218_2004,Island Health,Y,0,2,N,,,N,,,-124.8011143,49.2472741
Changing Addictive Attitudes Recovery Society of BC,Reaching Out - Cordova,Assisted Living,678-680 E Cordova St,Vancouver,V6A 1L8,(778) 997-0270,https://connect.health.gov.bc.ca/assisted-living,http://www.bclaws.ca/civix/document/id/complete/statreg/02075_01,http://www.bclaws.ca/civix/document/id/complete/statreg/217_2004 http://www.bclaws.ca/civix/document/id/complete/statreg/218_2004,Vancouver Coastal,N,,,N,,,Y,6,0,-123.0900118,49.2818509
L.I.F.E. Recovery Association,LIFE Recovery Association - First Stage,Assisted Living,2693 Braeside Street,Abbotsford,V2T 2R5,(604) 855-4440,https://connect.health.gov.bc.ca/assisted-living,http://www.bclaws.ca/civix/document/id/complete/statreg/02075_01,http://www.bclaws.ca/civix/document/id/complete/statreg/217_2004 http://www.bclaws.ca/civix/document/id/complete/statreg/218_2004,Fraser Health,N,,,N,,,Y,0,9,-122.3463775,49.0511241
Luke 15 House Society,Luke 15 House,Assisted Living,11861 99th Ave,Surrey,V3V 2M3,(604) 930-4884,https://connect.health.gov.bc.ca/assisted-living,http://www.bclaws.ca/civix/document/id/complete/statreg/02075_01,http://www.bclaws.ca/civix/document/id/complete/statreg/217_2004 http://www.bclaws.ca/civix/document/id/complete/statreg/218_2004,Fraser Health,N,,,N,,,Y,14,0,-122.8940963,49.1828144
Axis Family Resources Ltd,Axis Place - Kootenays,Assisted Living,1512 5th Street North,Cranbrook,V1C 3M2,(250) 489-2110,https://connect.health.gov.bc.ca/assisted-living,http://www.bclaws.ca/civix/document/id/complete/statreg/02075_01,http://www.bclaws.ca/civix/document/id/complete/statreg/217_2004 http://www.bclaws.ca/civix/document/id/complete/statreg/218_2004,Interior Health,Y,7,8,N,,,N,,,-115.7594109,49.5168541
It's Up To You Recovery House Society,It's Up To You - 100th Ave,Assisted Living,12991 100th Ave,Surrey,V3T 1G9,(604) 723-6326,https://connect.health.gov.bc.ca/assisted-living,http://www.bclaws.ca/civix/document/id/complete/statreg/02075_01,http://www.bclaws.ca/civix/document/id/complete/statreg/217_2004 http://www.bclaws.ca/civix/document/id/complete/statreg/218_2004,Fraser Health,N,,,N,,,Y,9,0,-122.8625125,49.1845839
Barb's 2nd Stage Transitional Housing,Barb's Second Stage - Lilac House,Assisted Living,2467 Lilac Cres,Abbotsford,V2T 1P5,(604) 820-9224,https://connect.health.gov.bc.ca/assisted-living,http://www.bclaws.ca/civix/document/id/complete/statreg/02075_01,http://www.bclaws.ca/civix/document/id/complete/statreg/217_2004 http://www.bclaws.ca/civix/document/id/complete/statreg/218_2004,Fraser Health,N,,,N,,,Y,8,0,-122.326832,49.0468781
Barb's 2nd Stage Transitional Housing,Barb's Second Stage - McRae House,Assisted Living,32509 McRae Ave,Mission,V2V 2L6,(604) 820-9224,https://connect.health.gov.bc.ca/assisted-living,http://www.bclaws.ca/civix/document/id/complete/statreg/02075_01,http://www.bclaws.ca/civix/document/id/complete/statreg/217_2004 http://www.bclaws.ca/civix/document/id/complete/statreg/218_2004,Fraser Health,N,,,N,,,Y,8,0,-122.3244609,49.1440712
Yahweh Saves Recovery Ministry,Joshua House - Hopedale,Assisted Living,31962 Hopedale Ave,Abbotsford,V2T 2G7,(604) 504-0477,https://connect.health.gov.bc.ca/assisted-living,http://www.bclaws.ca/civix/document/id/complete/statreg/02075_01,http://www.bclaws.ca/civix/document/id/complete/statreg/217_2004 http://www.bclaws.ca/civix/document/id/complete/statreg/218_2004,Fraser Health,N,,,N,,,Y,0,5,-122.3388772,49.0539426
Yahweh Saves Recovery Ministry,Joshua House - Springhill,Assisted Living,2742 Springhill Street,Abbotsford,V2T3V9,(604) 851-2138,https://connect.health.gov.bc.ca/assisted-living,http://www.bclaws.ca/civix/document/id/complete/statreg/02075_01,http://www.bclaws.ca/civix/document/id/complete/statreg/217_2004 http://www.bclaws.ca/civix/document/id/complete/statreg/218_2004,Fraser Health,N,,,N,,,Y,0,5,-122.3525867,49.0520294
Island Crisis Care Society,Island Crisis Care Society The Bridge,Assisted Living,870 Victoria Rd,Nanaimo,V9R 4R8,(250) 716-3414,https://connect.health.gov.bc.ca/assisted-living,http://www.bclaws.ca/civix/document/id/complete/statreg/02075_01,http://www.bclaws.ca/civix/document/id/complete/statreg/217_2004 http://www.bclaws.ca/civix/document/id/complete/statreg/218_2004,Island Health,N,,,N,,,Y,0,6,-123.9373468,49.1482232
Path to Freedom Addiction Treatment and Educational Society,Path to Freedom,Assisted Living,5826 175 St,Surrey,V3S4B5,(604) 575-4955,https://connect.health.gov.bc.ca/assisted-living,http://www.bclaws.ca/civix/document/id/complete/statreg/02075_01,http://www.bclaws.ca/civix/document/id/complete/statreg/217_2004 http://www.bclaws.ca/civix/document/id/complete/statreg/218_2004,Fraser Health,N,,,N,,,Y,3,3,-122.7378824,49.1083233
Berwick Investments Ltd.,Berwick House,Assisted Living,4062 Shelbourne Street,Victoria,V8N 3E6,(250) 721-4062,https://connect.health.gov.bc.ca/assisted-living,http://www.bclaws.ca/civix/document/id/complete/statreg/02075_01,http://www.bclaws.ca/civix/document/id/complete/statreg/217_2004 http://www.bclaws.ca/civix/document/id/complete/statreg/218_2004,Island Health,N,,,Y,0,35,N,,,-123.3336487,48.4755032
Seven Sacred Fires,Seven Sacred Fires,Assisted Living,13630-110A Ave,Surrey,V3R 2B1,(604) 788-4666,https://connect.health.gov.bc.ca/assisted-living,http://www.bclaws.ca/civix/document/id/complete/statreg/02075_01,http://www.bclaws.ca/civix/document/id/complete/statreg/217_2004 http://www.bclaws.ca/civix/document/id/complete/statreg/218_2004,Fraser Health,N,,,N,,,Y,12,0,-122.8445098,49.2034651
Set Free Ministries Society Inc,Samaritan Inn - Pandora House,Assisted Living,32706 Pandora Ave,Abbotsford,V2T 3X1,(780) 880-0466,https://connect.health.gov.bc.ca/assisted-living,http://www.bclaws.ca/civix/document/id/complete/statreg/02075_01,http://www.bclaws.ca/civix/document/id/complete/statreg/217_2004 http://www.bclaws.ca/civix/document/id/complete/statreg/218_2004,Fraser Health,N,,,N,,,Y,6,0,-122.3181101,49.0362298
Set Free Ministries Society Inc,Samaritan Inn - Meadows House,Assisted Living,2176 Meadows Street,Abbotsford,V2T 3A6,(778) 880-0466,https://connect.health.gov.bc.ca/assisted-living,http://www.bclaws.ca/civix/document/id/complete/statreg/02075_01,http://www.bclaws.ca/civix/document/id/complete/statreg/217_2004 http://www.bclaws.ca/civix/document/id/complete/statreg/218_2004,Fraser Health,N,,,N,,,Y,6,0,-122.332065,49.0415759
Launching Pad Addiction Rehabilitation Society,Launching Pad Addiction Rehabilitation Society,Assisted Living,984-160 Street,Surrey,V4A 4W5,(604) 536-3022,https://connect.health.gov.bc.ca/assisted-living,http://www.bclaws.ca/civix/document/id/complete/statreg/02075_01,http://www.bclaws.ca/civix/document/id/complete/statreg/217_2004 http://www.bclaws.ca/civix/document/id/complete/statreg/218_2004,Fraser Health,N,,,N,,,Y,0,18,-122.7789867,49.0199654
Island Crisis Care Society,Island Crisis Care Society Safe Harbour House,Assisted Living,880 Victoria Rd,Nanaimo,V9R 4R8,(250) 716-3414,https://connect.health.gov.bc.ca/assisted-living,http://www.bclaws.ca/civix/document/id/complete/statreg/02075_01,http://www.bclaws.ca/civix/document/id/complete/statreg/217_2004 http://www.bclaws.ca/civix/document/id/complete/statreg/218_2004,Island Health,Y,0,5,N,,,N,,,-123.9373641,49.1481425
Island Crisis Care Society,Island Crisis Care Society Crescent House,Assisted Living,1126 Seafield Cresent,Nanaimo,V9S 5K5,(250) 716-3402,https://connect.health.gov.bc.ca/assisted-living,http://www.bclaws.ca/civix/document/id/complete/statreg/02075_01,http://www.bclaws.ca/civix/document/id/complete/statreg/217_2004 http://www.bclaws.ca/civix/document/id/complete/statreg/218_2004,Island Health,Y,0,6,N,,,N,,,-123.9671031,49.1835574
Hope for Freedom Society,Hope for Freedom Resurrection House 5,Assisted Living,3075 Shaughnessy St,Port Coquitlam,V3B 4K9,(604) 464-0475,https://connect.health.gov.bc.ca/assisted-living,http://www.bclaws.ca/civix/document/id/complete/statreg/02075_01,http://www.bclaws.ca/civix/document/id/complete/statreg/217_2004 http://www.bclaws.ca/civix/document/id/complete/statreg/218_2004,Fraser Health,N,,,N,,,Y,0,3,-122.7757143,49.2689557
Night and Day Recovery Centre Ltd,Night and Day Recovery (104 Ave),Assisted Living,14556 104 Ave,Surrey,V3R 1M2,(604) 496-0940,https://connect.health.gov.bc.ca/assisted-living,http://www.bclaws.ca/civix/document/id/complete/statreg/02075_01,http://www.bclaws.ca/civix/document/id/complete/statreg/217_2004 http://www.bclaws.ca/civix/document/id/complete/statreg/218_2004,Fraser Health,N,,,N,,,Y,0,5,-122.8187047,49.1913447
Night and Day Recovery Centre Ltd,Night and Day Recovery (9652 Salal Place),Assisted Living,9652 Salal Place,Surrey,V3T 5A6,(604) 496-3163,https://connect.health.gov.bc.ca/assisted-living,http://www.bclaws.ca/civix/document/id/complete/statreg/02075_01,http://www.bclaws.ca/civix/document/id/complete/statreg/217_2004 http://www.bclaws.ca/civix/document/id/complete/statreg/218_2004,Fraser Health,N,,,N,,,Y,0,6,-122.8547917,49.1778715
Diversicare dba Heritage Retirement Inc,The Heritage Retirement Residence,Assisted Living,3630 Brown Rd,Kelowna,V4T 7Y9,(250) 768-9926,https://connect.health.gov.bc.ca/assisted-living,http://www.bclaws.ca/civix/document/id/complete/statreg/02075_01,http://www.bclaws.ca/civix/document/id/complete/statreg/217_2004 http://www.bclaws.ca/civix/document/id/complete/statreg/218_2004,Interior Health,N,,,Y,0,42,N,,,-119.628559,49.8320163
Giving Back Support Recovery Society,Giving Back Support Recovery,Assisted Living,3608 Knight Street,Vancouver,V5N 3L5,(604) 874-8555,https://connect.health.gov.bc.ca/assisted-living,http://www.bclaws.ca/civix/document/id/complete/statreg/02075_01,http://www.bclaws.ca/civix/document/id/complete/statreg/217_2004 http://www.bclaws.ca/civix/document/id/complete/statreg/218_2004,Vancouver Coastal,N,,,N,,,Y,0,4,-123.0755933,49.2524569
John Volken Academy Society,John Volken Academy Main (Men's Dorm),Assisted Living,6833 King George Blvd,Surrey,V3W 5A1,(604) 592-3001,https://connect.health.gov.bc.ca/assisted-living,http://www.bclaws.ca/civix/document/id/complete/statreg/02075_01,http://www.bclaws.ca/civix/document/id/complete/statreg/217_2004 http://www.bclaws.ca/civix/document/id/complete/statreg/218_2004,Fraser Health,N,,,N,,,Y,0,36,-122.8459652,49.1268578
New Vision Supportive Housing Society,New Vision Sullivan House,Assisted Living,14325 72nd Ave,Surrey,V3W 2P9,(604) 866-5889,https://connect.health.gov.bc.ca/assisted-living,http://www.bclaws.ca/civix/document/id/complete/statreg/02075_01,http://www.bclaws.ca/civix/document/id/complete/statreg/217_2004 http://www.bclaws.ca/civix/document/id/complete/statreg/218_2004,Fraser Health,N,,,N,,,Y,6,0,-122.8254298,49.1338768
VisionQuest Recovery Society,VisionQuest - The Lake,Assisted Living,7185 Tunkwa Lake Rd,Logan Lake,V0K 1W0,(250) 523-9411,https://connect.health.gov.bc.ca/assisted-living,http://www.bclaws.ca/civix/document/id/complete/statreg/02075_01,http://www.bclaws.ca/civix/document/id/complete/statreg/217_2004 http://www.bclaws.ca/civix/document/id/complete/statreg/218_2004,Interior Health,N,,,N,,,Y,25,5,-120.869521,50.5622019
Leo Wertman Residences Ltd.,Legacy Senior Living - The Leo Wertman Residence,Assisted Living,611 West 41 Ave,Vancouver,V5Z 0C7,(604) 240-8550,https://connect.health.gov.bc.ca/assisted-living,http://www.bclaws.ca/civix/document/id/complete/statreg/02075_01,http://www.bclaws.ca/civix/document/id/complete/statreg/217_2004 http://www.bclaws.ca/civix/document/id/complete/statreg/218_2004,Vancouver Coastal,N,,,Y,0,20,N,,,-123.1186063,49.2339416
Berwick Retirement Campbell River Ltd.,Berwick By The Sea,Assisted Living,1353 16th Ave,Campbell River,V9W 2C9,(250) 850-1353,https://connect.health.gov.bc.ca/assisted-living,http://www.bclaws.ca/civix/document/id/complete/statreg/02075_01,http://www.bclaws.ca/civix/document/id/complete/statreg/217_2004 http://www.bclaws.ca/civix/document/id/complete/statreg/218_2004,Island Health,N,,,Y,0,30,N,,,-125.2454805,50.0293705
Era Assisted Living Inc.,Era Assisted Living Inc.,Assisted Living,15546 84A Ave,Surrey,V3S 6P6,(778) 722-7849,https://connect.health.gov.bc.ca/assisted-living,http://www.bclaws.ca/civix/document/id/complete/statreg/02075_01,http://www.bclaws.ca/civix/document/id/complete/statreg/217_2004 http://www.bclaws.ca/civix/document/id/complete/statreg/218_2004,Fraser Health,N,,,Y,0,7,N,,,-122.791636,49.1563924
Pleasant View Housing Society,Pleasant View,Assisted Living,7530 Hurd St,Mission,V2V 3H9,(604) 826-2154,https://connect.health.gov.bc.ca/assisted-living,http://www.bclaws.ca/civix/document/id/complete/statreg/02075_01,http://www.bclaws.ca/civix/document/id/complete/statreg/217_2004 http://www.bclaws.ca/civix/document/id/complete/statreg/218_2004,Fraser Health,Y,0,0,N,,,N,,,-122.3316098,49.138258
Adult & Teen Challenge Society of BC,Teen Challenge BC - Okanagan Men's Centre,Assisted Living,4550 Glenmore Rd,Lake Country,V4V 1L7,(604) 575-3930,https://connect.health.gov.bc.ca/assisted-living,http://www.bclaws.ca/civix/document/id/complete/statreg/02075_01,http://www.bclaws.ca/civix/document/id/complete/statreg/217_2004 http://www.bclaws.ca/civix/document/id/complete/statreg/218_2004,Interior Health,N,,,N,,,Y,0,6,-119.4190913,50.0078386
Revolution Recovery Ltd,Revolution Recovery House Four,Assisted Living,14362 74A Ave,Surrey,V3W 0N3,(604) 379-7244,https://connect.health.gov.bc.ca/assisted-living,http://www.bclaws.ca/civix/document/id/complete/statreg/02075_01,http://www.bclaws.ca/civix/document/id/complete/statreg/217_2004 http://www.bclaws.ca/civix/document/id/complete/statreg/218_2004,Fraser Health,N,,,N,,,Y,5,0,-122.8257586,49.1380945
Nanaimo District Senior Citizens' Housing Development Society,Kiwanis House,Assisted Living,1233 Kiwanis Cres,Nanaimo,V9S 5Y1,(250) 753-6471,https://connect.health.gov.bc.ca/assisted-living,http://www.bclaws.ca/civix/document/id/complete/statreg/02075_01,http://www.bclaws.ca/civix/document/id/complete/statreg/217_2004 http://www.bclaws.ca/civix/document/id/complete/statreg/218_2004,Island Health,N,,,Y,45,0,N,,,-123.969185,49.186109
St. Patrick's House Society,St. Patrick's House,Assisted Living,1735 Yew St,Prince George,V2L 2X3,(250) 564-5530,https://connect.health.gov.bc.ca/assisted-living,http://www.bclaws.ca/civix/document/id/complete/statreg/02075_01,http://www.bclaws.ca/civix/document/id/complete/statreg/217_2004 http://www.bclaws.ca/civix/document/id/complete/statreg/218_2004,Northern Health,N,,,N,,,Y,14,0,-122.7649132,53.9075611
Pathway to Freedom Recovery Society,Pathway to Freedom - 9031 Prince Charles,Assisted Living,9031 Prince Charles Blvd,Surrey,V3V 1R7,(604) 496-0772,https://connect.health.gov.bc.ca/assisted-living,http://www.bclaws.ca/civix/document/id/complete/statreg/02075_01,http://www.bclaws.ca/civix/document/id/complete/statreg/217_2004 http://www.bclaws.ca/civix/document/id/complete/statreg/218_2004,Fraser Health,N,,,N,,,Y,5,0,-122.8656255,49.1671051
Pathway to Freedom Recovery Society,Pathway to Freedom - 9376 Prince Charles,Assisted Living,9376 Prince Charles Blvd,Surrey,V3V 2H9,(604) 496-0772,https://connect.health.gov.bc.ca/assisted-living,http://www.bclaws.ca/civix/document/id/complete/statreg/02075_01,http://www.bclaws.ca/civix/document/id/complete/statreg/217_2004 http://www.bclaws.ca/civix/document/id/complete/statreg/218_2004,Fraser Health,N,,,N,,,Y,4,0,-122.8622885,49.1730717
Lookout Housing and Health Society,Macmillan House,Assisted Living,11184 143A Street,Surrey,V3R 3M8,(604) 255-0340,https://connect.health.gov.bc.ca/assisted-living,http://www.bclaws.ca/civix/document/id/complete/statreg/02075_01,http://www.bclaws.ca/civix/document/id/complete/statreg/217_2004 http://www.bclaws.ca/civix/document/id/complete/statreg/218_2004,Fraser Health,N,,,N,,,Y,11,0,-122.8248572,49.205906
Fraserside Community Services Society,Bear Creek House,Assisted Living,13799 88th Ave,Surrey,V3W 3L2,(604) 503-6050,https://connect.health.gov.bc.ca/assisted-living,http://www.bclaws.ca/civix/document/id/complete/statreg/02075_01,http://www.bclaws.ca/civix/document/id/complete/statreg/217_2004 http://www.bclaws.ca/civix/document/id/complete/statreg/218_2004,Fraser Health,Y,0,5,N,,,N,,,-122.8401997,49.1629379
Bon Accord Care Services Ltd,Bon Accord House,Assisted Living,2695 McBride Ave,Surrey,V4A 3E9,(604) 535-3167,https://connect.health.gov.bc.ca/assisted-living,http://www.bclaws.ca/civix/document/id/complete/statreg/02075_01,http://www.bclaws.ca/civix/document/id/complete/statreg/217_2004 http://www.bclaws.ca/civix/document/id/complete/statreg/218_2004,Fraser Health,Y,9,5,N,,,N,,,-122.8839527,49.0517947
Freedom House Recovery Society,Freedom House 13755 - 105 Ave,Assisted Living,13755-105 Ave,Surrey,V3T 2A1,(604) 970-2956,https://connect.health.gov.bc.ca/assisted-living,http://www.bclaws.ca/civix/document/id/complete/statreg/02075_01,http://www.bclaws.ca/civix/document/id/complete/statreg/217_2004 http://www.bclaws.ca/civix/document/id/complete/statreg/218_2004,Fraser Health,N,,,N,,,Y,0,4,-122.8408962,49.1936467
New Vision Supportive Housing Society,New Vision Renaissance Recovery House,Assisted Living,10106 129 St,Surrey,V3T 3G7,(604) 866-5889,https://connect.health.gov.bc.ca/assisted-living,http://www.bclaws.ca/civix/document/id/complete/statreg/02075_01,http://www.bclaws.ca/civix/document/id/complete/statreg/217_2004 http://www.bclaws.ca/civix/document/id/complete/statreg/218_2004,Fraser Health,N,,,N,,,Y,7,0,-122.8643971,49.1863326
Ruth &  Naomi's Mission,Oasis Residential Addiction Treatment Services for Men,Assisted Living,45466 Yale Road West,Chilliwack,V2R3Z8,(604) 795-2322,https://connect.health.gov.bc.ca/assisted-living,http://www.bclaws.ca/civix/document/id/complete/statreg/02075_01,http://www.bclaws.ca/civix/document/id/complete/statreg/217_2004 http://www.bclaws.ca/civix/document/id/complete/statreg/218_2004,Fraser Health,N,,,N,,,Y,11,0,-121.9643974,49.1475368
The Bridge Youth and Family Services Society,Bridgeway Residential Treatment,Assisted Living,265 Gray Rd,Kelowna,V1X 1W8,(250) 763-0456,https://connect.health.gov.bc.ca/assisted-living,http://www.bclaws.ca/civix/document/id/complete/statreg/02075_01,http://www.bclaws.ca/civix/document/id/complete/statreg/217_2004 http://www.bclaws.ca/civix/document/id/complete/statreg/218_2004,Interior Health,N,,,N,,,Y,13,0,-119.3903898,49.8878207
New Vision Supportive Housing Society,New Vision Revival Recovery House,Assisted Living,9449 132 Street,Surrey,V3V 5R2,(604) 866-5889,https://connect.health.gov.bc.ca/assisted-living,http://www.bclaws.ca/civix/document/id/complete/statreg/02075_01,http://www.bclaws.ca/civix/document/id/complete/statreg/217_2004 http://www.bclaws.ca/civix/document/id/complete/statreg/218_2004,Fraser Health,N,,,N,,,Y,5,0,-122.8571301,49.174525
New Vision Supportive Housing Society,New Vision Traditions Recovery House,Assisted Living,9782 126 Street,Surrey,V3V 5E4,(604) 866-5889,https://connect.health.gov.bc.ca/assisted-living,http://www.bclaws.ca/civix/document/id/complete/statreg/02075_01,http://www.bclaws.ca/civix/document/id/complete/statreg/217_2004 http://www.bclaws.ca/civix/document/id/complete/statreg/218_2004,Fraser Health,N,,,N,,,Y,5,0,-122.8731584,49.1804787
Revolution Recovery Ltd,Revolution Recovery House Three,Assisted Living,14318 60th Ave,Surrey,V3X 2N5,(604) 379-7244,https://connect.health.gov.bc.ca/assisted-living,http://www.bclaws.ca/civix/document/id/complete/statreg/02075_01,http://www.bclaws.ca/civix/document/id/complete/statreg/217_2004 http://www.bclaws.ca/civix/document/id/complete/statreg/218_2004,Fraser Health,N,,,N,,,Y,5,0,-122.8257519,49.1116834
New Vision Society,New Vision Top of the Hill Recovery Centre,Assisted Living,10386 127 St,Surrey,V3V 5J9,(604) 866-5889,https://connect.health.gov.bc.ca/assisted-living,http://www.bclaws.ca/civix/document/id/complete/statreg/02075_01,http://www.bclaws.ca/civix/document/id/complete/statreg/217_2004 http://www.bclaws.ca/civix/document/id/complete/statreg/218_2004,Fraser Health,N,,,N,,,Y,7,0,-122.8710194,49.1914715
Fraserside Community Services Society,Fraserdale Long Stay Program,Assisted Living,5938 Sprott St,Burnaby,V5G 1V1,(604) 299-5253,https://connect.health.gov.bc.ca/assisted-living,http://www.bclaws.ca/civix/document/id/complete/statreg/02075_01,http://www.bclaws.ca/civix/document/id/complete/statreg/217_2004 http://www.bclaws.ca/civix/document/id/complete/statreg/218_2004,Fraser Health,Y,0,10,N,,,N,,,-122.977399,49.2497322
Together We Can Drug & Alcohol Recovery and Education Society,Together We Can - Straight Path,Assisted Living,12971 100A Avenue,Surrey,V3T 1J8,(778) 293-0603,https://connect.health.gov.bc.ca/assisted-living,http://www.bclaws.ca/civix/document/id/complete/statreg/02075_01,http://www.bclaws.ca/civix/document/id/complete/statreg/217_2004 http://www.bclaws.ca/civix/document/id/complete/statreg/218_2004,Fraser Health,N,,,N,,,Y,0,5,-122.8629158,49.1857218
BC Teen Challenge,Teen Challenge BC - Chilliwack Men's Centre,Assisted Living,4166 Eckert St,Chilliwack,V2R 5J6,(604) 575-3930,https://connect.health.gov.bc.ca/assisted-living,http://www.bclaws.ca/civix/document/id/complete/statreg/02075_01,http://www.bclaws.ca/civix/document/id/complete/statreg/217_2004 http://www.bclaws.ca/civix/document/id/complete/statreg/218_2004,Fraser Health,N,,,N,,,Y,0,6,-122.0556232,49.0772149
Netherlands Reformed Congregation of Chilliwack,Sunset Manor,Assisted Living,Unit 2 8920 Broadway St,Chilliwack,V2P 5W1,(604) 702-0457,https://connect.health.gov.bc.ca/assisted-living,http://www.bclaws.ca/civix/document/id/complete/statreg/02075_01,http://www.bclaws.ca/civix/document/id/complete/statreg/217_2004 http://www.bclaws.ca/civix/document/id/complete/statreg/218_2004,Fraser Health,N,,,Y,0,15,N,,,-121.9331431,49.1641397
Keystone Recovery Society,Keystone Recovery Society,Assisted Living,13165 - 73 Ave,Surrey,V3W 2R4,(778) 808-6060,https://connect.health.gov.bc.ca/assisted-living,http://www.bclaws.ca/civix/document/id/complete/statreg/02075_01,http://www.bclaws.ca/civix/document/id/complete/statreg/217_2004 http://www.bclaws.ca/civix/document/id/complete/statreg/218_2004,Fraser Health,N,,,N,,,Y,4,1,-122.8577799,49.1357006
Brookdale House Ltd,Brookdale House,Assisted Living,30961 Brookdale Crt,Abbotsford,V2T 5S3,(604) 853-2035,https://connect.health.gov.bc.ca/assisted-living,http://www.bclaws.ca/civix/document/id/complete/statreg/02075_01,http://www.bclaws.ca/civix/document/id/complete/statreg/217_2004 http://www.bclaws.ca/civix/document/id/complete/statreg/218_2004,Fraser Health,N,,,Y,0,5,N,,,-122.3664137,49.0656146
Night and Day Recovery Centre Ltd,Night and Day Recovery (Punjabi House),Assisted Living,14751 106 Ave,Surrey,V3R 5Y1,(604) 496-7092,https://connect.health.gov.bc.ca/assisted-living,http://www.bclaws.ca/civix/document/id/complete/statreg/02075_01,http://www.bclaws.ca/civix/document/id/complete/statreg/217_2004 http://www.bclaws.ca/civix/document/id/complete/statreg/218_2004,Fraser Health,N,,,N,,,Y,0,6,-122.8138662,49.1952833
Night and Day Recovery Centre Ltd,Night and Day Recovery (144 St),Assisted Living,10442 144 St,Surrey,V3T 4V5,(604) 496-0913,https://connect.health.gov.bc.ca/assisted-living,http://www.bclaws.ca/civix/document/id/complete/statreg/02075_01,http://www.bclaws.ca/civix/document/id/complete/statreg/217_2004 http://www.bclaws.ca/civix/document/id/complete/statreg/218_2004,Fraser Health,N,,,N,,,Y,0,7,-122.822852,49.1922871
Night and Day Recovery Centre Ltd,Night and Day Recovery (103 Ave),Assisted Living,14522 103 Ave,Surrey,V3R 6A9,(604) 496-0534,https://connect.health.gov.bc.ca/assisted-living,http://www.bclaws.ca/civix/document/id/complete/statreg/02075_01,http://www.bclaws.ca/civix/document/id/complete/statreg/217_2004 http://www.bclaws.ca/civix/document/id/complete/statreg/218_2004,Fraser Health,N,,,N,,,Y,0,6,-122.819961,49.1894267
Ktunaxa Nation Council Society,Scotty's House,Assisted Living,202 - 13 Avenue South,Cranbrook,V1C 2V8,(250) 919-6500,https://connect.health.gov.bc.ca/assisted-living,http://www.bclaws.ca/civix/document/id/complete/statreg/02075_01,http://www.bclaws.ca/civix/document/id/complete/statreg/217_2004 http://www.bclaws.ca/civix/document/id/complete/statreg/218_2004,Interior Health,Y,0,8,N,,,N,,,-115.7630426,49.5080892
Back on Track Recovery LTD.,Back on Track Recovery - The Fortress Unit 1,Assisted Living,9889 140 Street,Surrey,V3T 4M4,778-316-2625,https://connect.health.gov.bc.ca/assisted-living,http://www.bclaws.ca/civix/document/id/complete/statreg/02075_01,http://www.bclaws.ca/civix/document/id/complete/statreg/217_2004 http://www.bclaws.ca/civix/document/id/complete/statreg/218_2004,Fraser Health,N,,,N,,,Y,0,5,-122.8345193,49.1823321
Coast Foundation Society,Coast Foundation - Riverview,Assisted Living,2601 Lougheed Hwy,Coquitlam,V3C 4J2,(604) 520-3610,https://connect.health.gov.bc.ca/assisted-living,http://www.bclaws.ca/civix/document/id/complete/statreg/02075_01,http://www.bclaws.ca/civix/document/id/complete/statreg/217_2004 http://www.bclaws.ca/civix/document/id/complete/statreg/218_2004,Fraser Health,Y,0,0,N,,,N,,,-122.8073297,49.2474719
Hope for Freedom Society,Hope for Freedom - Hilland Lodge,Assisted Living,25402 Hilland Ave,Maple Ridge,V4R 1G3,(604) 380-3665,https://connect.health.gov.bc.ca/assisted-living,http://www.bclaws.ca/civix/document/id/complete/statreg/02075_01,http://www.bclaws.ca/civix/document/id/complete/statreg/217_2004 http://www.bclaws.ca/civix/document/id/complete/statreg/218_2004,Fraser Health,N,,,N,,,Y,0,15,-122.5181829,49.2245653
Edgemont Senior Living Inc.,Amica Edgemont Village,Assisted Living,3225 Highland Blvd,North Vancouver,V7R 0A3,(604) 929-6361,https://connect.health.gov.bc.ca/assisted-living,http://www.bclaws.ca/civix/document/id/complete/statreg/02075_01,http://www.bclaws.ca/civix/document/id/complete/statreg/217_2004 http://www.bclaws.ca/civix/document/id/complete/statreg/218_2004,Vancouver Coastal,N,,,Y,0,98,N,,,-123.1009669,49.3385374
1058016BCLTD,Cedars at Panorama Ridge,Assisted Living,6811 135A Street,Surrey,V3W 4X2,(250) 733-2006,https://connect.health.gov.bc.ca/assisted-living,http://www.bclaws.ca/civix/document/id/complete/statreg/02075_01,http://www.bclaws.ca/civix/document/id/complete/statreg/217_2004 http://www.bclaws.ca/civix/document/id/complete/statreg/218_2004,Fraser Health,N,,,N,,,Y,0,6,-122.8472411,49.1264267
InnerVisions Recovery Society,Hammond House,Assisted Living,20581B Maple Crescent,Maple Ridge,V2X 1R7,(604) 465-3228,https://connect.health.gov.bc.ca/assisted-living,http://www.bclaws.ca/civix/document/id/complete/statreg/02075_01,http://www.bclaws.ca/civix/document/id/complete/statreg/217_2004 http://www.bclaws.ca/civix/document/id/complete/statreg/218_2004,Fraser Health,N,,,N,,,Y,13,0,-122.6516919,49.2066449
Penticton Recovery Resource Society,Discovery House,Assisted Living,397 Wade Ave. W.,Penticton,V2A 1V2,(250) 490-3076,https://connect.health.gov.bc.ca/assisted-living,http://www.bclaws.ca/civix/document/id/complete/statreg/02075_01,http://www.bclaws.ca/civix/document/id/complete/statreg/217_2004 http://www.bclaws.ca/civix/document/id/complete/statreg/218_2004,Interior Health,N,,,N,,,Y,4,0,-119.5972816,49.4961705
"MPA - Motivation, Power and Achievement Society",Beckman Apartments,Assisted Living,12036 - 216 Street,Maple Ridge,V2X 5J3,(604) 380-1881,https://connect.health.gov.bc.ca/assisted-living,http://www.bclaws.ca/civix/document/id/complete/statreg/02075_01,http://www.bclaws.ca/civix/document/id/complete/statreg/217_2004 http://www.bclaws.ca/civix/document/id/complete/statreg/218_2004,Fraser Health,Y,0,0,N,,,N,,,-122.6226821,49.2213348
MERD Antonio Group Ltd,Garden Lodge,Assisted Living,15196 86 Avenue,Surrey,V3S 4Y1,(604) 590-2589,https://connect.health.gov.bc.ca/assisted-living,http://www.bclaws.ca/civix/document/id/complete/statreg/02075_01,http://www.bclaws.ca/civix/document/id/complete/statreg/217_2004 http://www.bclaws.ca/civix/document/id/complete/statreg/218_2004,Fraser Health,Y,6,0,N,,,N,,,-122.8020219,49.1590623
Into Action Recovery Society,Into Action House 1,Assisted Living,13222 87B Avenue,Surrey,V3W 6B8,(778) 231-8565,https://connect.health.gov.bc.ca/assisted-living,http://www.bclaws.ca/civix/document/id/complete/statreg/02075_01,http://www.bclaws.ca/civix/document/id/complete/statreg/217_2004 http://www.bclaws.ca/civix/document/id/complete/statreg/218_2004,Fraser Health,N,,,N,,,Y,8,0,-122.8558058,49.1620704
Randy (Cole) Iszak,Back on Track House Five,Assisted Living,8067 147th Street,Surrey,V3S 9T9,(604) 594-7750,https://connect.health.gov.bc.ca/assisted-living,http://www.bclaws.ca/civix/document/id/complete/statreg/02075_01,http://www.bclaws.ca/civix/document/id/complete/statreg/217_2004 http://www.bclaws.ca/civix/document/id/complete/statreg/218_2004,Fraser Health,N,,,N,,,Y,0,7,-122.8144248,49.1505187
R. Cole Izsak,Back on Track House Six,Assisted Living,14669 90 Ave,Surrey,V3R 1A5,(778) 316-2625,https://connect.health.gov.bc.ca/assisted-living,http://www.bclaws.ca/civix/document/id/complete/statreg/02075_01,http://www.bclaws.ca/civix/document/id/complete/statreg/217_2004 http://www.bclaws.ca/civix/document/id/complete/statreg/218_2004,Fraser Health,N,,,N,,,Y,8,0,-122.8159541,49.1666206
Dora MacQuarrie,Serenity Acres,Assisted Living,6188 VLA Road,Chase,V0E 1M1,(250) 679-3530,https://connect.health.gov.bc.ca/assisted-living,http://www.bclaws.ca/civix/document/id/complete/statreg/02075_01,http://www.bclaws.ca/civix/document/id/complete/statreg/217_2004 http://www.bclaws.ca/civix/document/id/complete/statreg/218_2004,Interior Health,N,,,Y,0,3,N,,,-119.6990309,50.8201237
MPA Society,Glacierview Apartments,Assisted Living,33134 Marshall Road,Abbotsford,V2S 1K5,(604) 809-7364,https://connect.health.gov.bc.ca/assisted-living,http://www.bclaws.ca/civix/document/id/complete/statreg/02075_01,http://www.bclaws.ca/civix/document/id/complete/statreg/217_2004 http://www.bclaws.ca/civix/document/id/complete/statreg/218_2004,Fraser Health,Y,0,0,N,,,N,,,-122.3063657,49.0377195
InnerVisions Recovery Society,Miller House,Assisted Living,20581 A Maple Crescent,Maple Ridge,V2X 1R7,(604) 465-3228,https://connect.health.gov.bc.ca/assisted-living,http://www.bclaws.ca/civix/document/id/complete/statreg/02075_01,http://www.bclaws.ca/civix/document/id/complete/statreg/217_2004 http://www.bclaws.ca/civix/document/id/complete/statreg/218_2004,Fraser Health,N,,,N,,,Y,10,0,-122.6516919,49.2066449
Karis Support Society,Karis Support Society,Assisted Living,550 Rowcliffe Avenue,Kelowna,V1Y 5Y9,250-860-9507,https://connect.health.gov.bc.ca/assisted-living,http://www.bclaws.ca/civix/document/id/complete/statreg/02075_01,http://www.bclaws.ca/civix/document/id/complete/statreg/217_2004 http://www.bclaws.ca/civix/document/id/complete/statreg/218_2004,Interior Health,N,,,N,,,Y,12,0,-119.4913599,49.881377
It's Up To You Recovery House Society,It's Up To You - Site 3,Assisted Living,13272 113B Ave,Surrey,V3R 2K9,(604) 723-6326,https://connect.health.gov.bc.ca/assisted-living,http://www.bclaws.ca/civix/document/id/complete/statreg/02075_01,http://www.bclaws.ca/civix/document/id/complete/statreg/217_2004 http://www.bclaws.ca/civix/document/id/complete/statreg/218_2004,Fraser Health,N,,,N,,,Y,8,0,-122.8541659,49.209
Hope for Freedom Society,Hope for Freedom Oxford House,Assisted Living,3135 Oxford Street,Port Coquitlam,V3B 4C4,(604) 464-0475,https://connect.health.gov.bc.ca/assisted-living,http://www.bclaws.ca/civix/document/id/complete/statreg/02075_01,http://www.bclaws.ca/civix/document/id/complete/statreg/217_2004 http://www.bclaws.ca/civix/document/id/complete/statreg/218_2004,Fraser Health,N,,,N,,,Y,0,5,-122.7673811,49.2694271
Talitha Koum Society,Talitha Koum Society - Starr House,Assisted Living,1820 Como Lake Avenue,Coquitlam,V3J3P8,604-492-3393,https://connect.health.gov.bc.ca/assisted-living,http://www.bclaws.ca/civix/document/id/complete/statreg/02075_01,http://www.bclaws.ca/civix/document/id/complete/statreg/217_2004 http://www.bclaws.ca/civix/document/id/complete/statreg/218_2004,Fraser Health,N,,,N,,,Y,4,0,-122.8431436,49.2631387
Langley Seniors Village 3 LLP,Langley Seniors Village,Assisted Living,20363-65th Ave,Langley,V2Y 3E3,(604) 539-9934,https://connect.health.gov.bc.ca/assisted-living,http://www.bclaws.ca/civix/document/id/complete/statreg/02075_01,http://www.bclaws.ca/civix/document/id/complete/statreg/217_2004 http://www.bclaws.ca/civix/document/id/complete/statreg/218_2004,Fraser Health,N,,,Y,64,26,N,,,-122.6582236,49.1209898
Maple Ridge Seniors Village 3 LLP,Maple Ridge Seniors Village,Assisted Living,22141-119th Ave,Maple Ridge,V2X 2Y7,(604) 466-3053,https://connect.health.gov.bc.ca/assisted-living,http://www.bclaws.ca/civix/document/id/complete/statreg/02075_01,http://www.bclaws.ca/civix/document/id/complete/statreg/217_2004 http://www.bclaws.ca/civix/document/id/complete/statreg/218_2004,Fraser Health,N,,,Y,0,30,N,,,-122.6084592,49.2193789
Nanaimo Seniors Village 3 LLP,Nanaimo Seniors Village,Assisted Living,6085 Uplands Drive,Nanaimo,V9V 1T8,(250) 729-9524,https://connect.health.gov.bc.ca/assisted-living,http://www.bclaws.ca/civix/document/id/complete/statreg/02075_01,http://www.bclaws.ca/civix/document/id/complete/statreg/217_2004 http://www.bclaws.ca/civix/document/id/complete/statreg/218_2004,Island Health,N,,,Y,18,82,N,,,-124.0386077,49.2364583
Amandeep Kaur Rai,Night and Day (108A Ave),Assisted Living,14677 108A Ave,Surrey,V3R 1W7,(604) 496-7075,https://connect.health.gov.bc.ca/assisted-living,http://www.bclaws.ca/civix/document/id/complete/statreg/02075_01,http://www.bclaws.ca/civix/document/id/complete/statreg/217_2004 http://www.bclaws.ca/civix/document/id/complete/statreg/218_2004,Fraser Health,N,,,N,,,Y,0,6,-122.8155453,49.1998109
Revolution Recovery LTD,Revolution Recovery 60th Ave,Assisted Living,14465 60th Avenue,Surrey,V3S 1R4,(778) 591-8064,https://connect.health.gov.bc.ca/assisted-living,http://www.bclaws.ca/civix/document/id/complete/statreg/02075_01,http://www.bclaws.ca/civix/document/id/complete/statreg/217_2004 http://www.bclaws.ca/civix/document/id/complete/statreg/218_2004,Fraser Health,N,,,N,,,Y,7,0,-122.8214979,49.1120083
Wellesley Seniors Village 3 LLP,Wellesley Seniors Village,Assisted Living,2800 Blanshard Street,Victoria,V8T 5B5,(250) 383-9099,https://connect.health.gov.bc.ca/assisted-living,http://www.bclaws.ca/civix/document/id/complete/statreg/02075_01,http://www.bclaws.ca/civix/document/id/complete/statreg/217_2004 http://www.bclaws.ca/civix/document/id/complete/statreg/218_2004,Island Health,N,,,Y,40,34,N,,,-123.3644222,48.4403101
Williams Lake Seniors 3 LLP,Williams Lake Seniors Village,Assisted Living,1455 Western Ave,Williams Lake,V2G 5N1,(250) 305-1131,https://connect.health.gov.bc.ca/assisted-living,http://www.bclaws.ca/civix/document/id/complete/statreg/02075_01,http://www.bclaws.ca/civix/document/id/complete/statreg/217_2004 http://www.bclaws.ca/civix/document/id/complete/statreg/218_2004,Interior Health,N,,,Y,21,19,N,,,-122.1593926,52.1520084
Nihal Maligaspe,Redwood Residence,Assisted Living,1901 Alder Rd,Quesnel,V2J 3T3,(778) 466-5400,https://connect.health.gov.bc.ca/assisted-living,http://www.bclaws.ca/civix/document/id/complete/statreg/02075_01,http://www.bclaws.ca/civix/document/id/complete/statreg/217_2004 http://www.bclaws.ca/civix/document/id/complete/statreg/218_2004,Northern Health,N,,,Y,1,10,N,,,-122.4562579,52.974107
Ross Place Seniors Residence Society,Ross Place Retirement Residence,Assisted Living,2638 Ross Lane,Victoria,V8T 5M4,(250) 361-2150,https://connect.health.gov.bc.ca/assisted-living,http://www.bclaws.ca/civix/document/id/complete/statreg/02075_01,http://www.bclaws.ca/civix/document/id/complete/statreg/217_2004 http://www.bclaws.ca/civix/document/id/complete/statreg/218_2004,Island Health,N,,,Y,40,0,N,,,-123.3654353,48.4376299
The Hamlets at Vernon Residence Inc,The Hamlets at Vernon,Assisted Living,3050 29 Ave,Vernon,V1T 9Y9,(236) 426-1488,https://connect.health.gov.bc.ca/assisted-living,http://www.bclaws.ca/civix/document/id/complete/statreg/02075_01,http://www.bclaws.ca/civix/document/id/complete/statreg/217_2004 http://www.bclaws.ca/civix/document/id/complete/statreg/218_2004,Interior Health,N,,,Y,0,20,N,,,-119.2714963,50.2628515
Saanich Senior Living Inc.,Amica on the Gorge,Assisted Living,994 Gorge Road W,Victoria,V9A 1P2,250-220-8000,https://connect.health.gov.bc.ca/assisted-living,http://www.bclaws.ca/civix/document/id/complete/statreg/02075_01,http://www.bclaws.ca/civix/document/id/complete/statreg/217_2004 http://www.bclaws.ca/civix/document/id/complete/statreg/218_2004,Island Health,N,,,Y,0,91,N,,,-123.4194668,48.4533074
Robert Cecil Jones,Pathway to Freedom House 5,Assisted Living,9101 Prince Charles Blvd,Surrey,V3V 1R9,778-888-7617,https://connect.health.gov.bc.ca/assisted-living,http://www.bclaws.ca/civix/document/id/complete/statreg/02075_01,http://www.bclaws.ca/civix/document/id/complete/statreg/217_2004 http://www.bclaws.ca/civix/document/id/complete/statreg/218_2004,Fraser Health,N,,,N,,,Y,5,0,-122.8614008,49.1681443
Pioneer Community Living Association,Lina's Place,Assisted Living,1307  - 1309 Sixth Ave,New Westminster,V3M 3C2,(604) 522-5390,https://connect.health.gov.bc.ca/assisted-living,http://www.bclaws.ca/civix/document/id/complete/statreg/02075_01,http://www.bclaws.ca/civix/document/id/complete/statreg/217_2004 http://www.bclaws.ca/civix/document/id/complete/statreg/218_2004,Fraser Health,Y,0,5,N,,,N,,,-122.9330402,49.2066339
Stepping Stones Recovery House for Women,Stepping Stones Recovery House for Women,Assisted Living,1535 Burgess Rd,Courtenay,V9N 5R8,(250) 897-0360,https://connect.health.gov.bc.ca/assisted-living,http://www.bclaws.ca/civix/document/id/complete/statreg/02075_01,http://www.bclaws.ca/civix/document/id/complete/statreg/217_2004 http://www.bclaws.ca/civix/document/id/complete/statreg/218_2004,Island Health,N,,,N,,,Y,2,2,-125.0094248,49.6765561
Tapestry WV Limited Partnership,Tapestry at Wesbrook Village,Assisted Living,3338 Wesbrook Mall,Vancouver,V6S 0A6,(604) 225-5000,https://connect.health.gov.bc.ca/assisted-living,http://www.bclaws.ca/civix/document/id/complete/statreg/02075_01,http://www.bclaws.ca/civix/document/id/complete/statreg/217_2004 http://www.bclaws.ca/civix/document/id/complete/statreg/218_2004,Vancouver Coastal,N,,,Y,0,20,N,,,-123.234744,49.2545548
Turning Points Collaborative Society,Bill's Place Addictions Recovery Program,Assisted Living,2504 - 43 Ave,Vernon,V1T 3K9,(250) 549-6144,https://connect.health.gov.bc.ca/assisted-living,http://www.bclaws.ca/civix/document/id/complete/statreg/02075_01,http://www.bclaws.ca/civix/document/id/complete/statreg/217_2004 http://www.bclaws.ca/civix/document/id/complete/statreg/218_2004,Interior Health,N,,,N,,,Y,0,12,-119.2650755,50.2745478
Back on Track,Back on Track Recovery - The Fortress Unit 2,Assisted Living,9889 140 St,Surrey,V3T 4M4,(778) 316-2625,https://connect.health.gov.bc.ca/assisted-living,http://www.bclaws.ca/civix/document/id/complete/statreg/02075_01,http://www.bclaws.ca/civix/document/id/complete/statreg/217_2004 http://www.bclaws.ca/civix/document/id/complete/statreg/218_2004,Fraser Health,N,,,N,,,Y,0,5,-122.8345193,49.1823321
Rosemary Heights Seniors Village 3 LLP,Rosemary Heights Seniors Village,Assisted Living,15240- 34th Ave,Surrey,V3S 2J9,(778) 545-5000,https://connect.health.gov.bc.ca/assisted-living,http://www.bclaws.ca/civix/document/id/complete/statreg/02075_01,http://www.bclaws.ca/civix/document/id/complete/statreg/217_2004 http://www.bclaws.ca/civix/document/id/complete/statreg/218_2004,Fraser Health,N,,,Y,42,21,N,,,-122.8006006,49.0635552
Selkirk Seniors Village 3 LLP,Selkirk Seniors Village,Assisted Living,385 Waterfront Crescent,Victoria,V8T 5K7,(250) 940-1028,https://connect.health.gov.bc.ca/assisted-living,http://www.bclaws.ca/civix/document/id/complete/statreg/02075_01,http://www.bclaws.ca/civix/document/id/complete/statreg/217_2004 http://www.bclaws.ca/civix/document/id/complete/statreg/218_2004,Island Health,N,,,Y,25,16,N,,,-123.3784494,48.4421823
Summerland Seniors 3 LLP,Summerland Seniors Village,Assisted Living,12803 Atkinson Road,Summerland,V0H 1Z4,(250) 404-4400,https://connect.health.gov.bc.ca/assisted-living,http://www.bclaws.ca/civix/document/id/complete/statreg/02075_01,http://www.bclaws.ca/civix/document/id/complete/statreg/217_2004 http://www.bclaws.ca/civix/document/id/complete/statreg/218_2004,Interior Health,N,,,Y,18,22,N,,,-119.6687918,49.6000554
Stanford Seniors Village 3 LLP,Stanford Seniors Village,Assisted Living,250 Craig Street,Parksville,V9P 0A7,(250) 951-0811,https://connect.health.gov.bc.ca/assisted-living,http://www.bclaws.ca/civix/document/id/complete/statreg/02075_01,http://www.bclaws.ca/civix/document/id/complete/statreg/217_2004 http://www.bclaws.ca/civix/document/id/complete/statreg/218_2004,Island Health,N,,,Y,23,29,N,,,-124.3111913,49.3163287
Tapestry AW Limited Partnership,Tapestry at Arbutus Walk,Assisted Living,2799 Yew Street,Vancouver,V6K 4W2,(604) 736-1640,https://connect.health.gov.bc.ca/assisted-living,http://www.bclaws.ca/civix/document/id/complete/statreg/02075_01,http://www.bclaws.ca/civix/document/id/complete/statreg/217_2004 http://www.bclaws.ca/civix/document/id/complete/statreg/218_2004,Vancouver Coastal,N,,,Y,0,30,N,,,-123.1558237,49.2615284
Baptist Housing Hallmark Society,Hallmark on the Park,Assisted Living,3055 Princess Street,Abbotsford,V2T 4A8,(604) 859-0053,https://connect.health.gov.bc.ca/assisted-living,http://www.bclaws.ca/civix/document/id/complete/statreg/02075_01,http://www.bclaws.ca/civix/document/id/complete/statreg/217_2004 http://www.bclaws.ca/civix/document/id/complete/statreg/218_2004,Fraser Health,N,,,Y,22,47,N,,,-122.34484,49.0571207
Into Action Recovery Society,Into Action House 2,Assisted Living,6293 Marine Drive,Burnaby,V3N 2Y2,(778) 231-8565,https://connect.health.gov.bc.ca/assisted-living,http://www.bclaws.ca/civix/document/id/complete/statreg/02075_01,http://www.bclaws.ca/civix/document/id/complete/statreg/217_2004 http://www.bclaws.ca/civix/document/id/complete/statreg/218_2004,Fraser Health,N,,,N,,,Y,10,0,-122.9625194,49.2028022
Wagner Hills Farm Society,Wagner Hills Women's Campus,Assisted Living,460 216th Street,Langley,V2Z 1R6,(604) 530-6228,https://connect.health.gov.bc.ca/assisted-living,http://www.bclaws.ca/civix/document/id/complete/statreg/02075_01,http://www.bclaws.ca/civix/document/id/complete/statreg/217_2004 http://www.bclaws.ca/civix/document/id/complete/statreg/218_2004,Fraser Health,N,,,N,,,Y,6,6,-122.6215432,49.0095434
Options Community Services Society,Blair House,Assisted Living,7902 139A St,Surrey,V3W 5H5,(604) 597-1943,https://connect.health.gov.bc.ca/assisted-living,http://www.bclaws.ca/civix/document/id/complete/statreg/02075_01,http://www.bclaws.ca/civix/document/id/complete/statreg/217_2004 http://www.bclaws.ca/civix/document/id/complete/statreg/218_2004,Fraser Health,Y,0,0,N,,,N,,,-122.8357029,49.1464159
1013779 BC LTD,Carefree Manor,Assisted Living,812 Cariboo Trail,100 Mile House,V0K 2E3,(250) 395-4807,https://connect.health.gov.bc.ca/assisted-living,http://www.bclaws.ca/civix/document/id/complete/statreg/02075_01,http://www.bclaws.ca/civix/document/id/complete/statreg/217_2004 http://www.bclaws.ca/civix/document/id/complete/statreg/218_2004,Interior Health,N,,,Y,17,3,N,,,-121.2975223,51.6335523
Our Place Society,Our Place Society Therapeutic Community,Assisted Living,94 Talcott Rd,View Royal,V9B 6L9,250-940-5080,https://connect.health.gov.bc.ca/assisted-living,http://www.bclaws.ca/civix/document/id/complete/statreg/02075_01,http://www.bclaws.ca/civix/document/id/complete/statreg/217_2004 http://www.bclaws.ca/civix/document/id/complete/statreg/218_2004,Island Health,N,,,N,,,Y,35,0,-123.4427413,48.463277
Penticton Recovery Resource Society,Discovery House-Winnipeg St,Assisted Living,633 Winnipeg Street,Penticton,V2A 5N1,(250) 490-3076,https://connect.health.gov.bc.ca/assisted-living,http://www.bclaws.ca/civix/document/id/complete/statreg/02075_01,http://www.bclaws.ca/civix/document/id/complete/statreg/217_2004 http://www.bclaws.ca/civix/document/id/complete/statreg/218_2004,Interior Health,N,,,N,,,Y,13,0,-119.5932079,49.4932916
Coast Foundation Society (1974),Coast Mental Health - Storeys,Assisted Living,8080 Anderson Road,Richmond,V6Y 0J5,(604) 376-2375,https://connect.health.gov.bc.ca/assisted-living,http://www.bclaws.ca/civix/document/id/complete/statreg/02075_01,http://www.bclaws.ca/civix/document/id/complete/statreg/217_2004 http://www.bclaws.ca/civix/document/id/complete/statreg/218_2004,Vancouver Coastal,Y,0,38,N,,,N,,,-123.1352502,49.1631212
Glenwood Seniors Community Partnership,Glenwood Seniors Community,Assisted Living,1458 Glenwood Drive,Agassiz,V0M 1A3,(604) 796-8778,https://connect.health.gov.bc.ca/assisted-living,http://www.bclaws.ca/civix/document/id/complete/statreg/02075_01,http://www.bclaws.ca/civix/document/id/complete/statreg/217_2004 http://www.bclaws.ca/civix/document/id/complete/statreg/218_2004,Fraser Health,N,,,Y,10,22,N,,,-121.7581786,49.2308549
Talitha Koum Society,Talitha Koum Society - Gianna House,Assisted Living,2941 Spuraway Ave,Coquitlam,V3C 2C6,(604) 475-3730,https://connect.health.gov.bc.ca/assisted-living,http://www.bclaws.ca/civix/document/id/complete/statreg/02075_01,http://www.bclaws.ca/civix/document/id/complete/statreg/217_2004 http://www.bclaws.ca/civix/document/id/complete/statreg/218_2004,Fraser Health,N,,,N,,,Y,6,0,-122.8097505,49.2626069
Prime Time (Abby Lane) Inc,Amica White Rock,Assisted Living,15333 16 Ave,Surrey,V4A 1R6,(778) 545-8800,https://connect.health.gov.bc.ca/assisted-living,http://www.bclaws.ca/civix/document/id/complete/statreg/02075_01,http://www.bclaws.ca/civix/document/id/complete/statreg/217_2004 http://www.bclaws.ca/civix/document/id/complete/statreg/218_2004,Fraser Health,N,,,Y,0,92,N,,,-122.7979723,49.0313216
PHS Community Services Society,Douglas Street Community Supportive Recovery,Assisted Living,2915 Douglas Street,Victoria,V8T 4M8,250-208-9870,https://connect.health.gov.bc.ca/assisted-living,http://www.bclaws.ca/civix/document/id/complete/statreg/02075_01,http://www.bclaws.ca/civix/document/id/complete/statreg/217_2004 http://www.bclaws.ca/civix/document/id/complete/statreg/218_2004,Island Health,N,,,N,,,Y,22,0,-123.3680714,48.4419158
Yahweh Saves Recovery Ministry,Joshua House - Chilliwack,Assisted Living,60550 Chilliwack Lake Rd,Chilliwack,V4Z 1A7,604-858-7279,https://connect.health.gov.bc.ca/assisted-living,http://www.bclaws.ca/civix/document/id/complete/statreg/02075_01,http://www.bclaws.ca/civix/document/id/complete/statreg/217_2004 http://www.bclaws.ca/civix/document/id/complete/statreg/218_2004,Fraser Health,N,,,N,,,Y,0,34,-121.5527538,49.1006691
1058016 BC LTD,Acorn Recovery Living,Assisted Living,6817 135A Street,Surrey,V3W 4X2,250-552-1552,https://connect.health.gov.bc.ca/assisted-living,http://www.bclaws.ca/civix/document/id/complete/statreg/02075_01,http://www.bclaws.ca/civix/document/id/complete/statreg/217_2004 http://www.bclaws.ca/civix/document/id/complete/statreg/218_2004,Fraser Health,N,,,N,,,Y,0,6,-122.8472991,49.1265815
333 Recovery Homes Society,333 Trinity Men's Recovery House,Assisted Living,333 11 Ave E,Prince Rupert,V8J 2W4,(250) 627-3093,https://connect.health.gov.bc.ca/assisted-living,http://www.bclaws.ca/civix/document/id/complete/statreg/02075_01,http://www.bclaws.ca/civix/document/id/complete/statreg/217_2004 http://www.bclaws.ca/civix/document/id/complete/statreg/218_2004,Northern Health,N,,,N,,,Y,5,0,-130.3089809,54.3128273
1041090 BC Ltd. (dba Parkside Community),Parkside Community (1041090 BC Ltd),Assisted Living,743 Okanagan Ave,Chase,V0E 1M0,(250) 679-4477,https://connect.health.gov.bc.ca/assisted-living,http://www.bclaws.ca/civix/document/id/complete/statreg/02075_01,http://www.bclaws.ca/civix/document/id/complete/statreg/217_2004 http://www.bclaws.ca/civix/document/id/complete/statreg/218_2004,Interior Health,N,,,Y,20,27,N,,,-119.6870947,50.818371
The Bridge Youth & Family Services,The Bridge Adult Supported Recovery,Assisted Living,760 Hwy 33 West,Kelowna,V1X 1Y4,(250) 763-0456,https://connect.health.gov.bc.ca/assisted-living,http://www.bclaws.ca/civix/document/id/complete/statreg/02075_01,http://www.bclaws.ca/civix/document/id/complete/statreg/217_2004 http://www.bclaws.ca/civix/document/id/complete/statreg/218_2004,Interior Health,N,,,N,,,Y,4,1,-119.4009594,49.8895254
Verve Senior Living,Granville Gardens Retirement,Assisted Living,"Suite 100, 1550 W 49 Ave",Vancouver,V6M 0B3,(604) 563-3540,https://connect.health.gov.bc.ca/assisted-living,http://www.bclaws.ca/civix/document/id/complete/statreg/02075_01,http://www.bclaws.ca/civix/document/id/complete/statreg/217_2004 http://www.bclaws.ca/civix/document/id/complete/statreg/218_2004,Vancouver Coastal,N,,,Y,0,30,N,,,-123.1404386,49.2265328
Casa Loma Seniors Village 3 LLP,Casa Loma Seniors Village,Assisted Living,4646 Headquarters Road,Courtenay,V9N 7J3,(250) 897-1033,https://connect.health.gov.bc.ca/assisted-living,http://www.bclaws.ca/civix/document/id/complete/statreg/02075_01,http://www.bclaws.ca/civix/document/id/complete/statreg/217_2004 http://www.bclaws.ca/civix/document/id/complete/statreg/218_2004,Island Health,N,,,Y,26,40,N,,,-124.9934349,49.7027566
Courtenay Seniors Village 3 LLP,Comox Valley Seniors Village,Assisted Living,4640 Headquarters Road,Courtenay,V9N 7J3,(250) 331-1183,https://connect.health.gov.bc.ca/assisted-living,http://www.bclaws.ca/civix/document/id/complete/statreg/02075_01,http://www.bclaws.ca/civix/document/id/complete/statreg/217_2004 http://www.bclaws.ca/civix/document/id/complete/statreg/218_2004,Island Health,N,,,Y,58,25,N,,,-124.9930277,49.7023661
Kamloops Seniors Village 3 LLP,Kamloops Seniors Village,Assisted Living,1220 Hugh Allan Drive,Kamloops,V1S 2B3,(250) 571-1800,https://connect.health.gov.bc.ca/assisted-living,http://www.bclaws.ca/civix/document/id/complete/statreg/02075_01,http://www.bclaws.ca/civix/document/id/complete/statreg/217_2004 http://www.bclaws.ca/civix/document/id/complete/statreg/218_2004,Interior Health,N,,,Y,0,51,N,,,-120.3729788,50.6499607
Back on Track Recovery LTD.,Back on Track Recovery - The Fortress Unit 4,Assisted Living,9889 140 St,Surrey,V3T 4M4,(778) 316-2625,https://connect.health.gov.bc.ca/assisted-living,http://www.bclaws.ca/civix/document/id/complete/statreg/02075_01,http://www.bclaws.ca/civix/document/id/complete/statreg/217_2004 http://www.bclaws.ca/civix/document/id/complete/statreg/218_2004,Fraser Health,N,,,N,,,Y,0,5,-122.8345193,49.1823321
Powell River Miklat Recovery House Society,Miklat House,Assisted Living,5298 McGuffie Ave,Powell River,V8A 3T6,(604) 483-6462,https://connect.health.gov.bc.ca/assisted-living,http://www.bclaws.ca/civix/document/id/complete/statreg/02075_01,http://www.bclaws.ca/civix/document/id/complete/statreg/217_2004 http://www.bclaws.ca/civix/document/id/complete/statreg/218_2004,Vancouver Coastal,N,,,N,,,Y,3,3,-124.5173367,49.8595597
Craftco Care Homes Inc,Country Roads Lodge,Assisted Living,11811 Sinclair Road,Summerland,V0H 1Z0,(778) 516-7447,https://connect.health.gov.bc.ca/assisted-living,http://www.bclaws.ca/civix/document/id/complete/statreg/02075_01,http://www.bclaws.ca/civix/document/id/complete/statreg/217_2004 http://www.bclaws.ca/civix/document/id/complete/statreg/218_2004,Interior Health,N,,,Y,0,10,N,,,-119.6888823,49.5963939
Berwick Retirement Qualicum Beach LTD.,Berwick Qualicum Beach,Assisted Living,120 First Avenue West,Qualicum Beach,V8K0B4,250-738-6200,https://connect.health.gov.bc.ca/assisted-living,http://www.bclaws.ca/civix/document/id/complete/statreg/02075_01,http://www.bclaws.ca/civix/document/id/complete/statreg/217_2004 http://www.bclaws.ca/civix/document/id/complete/statreg/218_2004,Island Health,N,,,Y,0,10,N,,,-124.4429948,49.3479396
The Salvation Army Addiction & Rehabilitation Centre (ARC),The Salvation Army ARC,Assisted Living,525 Johnson Street,Victoria,V8W 1M2,(250) 384-3396,https://connect.health.gov.bc.ca/assisted-living,http://www.bclaws.ca/civix/document/id/complete/statreg/02075_01,http://www.bclaws.ca/civix/document/id/complete/statreg/217_2004 http://www.bclaws.ca/civix/document/id/complete/statreg/218_2004,Island Health,N,,,N,,,Y,5,4,-123.3697996,48.4273495
Ruth and Naomi Mission,Oasis Residential Addiction Treatment Services for Women,Assisted Living,46129 Princess Ave,Chilliwack,V2P 2A8,(604) 795-2322,https://connect.health.gov.bc.ca/assisted-living,http://www.bclaws.ca/civix/document/id/complete/statreg/02075_01,http://www.bclaws.ca/civix/document/id/complete/statreg/217_2004 http://www.bclaws.ca/civix/document/id/complete/statreg/218_2004,Fraser Health,N,,,N,,,Y,6,0,-121.9482986,49.1709595
Berton Evertt,Suncrest Retirement Community - Manor Care (White Rock) Inc.,Assisted Living,2567 King George Blvd,Surrey,V4E 0P9,(604) 542-6200,https://connect.health.gov.bc.ca/assisted-living,http://www.bclaws.ca/civix/document/id/complete/statreg/02075_01,http://www.bclaws.ca/civix/document/id/complete/statreg/217_2004 http://www.bclaws.ca/civix/document/id/complete/statreg/218_2004,Fraser Health,N,,,Y,0,35,N,,,-122.7977862,49.0485655
Round Lake Alcohol And Drug Treatment Society,Round Lake Treatment Centre,Assisted Living,200 Emery Louis Rd.,Armstrong,V0E 1B5,(250) 546-3077,https://connect.health.gov.bc.ca/assisted-living,http://www.bclaws.ca/civix/document/id/complete/statreg/02075_01,http://www.bclaws.ca/civix/document/id/complete/statreg/217_2004 http://www.bclaws.ca/civix/document/id/complete/statreg/218_2004,Interior Health,N,,,N,,,Y,29,0,-119.1964935,50.4073547
Options Community Services Society,Nichol Place,Assisted Living,8048 -140 Street,Surrey,V3W 5K7,(604) 954-1260,https://connect.health.gov.bc.ca/assisted-living,http://www.bclaws.ca/civix/document/id/complete/statreg/02075_01,http://www.bclaws.ca/civix/document/id/complete/statreg/217_2004 http://www.bclaws.ca/civix/document/id/complete/statreg/218_2004,Fraser Health,Y,0,0,N,,,N,,,-122.8342764,49.1490501
Phoenix 4 Enterprises LTD.,The New Leaf Supportive Recovery,Assisted Living,4517 Redford St,Port Alberni,V9N 3P9,(250) 736-1235,https://connect.health.gov.bc.ca/assisted-living,http://www.bclaws.ca/civix/document/id/complete/statreg/02075_01,http://www.bclaws.ca/civix/document/id/complete/statreg/217_2004 http://www.bclaws.ca/civix/document/id/complete/statreg/218_2004,Island Health,N,,,N,,,Y,6,6,-124.8010783,49.2454824
Port Coquitlam Senior Citizens' Housing Society,Hawthorne Tower,Assisted Living,2111 Hawthorne Avenue,Port Coquitlam,V3C 1W3,(604) 941-4051,https://connect.health.gov.bc.ca/assisted-living,http://www.bclaws.ca/civix/document/id/complete/statreg/02075_01,http://www.bclaws.ca/civix/document/id/complete/statreg/217_2004 http://www.bclaws.ca/civix/document/id/complete/statreg/218_2004,Fraser Health,N,,,Y,70,0,N,,,-122.776622,49.2576762
New Day in the Peace Ministries,New Day in the Peace Ministries,Assisted Living,11095 - 255 Road,Fort Saint John,V1J 4M6,(250) 785-1008,https://connect.health.gov.bc.ca/assisted-living,http://www.bclaws.ca/civix/document/id/complete/statreg/02075_01,http://www.bclaws.ca/civix/document/id/complete/statreg/217_2004 http://www.bclaws.ca/civix/document/id/complete/statreg/218_2004,Northern Health,N,,,N,,,Y,7,0,-120.7129524,56.256545
Heritage Manor Ltd,Heritage Manor Ltd (Duncan),Assisted Living,5478 Normandy Rd,Duncan,V9L 6G4,(250) 748-3488,https://connect.health.gov.bc.ca/assisted-living,http://www.bclaws.ca/civix/document/id/complete/statreg/02075_01,http://www.bclaws.ca/civix/document/id/complete/statreg/217_2004 http://www.bclaws.ca/civix/document/id/complete/statreg/218_2004,Island Health,N,,,Y,0,6,N,,,-123.780408,48.7706677
Vancouver Resource Society,Lakeside Gardens,Assisted Living,4088 Wellesley Avenue,Nanaimo,V9T 6M2,250-756-0799,https://connect.health.gov.bc.ca/assisted-living,http://www.bclaws.ca/civix/document/id/complete/statreg/02075_01,http://www.bclaws.ca/civix/document/id/complete/statreg/217_2004 http://www.bclaws.ca/civix/document/id/complete/statreg/218_2004,Island Health,N,,,Y,0,30,N,,,-124.0151253,49.2091968
Back on Track Recovery LTD.,Back on Track Recovery - The Fortress Unit 3,Assisted Living,9889 140 St,Surrey,V3T 4M4,(778) 649-2625,https://connect.health.gov.bc.ca/assisted-living,http://www.bclaws.ca/civix/document/id/complete/statreg/02075_01,http://www.bclaws.ca/civix/document/id/complete/statreg/217_2004 http://www.bclaws.ca/civix/document/id/complete/statreg/218_2004,Fraser Health,N,,,N,,,Y,0,5,-122.8345193,49.1823321
HP Saltspring Assisted Living Ltd,Heritage Place for Seniors,Assisted Living,120 Crofton Road,Salt Spring Island,V8K 2Y4,250-537-8340,https://connect.health.gov.bc.ca/assisted-living,http://www.bclaws.ca/civix/document/id/complete/statreg/02075_01,http://www.bclaws.ca/civix/document/id/complete/statreg/217_2004 http://www.bclaws.ca/civix/document/id/complete/statreg/218_2004,Island Health,N,,,Y,0,27,N,,,-123.5096787,48.8609482
Shuswap Lodge Seniors Residence Society,Shuswap Lodge Retirement Residence,Assisted Living,200 Trans Canada Highway SW,Salmon Arm,V1E 4P6,(250) 832-7081,https://connect.health.gov.bc.ca/assisted-living,http://www.bclaws.ca/civix/document/id/complete/statreg/02075_01,http://www.bclaws.ca/civix/document/id/complete/statreg/217_2004 http://www.bclaws.ca/civix/document/id/complete/statreg/218_2004,Interior Health,N,,,Y,0,62,N,,,-119.2872131,50.6991521
Waverly Seniors Village 3 LLP,Waverly Seniors Village,Assisted Living,8445 Young Road,Chilliwack,V2P 4P2,(604) 792-6340,https://connect.health.gov.bc.ca/assisted-living,http://www.bclaws.ca/civix/document/id/complete/statreg/02075_01,http://www.bclaws.ca/civix/document/id/complete/statreg/217_2004 http://www.bclaws.ca/civix/document/id/complete/statreg/218_2004,Fraser Health,N,,,Y,27,23,N,,,-121.9530152,49.1557196
The Bridge Youth & Family Services,Johnson House,Assisted Living,1001 Johnson Rd.,Penticton,V2A 1W3,(250) 763-0456,https://connect.health.gov.bc.ca/assisted-living,http://www.bclaws.ca/civix/document/id/complete/statreg/02075_01,http://www.bclaws.ca/civix/document/id/complete/statreg/217_2004 http://www.bclaws.ca/civix/document/id/complete/statreg/218_2004,Interior Health,N,,,N,,,Y,4,0,-119.5759523,49.4979332
The Bridge Youth & Family Services,Nanaimo House,Assisted Living,123 Nanaimo St,Penticton,V2A 1M3,(250) 763-0456,https://connect.health.gov.bc.ca/assisted-living,http://www.bclaws.ca/civix/document/id/complete/statreg/02075_01,http://www.bclaws.ca/civix/document/id/complete/statreg/217_2004 http://www.bclaws.ca/civix/document/id/complete/statreg/218_2004,Interior Health,N,,,N,,,Y,6,0,-119.5901941,49.4992201
Verve Senior Living,The Village Langley,Assisted Living,3920 198 Street,Langley,V3A 1E1,(604) 427-3755,https://connect.health.gov.bc.ca/assisted-living,http://www.bclaws.ca/civix/document/id/complete/statreg/02075_01,http://www.bclaws.ca/civix/document/id/complete/statreg/217_2004 http://www.bclaws.ca/civix/document/id/complete/statreg/218_2004,Fraser Health,N,,,Y,0,52,N,,,-122.6729662,49.0732499
Recovery Works Treatment Centres Ltd.,Recovery Works,Assisted Living,647 Niagra Street,Victoria,V8V 1J1,778-430-1212,https://connect.health.gov.bc.ca/assisted-living,http://www.bclaws.ca/civix/document/id/complete/statreg/02075_01,http://www.bclaws.ca/civix/document/id/complete/statreg/217_2004 http://www.bclaws.ca/civix/document/id/complete/statreg/218_2004,Island Health,N,,,N,,,Y,0,0,-123.3705516,48.4111532
Westminster House Society,Supportive Recovery Transition Program,Assisted Living,705 Queens Avenue,New Westminster,V3M 1L3,(604) 524-5633,https://connect.health.gov.bc.ca/assisted-living,http://www.bclaws.ca/civix/document/id/complete/statreg/02075_01,http://www.bclaws.ca/civix/document/id/complete/statreg/217_2004 http://www.bclaws.ca/civix/document/id/complete/statreg/218_2004,Fraser Health,N,,,N,,,Y,8,0,-122.9148761,49.2063586
Changing Addictive Attitudes Recovery Society of BC,Reaching Out - 65th Ave,Assisted Living,668 East 65th Ave,Vancouver,V5X2P8,(778) 997-0270,https://connect.health.gov.bc.ca/assisted-living,http://www.bclaws.ca/civix/document/id/complete/statreg/02075_01,http://www.bclaws.ca/civix/document/id/complete/statreg/217_2004 http://www.bclaws.ca/civix/document/id/complete/statreg/218_2004,Vancouver Coastal,N,,,N,,,Y,7,0,-123.0920818,49.2115831
Lookout Housing and Health Society,Carr's Place,Assisted Living,13802-13804 Grosvenor Rd.,Surrey,V3R 5E7,(604) 255-0340,https://connect.health.gov.bc.ca/assisted-living,http://www.bclaws.ca/civix/document/id/complete/statreg/02075_01,http://www.bclaws.ca/civix/document/id/complete/statreg/217_2004 http://www.bclaws.ca/civix/document/id/complete/statreg/218_2004,Fraser Health,Y,0,0,N,,,N,,,-122.8392644,49.202104
Qualicum Gardens Senior Living,The Gardens at Qualicum Beach,Assisted Living,650 Berwick Road North,Qualicum Beach,V2K 2T8,250-752-2818,https://connect.health.gov.bc.ca/assisted-living,http://www.bclaws.ca/civix/document/id/complete/statreg/02075_01,http://www.bclaws.ca/civix/document/id/complete/statreg/217_2004 http://www.bclaws.ca/civix/document/id/complete/statreg/218_2004,Island Health,N,,,Y,30,70,N,,,-124.437858,49.3481266
Comox Valley Transition Society,Amethyst House,Assisted Living,280 2nd Street,Courtenay,V9N 1B7,(250) 871-2570,https://connect.health.gov.bc.ca/assisted-living,http://www.bclaws.ca/civix/document/id/complete/statreg/02075_01,http://www.bclaws.ca/civix/document/id/complete/statreg/217_2004 http://www.bclaws.ca/civix/document/id/complete/statreg/218_2004,Island Health,N,,,N,,,Y,12,0,-124.9999224,49.6931376
Horizon Health Care LTD.,Maria Sol House (14129),Assisted Living,14129 Grosvenor Rd,Surrey,V3R 5G9,(778) 318-2855,https://connect.health.gov.bc.ca/assisted-living,http://www.bclaws.ca/civix/document/id/complete/statreg/02075_01,http://www.bclaws.ca/civix/document/id/complete/statreg/217_2004 http://www.bclaws.ca/civix/document/id/complete/statreg/218_2004,Fraser Health,Y,5,0,N,,,N,,,-122.830547,49.2071907
Horizon Health Care LTD.,Maria Sol House (14131),Assisted Living,14131 Grosvenor Rd,Surrey,V3R 5GN,(778) 318-2855,https://connect.health.gov.bc.ca/assisted-living,http://www.bclaws.ca/civix/document/id/complete/statreg/02075_01,http://www.bclaws.ca/civix/document/id/complete/statreg/217_2004 http://www.bclaws.ca/civix/document/id/complete/statreg/218_2004,Fraser Health,Y,5,0,N,,,N,,,-122.830547,49.2071907
Teskey Road to Recovery Society,Teskey Road to Recovery,Assisted Living,5048 Teskey Road,Chilliwack,V2R 5V6,(604) 824-8172,https://connect.health.gov.bc.ca/assisted-living,http://www.bclaws.ca/civix/document/id/complete/statreg/02075_01,http://www.bclaws.ca/civix/document/id/complete/statreg/217_2004 http://www.bclaws.ca/civix/document/id/complete/statreg/218_2004,Fraser Health,N,,,N,,,Y,11,1,-121.9489835,49.0965274
Trillium (Sidney) Holdings,The Peninsula,Assisted Living,2290 Henry Ave,Sidney,V8L 2B2,(250) 656-8827,https://connect.health.gov.bc.ca/assisted-living,http://www.bclaws.ca/civix/document/id/complete/statreg/02075_01,http://www.bclaws.ca/civix/document/id/complete/statreg/217_2004 http://www.bclaws.ca/civix/document/id/complete/statreg/218_2004,Island Health,N,,,Y,0,30,N,,,-123.404781,48.6538644
Andover Terrace Housing Society,Andover Terrace,Assisted Living,2110 Lakeshore Rd NE,Salmon Arm,V1E 3X9,(250) 832-6686,https://connect.health.gov.bc.ca/assisted-living,http://www.bclaws.ca/civix/document/id/complete/statreg/02075_01,http://www.bclaws.ca/civix/document/id/complete/statreg/217_2004 http://www.bclaws.ca/civix/document/id/complete/statreg/218_2004,Interior Health,N,,,Y,0,40,N,,,-119.262517,50.7151831
Squamish Helping Hands Society,Under One Roof,Assisted Living,37871 Third Avenue,Squamish,V8B 0R2,(604) 815-4984,https://connect.health.gov.bc.ca/assisted-living,http://www.bclaws.ca/civix/document/id/complete/statreg/02075_01,http://www.bclaws.ca/civix/document/id/complete/statreg/217_2004 http://www.bclaws.ca/civix/document/id/complete/statreg/218_2004,Vancouver Coastal,N,,,N,,,Y,15,5,-123.1579917,49.6969175
Vancouver Island Health Authority,Stabilization Unit House 1,Assisted Living,914 McClure St,Victoria,V8V 3E7,(250) 361-9550,https://connect.health.gov.bc.ca/assisted-living,http://www.bclaws.ca/civix/document/id/complete/statreg/02075_01,http://www.bclaws.ca/civix/document/id/complete/statreg/217_2004 http://www.bclaws.ca/civix/document/id/complete/statreg/218_2004,Island Health,N,,,N,,,Y,0,6,-123.3593621,48.4209572
Vancouver Island Health Authority,Stabilization Unit House 2,Assisted Living,924 McClure St,Victoria,V8V 3E7,(250) 361-9550,https://connect.health.gov.bc.ca/assisted-living,http://www.bclaws.ca/civix/document/id/complete/statreg/02075_01,http://www.bclaws.ca/civix/document/id/complete/statreg/217_2004 http://www.bclaws.ca/civix/document/id/complete/statreg/218_2004,Island Health,N,,,N,,,Y,0,9,-123.3589224,48.4210995
Turning Points Collaborative Society,Haven Place,Assisted Living,2500-43 Avenue,Vernon,V1T 9S8,(250)309-4616,https://connect.health.gov.bc.ca/assisted-living,http://www.bclaws.ca/civix/document/id/complete/statreg/02075_01,http://www.bclaws.ca/civix/document/id/complete/statreg/217_2004 http://www.bclaws.ca/civix/document/id/complete/statreg/218_2004,Interior Health,N,,,N,,,Y,8,0,-119.2646384,50.2745482
Options Community Services Society,Maple House,Assisted Living,1360 Maple St,White Rock,V4B 4M9,(604) 584-5811,https://connect.health.gov.bc.ca/assisted-living,http://www.bclaws.ca/civix/document/id/complete/statreg/02075_01,http://www.bclaws.ca/civix/document/id/complete/statreg/217_2004 http://www.bclaws.ca/civix/document/id/complete/statreg/218_2004,Fraser Health,Y,0,0,N,,,N,,,-122.7883584,49.0267895
Fraserside Community Services Society,Summit House,Assisted Living,1530 Coquitlam Ave,Port Coquitlam,V3C 2Z7,(604) 475-3412,https://connect.health.gov.bc.ca/assisted-living,http://www.bclaws.ca/civix/document/id/complete/statreg/02075_01,http://www.bclaws.ca/civix/document/id/complete/statreg/217_2004 http://www.bclaws.ca/civix/document/id/complete/statreg/218_2004,Fraser Health,Y,10,0,N,,,N,,,-122.7569006,49.2671936
Nanaimo John Howard Society,Vancouver Island Therapeutic Community - John Howard,Assisted Living,2368 Rosstown Rd,Nanaimo,V9T 3R7,(250) 758-5611,https://connect.health.gov.bc.ca/assisted-living,http://www.bclaws.ca/civix/document/id/complete/statreg/02075_01,http://www.bclaws.ca/civix/document/id/complete/statreg/217_2004 http://www.bclaws.ca/civix/document/id/complete/statreg/218_2004,Island Health,N,,,N,,,Y,8,2,-124.0007094,49.1964594
ASK Wellness Society,ASK Wellness Society - Maverick Manor,Assisted Living,1250 Hillside Crt.,Kamloops,V2C 6R3,(250) 376-7558,https://connect.health.gov.bc.ca/assisted-living,http://www.bclaws.ca/civix/document/id/complete/statreg/02075_01,http://www.bclaws.ca/civix/document/id/complete/statreg/217_2004 http://www.bclaws.ca/civix/document/id/complete/statreg/218_2004,Interior Health,N,,,N,,,Y,27,0,-120.3648204,50.6552431
Quesnel Shelter and Support Society,Bridges Supportive Housing,Assisted Living,355 Elliot St,Quesnel,V2J 1Y5,(778) 414-1229,https://connect.health.gov.bc.ca/assisted-living,http://www.bclaws.ca/civix/document/id/complete/statreg/02075_01,http://www.bclaws.ca/civix/document/id/complete/statreg/217_2004 http://www.bclaws.ca/civix/document/id/complete/statreg/218_2004,Northern Health,N,,,N,,,Y,4,0,-122.5042589,52.9772975
Adult & Teen Challenge Society of BC,Patricia Hope House,Assisted Living,19465 16th Ave,Surrey,V3Z 9V2,(604) 575-3930,https://connect.health.gov.bc.ca/assisted-living,http://www.bclaws.ca/civix/document/id/complete/statreg/02075_01,http://www.bclaws.ca/civix/document/id/complete/statreg/217_2004 http://www.bclaws.ca/civix/document/id/complete/statreg/218_2004,Fraser Health,N,,,N,,,Y,6,0,-122.6841919,49.0312823
Mosaic Seniors Care Society,Gateway Assisted Living,Assisted Living,13787 100 Ave,Surrey,V3T 5E4,(604) 585-2906,https://connect.health.gov.bc.ca/assisted-living,http://www.bclaws.ca/civix/document/id/complete/statreg/02075_01,http://www.bclaws.ca/civix/document/id/complete/statreg/217_2004 http://www.bclaws.ca/civix/document/id/complete/statreg/218_2004,Fraser Health,N,,,Y,60,0,N,,,-122.840396,49.1844599
Cheryl Buchanan,New Story Community,Assisted Living,Lot #52 Keats Road,Keats Island,BC,(250) 715-8225,https://connect.health.gov.bc.ca/assisted-living,http://www.bclaws.ca/civix/document/id/complete/statreg/02075_01,http://www.bclaws.ca/civix/document/id/complete/statreg/217_2004 http://www.bclaws.ca/civix/document/id/complete/statreg/218_2004,Vancouver Coastal,N,,,N,,,Y,3,0,-123.4609506,49.3979062
Back on Track Recovery Society,Back on Track - Robin's Nest,Assisted Living,4456 - 184th Street,Surrey,V3S 0L5,(778) 316-2625,https://connect.health.gov.bc.ca/assisted-living,http://www.bclaws.ca/civix/document/id/complete/statreg/02075_01,http://www.bclaws.ca/civix/document/id/complete/statreg/217_2004 http://www.bclaws.ca/civix/document/id/complete/statreg/218_2004,Fraser Health,N,,,N,,,Y,6,0,-122.7128816,49.0834008
Port Alberni Shelter Society,PASS TRC,Assisted Living,725 Franklin River Road,Port Alberni,V0R 1M0,(250) 723-6511,https://connect.health.gov.bc.ca/assisted-living,http://www.bclaws.ca/civix/document/id/complete/statreg/02075_01,http://www.bclaws.ca/civix/document/id/complete/statreg/217_2004 http://www.bclaws.ca/civix/document/id/complete/statreg/218_2004,Island Health,N,,,N,,,Y,0,6,-124.7595041,49.1979687
