idx,facility_name,grade_range,ISCED010,ISCED020,ISCED1,ISCED2,ISCED3,authority_type,address_str,street_addr,city,postal_code,province,provider,address_str_clean,street_no,street_name
0,HOLY GHOST SCHOOL,K-8,0,1,1,1,0,ARCH. OF WINNIPEG CATHOLIC SCHOOLS,319 SELKIRK AVENUE WINNIPEG R2W 2L8 MB,319 SELKIRK AVENUE,WINNIPEG,R2W 2L8,MB,Province of Manitoba,319 selkirk avenue winnipeg r2w 2l8 mb,319,selkirk avenue
1,OUR LADY OF VICTORY SCHOOL,K-8,0,1,1,1,0,ARCH. OF WINNIPEG CATHOLIC SCHOOLS,249 ARNOLD AVENUE WINNIPEG R3L 0W4 MB,249 ARNOLD AVENUE,WINNIPEG,R3L 0W4,MB,Province of Manitoba,249 arnold avenue winnipeg r3l 0w4 mb,249,arnold avenue
2,ST. CHARLES INTERPAROCHIAL SCHOOL,K-8,0,1,1,1,0,ARCH. OF WINNIPEG CATHOLIC SCHOOLS,331 ST. CHARLES STREET WINNIPEG R3K 1T6 MB,331 ST. CHARLES STREET,WINNIPEG,R3K 1T6,MB,Province of Manitoba,331 st charles street winnipeg r3k 1t6 mb,331,st charles street
3,ST. EDWARD'S SCHOOL,K-6,0,1,1,0,0,ARCH. OF WINNIPEG CATHOLIC SCHOOLS,836 ARLINGTON STREET WINNIPEG R3E 2E4 MB,836 ARLINGTON STREET,WINNIPEG,R3E 2E4,MB,Province of Manitoba,836 arlington street winnipeg r3e 2e4 mb,836,arlington street
4,ST. IGNATIUS SCHOOL,N-8,1,1,1,1,0,ARCH. OF WINNIPEG CATHOLIC SCHOOLS,239 HARROW STREET WINNIPEG R3M 2Y3 MB,239 HARROW STREET,WINNIPEG,R3M 2Y3,MB,Province of Manitoba,239 harrow street winnipeg r3m 2y3 mb,239,harrow street
5,ST. JOHN BREBEUF SCHOOL,K-8,0,1,1,1,0,ARCH. OF WINNIPEG CATHOLIC SCHOOLS,605 RENFREW STREET WINNIPEG R3N 1J8 MB,605 RENFREW STREET,WINNIPEG,R3N 1J8,MB,Province of Manitoba,605 renfrew street winnipeg r3n 1j8 mb,605,renfrew street
6,ST. MARY'S ACADEMY,7-12,0,0,0,1,1,ARCH. OF WINNIPEG CATHOLIC SCHOOLS,550 WELLINGTON CRESCENT WINNIPEG R3M 0C1 MB,550 WELLINGTON CRESCENT,WINNIPEG,R3M 0C1,MB,Province of Manitoba,550 wellington crescent winnipeg r3m 0c1 mb,550,wellington crescent
7,ST. MAURICE SCHOOL,K-12,0,1,1,1,1,ARCH. OF WINNIPEG CATHOLIC SCHOOLS,1639 PEMBINA HIGHWAY WINNIPEG R3T 2G6 MB,1639 PEMBINA HIGHWAY,WINNIPEG,R3T 2G6,MB,Province of Manitoba,1639 pembina highway winnipeg r3t 2g6 mb,1639,pembina highway
8,ST. PAUL'S HIGH SCHOOL,9-12,0,0,0,1,1,ARCH. OF WINNIPEG CATHOLIC SCHOOLS,2200 GRANT AVENUE WINNIPEG R3P 0P8 MB,2200 GRANT AVENUE,WINNIPEG,R3P 0P8,MB,Province of Manitoba,2200 grant avenue winnipeg r3p 0p8 mb,2200,grant avenue
9,ACADIA COLONY SCHOOL,K-12,0,1,1,1,1,BEAUTIFUL PLAINS SCHOOL DIVISION,BOX 358 CARBERRY R0K 0H0 MB,BOX 358,CARBERRY,R0K 0H0,MB,Province of Manitoba,carberry r0k 0h0 mb,,carberry
10,BROOKDALE SCHOOL,K-8,0,1,1,1,0,BEAUTIFUL PLAINS SCHOOL DIVISION,GENERAL DELIVERY BROOKDALE R0K 0G0 MB,GENERAL DELIVERY,BROOKDALE,R0K 0G0,MB,Province of Manitoba,general delivery brookdale r0k 0g0 mb,,general delivery brookdale
11,CARBERRY COLLEGIATE,5-12,0,0,1,1,1,BEAUTIFUL PLAINS SCHOOL DIVISION,BOX 518 CARBERRY R0K 0H0 MB,BOX 518,CARBERRY,R0K 0H0,MB,Province of Manitoba,carberry r0k 0h0 mb,,carberry
12,FAIRWAY COLONY SCHOOL,K-12,0,1,1,1,1,BEAUTIFUL PLAINS SCHOOL DIVISION,P.O.BOX 330 DOUGLAS R0K 0R0 MB,P.O.BOX 330,DOUGLAS,R0K 0R0,MB,Province of Manitoba,pobox 330 douglas r0k 0r0 mb,,
13,HAZEL M. KELLINGTON SCHOOL,K-5,0,1,1,0,0,BEAUTIFUL PLAINS SCHOOL DIVISION,BOX 696 NEEPAWA R0J 1H0 MB,BOX 696,NEEPAWA,R0J 1H0,MB,Province of Manitoba,neepawa r0j 1h0 mb,,
14,J. M. YOUNG SCHOOL,K-8,0,1,1,1,0,BEAUTIFUL PLAINS SCHOOL DIVISION,GENERAL DELIVERY EDEN R0J 0M0 MB,GENERAL DELIVERY,EDEN,R0J 0M0,MB,Province of Manitoba,general delivery eden r0j 0m0 mb,,general delivery eden
15,NEEPAWA AREA COLLEGIATE,6-12,0,0,1,1,1,BEAUTIFUL PLAINS SCHOOL DIVISION,BOX 430 NEEPAWA R0J 1H0 MB,BOX 430,NEEPAWA,R0J 1H0,MB,Province of Manitoba,neepawa r0j 1h0 mb,,
16,NEEPAWA MIDDLE SCHOOL,5-8,0,0,1,1,0,BEAUTIFUL PLAINS SCHOOL DIVISION,275 HOSPITAL STREET NEEPAWA R0J 1H0 MB,275 HOSPITAL STREET,NEEPAWA,R0J 1H0,MB,Province of Manitoba,275 hospital street neepawa r0j 1h0 mb,275,hospital street
17,R. J. WAUGH ELEMENTARY,K-4,0,1,1,0,0,BEAUTIFUL PLAINS SCHOOL DIVISION,BOX 639 CARBERRY R0K 0H0 MB,BOX 639,CARBERRY,R0K 0H0,MB,Province of Manitoba,carberry r0k 0h0 mb,,carberry
18,RIVERBEND COLONY SCHOOL,K-12,0,1,1,1,1,BEAUTIFUL PLAINS SCHOOL DIVISION,RIVERBEND COLONY BOX 344 CARBERRY R0K 0H0 MB,RIVERBEND COLONY,CARBERRY,R0K 0H0,MB,Province of Manitoba,riverbend colony carberry r0k 0h0 mb,,riverbend colony carberry
19,RIVERSIDE COLONY SCHOOL,K-12,0,1,1,1,1,BEAUTIFUL PLAINS SCHOOL DIVISION,RIVERSIDE COLONY BOX 1360 NEEPAWA R0J 1H0 MB,RIVERSIDE COLONY,NEEPAWA,R0J 1H0,MB,Province of Manitoba,riverside colony neepawa r0j 1h0 mb,,
20,ROLLING ACRES SCHOOL,K-12,0,1,1,1,1,BEAUTIFUL PLAINS SCHOOL DIVISION,BOX 38 BIRNIE R0J 0J0 MB,BOX 38,BIRNIE,R0J 0J0,MB,Province of Manitoba,birnie r0j 0j0 mb,,
21,SPRUCE WOODS SCHOOL,K-12,0,1,1,1,1,BEAUTIFUL PLAINS SCHOOL DIVISION,SPRUCE WOODS COLONY BROOKDALE R0K 0G0 MB,SPRUCE WOODS COLONY,BROOKDALE,R0K 0G0,MB,Province of Manitoba,spruce woods colony brookdale r0k 0g0 mb,,spruce woods colony brookdale
22,TWILIGHT COLONY SCHOOL,K-12,0,1,1,1,1,BEAUTIFUL PLAINS SCHOOL DIVISION,BOX 2380 NEEPAWA R0J 1H0 MB,BOX 2380,NEEPAWA,R0J 1H0,MB,Province of Manitoba,neepawa r0j 1h0 mb,,
23,WILLERTON SCHOOL,K-12,0,1,1,1,1,BEAUTIFUL PLAINS SCHOOL DIVISION,SPRINGHILL COLONY BOX 1930 NEEPAWA R0J 1H0 MB,SPRINGHILL COLONY,NEEPAWA,R0J 1H0,MB,Province of Manitoba,springhill colony neepawa r0j 1h0 mb,,springhill colony
24,BLUE CLAY COLONY SCHOOL,K-12,0,1,1,1,1,BORDER LAND SCHOOL DIVISION,BOX 220 DOMINION CITY R0A 0H0 MB,BOX 220,DOMINION CITY,R0A 0H0,MB,Province of Manitoba,dominion city r0a 0h0 mb,,
25,ÉCOLE ELMWOOD SCHOOL,K-3,0,1,1,0,0,BORDER LAND SCHOOL DIVISION,27 - 4TH STREET S.W. ALTONA R0G 0B2 MB,27 - 4TH STREET S.W.,ALTONA,R0G 0B2,MB,Province of Manitoba,27 4th street sw altona r0g 0b2 mb,27,4th street sw
26,ÉCOLE PARKSIDE SCHOOL,7-8,0,0,0,1,0,BORDER LAND SCHOOL DIVISION,155 - 5TH STREET N.W. ALTONA R0G 0B1 MB,155 - 5TH STREET N.W.,ALTONA,R0G 0B1,MB,Province of Manitoba,155 5th street nw altona r0g 0b1 mb,155,5th street nw
27,ÉCOLE WEST PARK SCHOOL,4-6,0,0,1,0,0,BORDER LAND SCHOOL DIVISION,83 - 3RD STREET N.W. ALTONA R0G 0B1 MB,83 - 3RD STREET N.W.,ALTONA,R0G 0B1,MB,Province of Manitoba,83 3rd street nw altona r0g 0b1 mb,83,3rd street nw
28,EMERSON ELEMENTARY,K-8,0,1,1,1,0,BORDER LAND SCHOOL DIVISION,BOX 422 EMERSON R0A 0L0 MB,BOX 422,EMERSON,R0A 0L0,MB,Province of Manitoba,emerson r0a 0l0 mb,,
29,GLENWAY COLONY SCHOOL,K-12,0,1,1,1,1,BORDER LAND SCHOOL DIVISION,GLENWAY COLONY BOX 291 DOMINION CITY R0A 0H0 MB,GLENWAY COLONY,DOMINION CITY,R0A 0H0,MB,Province of Manitoba,glenway colony dominion city r0a 0h0 mb,,glenway colony
30,GREEN RIDGE SCHOOL,K-12,0,1,1,1,1,BORDER LAND SCHOOL DIVISION,BOX 156 DOMINION CITY R0A 0H0 MB,BOX 156,DOMINION CITY,R0A 0H0,MB,Province of Manitoba,dominion city r0a 0h0 mb,,
31,GRETNA ELEMENTARY,K-8,0,1,1,1,0,BORDER LAND SCHOOL DIVISION,BOX 90 GRETNA R0G 0V0 MB,BOX 90,GRETNA,R0G 0V0,MB,Province of Manitoba,gretna r0g 0v0 mb,,
32,HORIZON COLONY SCHOOL,K-12,0,1,1,1,1,BORDER LAND SCHOOL DIVISION,120 - 9TH STREET NW ALTONA R0G 0B1 MB,120 - 9TH STREET NW,ALTONA,R0G 0B1,MB,Province of Manitoba,120 9th street nw altona r0g 0b1 mb,120,9th street nw
33,PINELAND COLONY SCHOOL,K-12,0,1,1,1,1,BORDER LAND SCHOOL DIVISION,BOX 39 PINEY R0A 1K0 MB,BOX 39,PINEY,R0A 1K0,MB,Province of Manitoba,piney r0a 1k0 mb,,
34,RIDGEVILLE COLONY SCHOOL,K-12,0,1,1,1,1,BORDER LAND SCHOOL DIVISION,BOX 10 DOMINION CITY R0A 0H0 MB,BOX 10,DOMINION CITY,R0A 0H0,MB,Province of Manitoba,dominion city r0a 0h0 mb,,
35,ROSEAU VALLEY SCHOOL,K-12,0,1,1,1,1,BORDER LAND SCHOOL DIVISION,BOX 176 DOMINION CITY R0A 0H0 MB,BOX 176,DOMINION CITY,R0A 0H0,MB,Province of Manitoba,dominion city r0a 0h0 mb,,
36,ROSENFELD ELEMENTARY,K-6,0,1,1,0,0,BORDER LAND SCHOOL DIVISION,BOX 33 ROSENFELD R0G 1X0 MB,BOX 33,ROSENFELD,R0G 1X0,MB,Province of Manitoba,rosenfeld r0g 1x0 mb,,
37,ROSS L. GRAY SCHOOL,K-12,0,1,1,1,1,BORDER LAND SCHOOL DIVISION,GENERAL DELIVERY SPRAGUE R0A 1Z0 MB,GENERAL DELIVERY,SPRAGUE,R0A 1Z0,MB,Province of Manitoba,general delivery sprague r0a 1z0 mb,,general delivery
38,SHEVCHENKO SCHOOL,K-12,0,1,1,1,1,BORDER LAND SCHOOL DIVISION,BOX 1000 VITA R0A 2K0 MB,BOX 1000,VITA,R0A 2K0,MB,Province of Manitoba,vita r0a 2k0 mb,,
39,W. C. MILLER COLLEGIATE,9-12,0,0,0,1,1,BORDER LAND SCHOOL DIVISION,181 - 6TH STREET S.E. ALTONA R0G 0B3 MB,181 - 6TH STREET S.E.,ALTONA,R0G 0B3,MB,Province of Manitoba,181 6th street se altona r0g 0b3 mb,181,6th street se
40,ALEXANDER SCHOOL,K-8,0,1,1,1,0,BRANDON SCHOOL DIVISION,BOX 21 ALEXANDER R0K 0A0 MB,BOX 21,ALEXANDER,R0K 0A0,MB,Province of Manitoba,alexander r0k 0a0 mb,,
41,BETTY GIBSON SCHOOL,K-8,0,1,1,1,0,BRANDON SCHOOL DIVISION,701 - 12TH STREET BRANDON R7A 6H7 MB,701 - 12TH STREET,BRANDON,R7A 6H7,MB,Province of Manitoba,701 12th street brandon r7a 6h7 mb,701,12th street
42,CROCUS PLAINS REGIONAL SECONDARY,9-12,0,0,0,1,1,BRANDON SCHOOL DIVISION,1930 - 1ST STREET BRANDON R7A 6Y6 MB,1930 - 1ST STREET,BRANDON,R7A 6Y6,MB,Province of Manitoba,1930 1st street brandon r7a 6y6 mb,1930,1st street
43,EARL OXFORD SCHOOL,K-8,0,1,1,1,0,BRANDON SCHOOL DIVISION,540 - 18TH STREET BRANDON R7A 5B2 MB,540 - 18TH STREET,BRANDON,R7A 5B2,MB,Province of Manitoba,540 18th street brandon r7a 5b2 mb,540,18th street
44,ÉCOLE HARRISON,K-8,0,1,1,1,0,BRANDON SCHOOL DIVISION,415 AVENUE QUEENS BRANDON R7A 1K9 MB,415 AVENUE QUEENS,BRANDON,R7A 1K9,MB,Province of Manitoba,415 avenue queens brandon r7a 1k9 mb,415,avenue
45,GEORGE FITTON SCHOOL,K-8,0,1,1,1,0,BRANDON SCHOOL DIVISION,1129 - 3RD STREET BRANDON R7A 3E7 MB,1129 - 3RD STREET,BRANDON,R7A 3E7,MB,Province of Manitoba,1129 3rd street brandon r7a 3e7 mb,1129,3rd street
46,GREEN ACRES SCHOOL,K-8,0,1,1,1,0,BRANDON SCHOOL DIVISION,335 QUEENS AVENUE EAST BRANDON R7A 2B9 MB,335 QUEENS AVENUE EAST,BRANDON,R7A 2B9,MB,Province of Manitoba,335 queens avenue east brandon r7a 2b9 mb,335,queens avenue east
47,J. R. REID SCHOOL,K-8,0,1,1,1,0,BRANDON SCHOOL DIVISION,813 - 26TH STREET BRANDON R7B 2B6 MB,813 - 26TH STREET,BRANDON,R7B 2B6,MB,Province of Manitoba,813 26th street brandon r7b 2b6 mb,813,26th street
48,KING GEORGE SCHOOL,K-8,0,1,1,1,0,BRANDON SCHOOL DIVISION,535 PARK STREET BRANDON R7A 6M6 MB,535 PARK STREET,BRANDON,R7A 6M6,MB,Province of Manitoba,535 park street brandon r7a 6m6 mb,535,park street
49,KIRKCALDY HEIGHTS SCHOOL,K-8,0,1,1,1,0,BRANDON SCHOOL DIVISION,10 KNOWLTON DRIVE BRANDON R7A 6N7 MB,10 KNOWLTON DRIVE,BRANDON,R7A 6N7,MB,Province of Manitoba,10 knowlton drive brandon r7a 6n7 mb,10,knowlton drive
50,LINDEN LANES SCHOOL,K-8,0,1,1,1,0,BRANDON SCHOOL DIVISION,49 SILVER BIRCH DRIVE BRANDON R7B 1A8 MB,49 SILVER BIRCH DRIVE,BRANDON,R7B 1A8,MB,Province of Manitoba,49 silver birch drive brandon r7b 1a8 mb,49,silver birch drive
51,MEADOWS SCHOOL,K-8,0,1,1,1,0,BRANDON SCHOOL DIVISION,1220 - 22ND STREET BRANDON R7B 1T4 MB,1220 - 22ND STREET,BRANDON,R7B 1T4,MB,Province of Manitoba,1220 22nd street brandon r7b 1t4 mb,1220,22nd street
52,NEELIN HIGH,9-12,0,0,0,1,1,BRANDON SCHOOL DIVISION,1020 BRANDON AVENUE BRANDON R7A 1K6 MB,1020 BRANDON AVENUE,BRANDON,R7A 1K6,MB,Province of Manitoba,1020 brandon avenue brandon r7a 1k6 mb,1020,brandon avenue
53,NEW ERA SCHOOL,K-8,0,1,1,1,0,BRANDON SCHOOL DIVISION,527 LOUISE AVENUE BRANDON R7A 0X1 MB,527 LOUISE AVENUE,BRANDON,R7A 0X1,MB,Province of Manitoba,527 louise avenue brandon r7a 0x1 mb,527,louise avenue
54,O'KELLY SCHOOL,K-8,0,1,1,1,0,BRANDON SCHOOL DIVISION,BOX 70 C.F.B.SHILO SHILO R0K 2A0 MB,BOX 70,SHILO,R0K 2A0,MB,Province of Manitoba,cfbshilo shilo r0k 2a0 mb,,
55,RIVERHEIGHTS SCHOOL,K-8,0,1,1,1,0,BRANDON SCHOOL DIVISION,32 E FOTHERINGHAM DRIVE BRANDON R7B 3G3 MB,32 E FOTHERINGHAM DRIVE,BRANDON,R7B 3G3,MB,Province of Manitoba,32 e fotheringham drive brandon r7b 3g3 mb,32,e fotheringham drive
56,RIVERVIEW SCHOOL,K-6,0,1,1,0,0,BRANDON SCHOOL DIVISION,1105 LOUISE AVENUE EAST BRANDON R7A 1Y2 MB,1105 LOUISE AVENUE EAST,BRANDON,R7A 1Y2,MB,Province of Manitoba,1105 louise avenue east brandon r7a 1y2 mb,1105,louise avenue east
57,SPRING VALLEY COLONY SCHOOL,K-12,0,1,1,1,1,BRANDON SCHOOL DIVISION,SPRING VALLEY COLONY C/O 1031-6TH STREET BRANDON R7A 4K5 MB,SPRING VALLEY COLONY,BRANDON,R7A 4K5,MB,Province of Manitoba,spring valley colony c/o 1031 6th street brandon r7a 4k5 mb,,c/o 1031 6th street
58,ST. AUGUSTINE SCHOOL,K-8,0,1,1,1,0,BRANDON SCHOOL DIVISION,330 3RD ST BRANDON R7A 3C3 MB,330 3RD ST,BRANDON,R7A 3C3,MB,Province of Manitoba,330 3rd st brandon r7a 3c3 mb,330,3rd st brandon
59,VALLEYVIEW CENTENNIAL SCHOOL,K-7,0,1,1,1,0,BRANDON SCHOOL DIVISION,65 WHILLIER DRIVE BRANDON R7B 0X8 MB,65 WHILLIER DRIVE,BRANDON,R7B 0X8,MB,Province of Manitoba,65 whillier drive brandon r7b 0x8 mb,65,whillier drive
60,VINCENT MASSEY HIGH,9-12,0,0,0,1,1,BRANDON SCHOOL DIVISION,715 MCDIARMID DRIVE BRANDON R7B 2H7 MB,715 MCDIARMID DRIVE,BRANDON,R7B 2H7,MB,Province of Manitoba,715 mcdiarmid drive brandon r7b 2h7 mb,715,mcdiarmid drive
61,WAVERLY PARK SCHOOL,K-8,0,1,1,1,0,BRANDON SCHOOL DIVISION,3800 PARK AVENUE BRANDON R7B 3X2 MB,3800 PARK AVENUE,BRANDON,R7B 3X2,MB,Province of Manitoba,3800 park avenue brandon r7b 3x2 mb,3800,park avenue
62,CHRIST THE KING SCHOOL,N-8,1,1,1,1,0,CATHOLIC SCHOOLS COMMISSION,12 LENNOX AVENUE WINNIPEG R2M 1A6 MB,12 LENNOX AVENUE,WINNIPEG,R2M 1A6,MB,Province of Manitoba,12 lennox avenue winnipeg r2m 1a6 mb,12,lennox avenue
63,HOLY CROSS SCHOOL,K-8,0,1,1,1,0,CATHOLIC SCHOOLS COMMISSION,300 DUBUC STREET WINNIPEG R2H 1E4 MB,300 DUBUC STREET,WINNIPEG,R2H 1E4,MB,Province of Manitoba,300 dubuc street winnipeg r2h 1e4 mb,300,dubuc street
64,IMMACULATE HEART OF MARY SCHOOL,N-8,1,1,1,1,0,CATHOLIC SCHOOLS COMMISSION,650 FLORA AVENUE WINNIPEG R2W 2S5 MB,650 FLORA AVENUE,WINNIPEG,R2W 2S5,MB,Province of Manitoba,650 flora avenue winnipeg r2w 2s5 mb,650,flora avenue
65,ST. ALPHONSUS SCHOOL,K-8,0,1,1,1,0,CATHOLIC SCHOOLS COMMISSION,343 MUNROE AVENUE WINNIPEG R2K 1H2 MB,343 MUNROE AVENUE,WINNIPEG,R2K 1H2,MB,Province of Manitoba,343 munroe avenue winnipeg r2k 1h2 mb,343,munroe avenue
66,ST. BONIFACE DIOCESAN HIGH SCHOOL,9-12,0,0,0,1,1,CATHOLIC SCHOOLS COMMISSION,282 DUBUC STREET WINNIPEG R2H 1E4 MB,282 DUBUC STREET,WINNIPEG,R2H 1E4,MB,Province of Manitoba,282 dubuc street winnipeg r2h 1e4 mb,282,dubuc street
67,ST. EMILE SCHOOL,K-8,0,1,1,1,0,CATHOLIC SCHOOLS COMMISSION,552 ST. ANNE'S ROAD WINNIPEG R2M 3G4 MB,552 ST. ANNE'S ROAD,WINNIPEG,R2M 3G4,MB,Province of Manitoba,552 st anne's road winnipeg r2m 3g4 mb,552,st anne's road
68,ST. GERARD SCHOOL,N-8,1,1,1,1,0,CATHOLIC SCHOOLS COMMISSION,40 FOSTER STREET WINNIPEG R2L 1V7 MB,40 FOSTER STREET,WINNIPEG,R2L 1V7,MB,Province of Manitoba,40 foster street winnipeg r2l 1v7 mb,40,foster street
69,ST. JOSEPH THE WORKER SCHOOL,N-6,1,1,1,0,0,CATHOLIC SCHOOLS COMMISSION,505 BREWSTER STREET WINNIPEG R2C 2W6 MB,505 BREWSTER STREET,WINNIPEG,R2C 2W6,MB,Province of Manitoba,505 brewster street winnipeg r2c 2w6 mb,505,brewster street
70,CENTRE SCOLAIRE LÉO-RÉMILLARD,9-12,0,0,0,1,1,DIVISION SCOLAIRE FRANCO-MANITOBAINE,1095 CHEMIN SAINTE-ANNE WINNIPEG R2N 4G5 MB,1095 CHEMIN SAINTE-ANNE,WINNIPEG,R2N 4G5,MB,Province of Manitoba,1095 chemin sainte anne winnipeg r2n 4g5 mb,1095,chemin sainte anne
71,COLLÈGE LOUIS-RIEL,7-12,0,0,0,1,1,DIVISION SCOLAIRE FRANCO-MANITOBAINE,585 RUE ST-JEAN-BAPTISTE SAINT-BONIFACE R2H 2Y2 MB,585 RUE ST-JEAN-BAPTISTE,SAINT-BONIFACE,R2H 2Y2,MB,Province of Manitoba,585 rue st jean baptiste saint boniface r2h 2y2 mb,585,rue st jean baptiste
72,ÉCOLE CHRISTINE-LESPÉRANCE,M-8,0,1,1,1,0,DIVISION SCOLAIRE FRANCO-MANITOBAINE,425 CHEMIN JOHN FORSYTH WINNIPEG R2N 4J3 MB,425 CHEMIN JOHN FORSYTH,WINNIPEG,R2N 4J3,MB,Province of Manitoba,425 chemin john forsyth winnipeg r2n 4j3 mb,425,chemin john forsyth
73,ÉCOLE COMMUNAUTAIRE AURÈLE-LEMOINE,M-12,0,1,1,1,1,DIVISION SCOLAIRE FRANCO-MANITOBAINE,"CASE POSTALE 900 81, CHEM.DES ANC. COMBATTANTS SAINT-LAURENT R0C 2S0 MB",CASE POSTALE 900,SAINT-LAURENT,R0C 2S0,MB,Province of Manitoba,case postale 900 81 chemdes anc combattants saint laurent r0c 2s0 mb,,anc combattants
74,ÉCOLE COMMUNAUTAIRE GILBERT-ROSSET,N-12,1,1,1,1,1,DIVISION SCOLAIRE FRANCO-MANITOBAINE,CASE POSTALE 147 108 AVENUE BÉRIAULT SAINT-CLAUDE R0G 1Z0 MB,CASE POSTALE 147,SAINT-CLAUDE,R0G 1Z0,MB,Province of Manitoba,case postale 147 108 avenue bériault saint claude r0g 1z0 mb,108,avenue bériault
75,ÉCOLE COMMUNAUTAIRE LA VOIE DU NORD,M-10,0,1,1,1,1,DIVISION SCOLAIRE FRANCO-MANITOBAINE,CASE POSTALE 1223 STATION MAIN 271 CHEMIN WEIR THOMPSON R8N 1P1 MB,CASE POSTALE 1223 STATION MAIN,THOMPSON,R8N 1P1,MB,Province of Manitoba,case postale 1223 station main 271 chemin weir thompson r8n 1p1 mb,271,chemin weir thompson
76,ÉCOLE COMMUNAUTAIRE RÉAL-BÉRARD,M-12,0,1,1,1,1,DIVISION SCOLAIRE FRANCO-MANITOBAINE,CASE POSTALE 490 377 RUE SABOURIN SAINT-PIERRE-JOLYS R0A 1V0 MB,CASE POSTALE 490,SAINT-PIERRE-JOLYS,R0A 1V0,MB,Province of Manitoba,case postale 490 377 rue sabourin saint pierre jolys r0a 1v0 mb,377,rue sabourin saint pierre
77,ÉCOLE COMMUNAUTAIRE SAINT-GEORGES,N-12,1,1,1,1,1,DIVISION SCOLAIRE FRANCO-MANITOBAINE,CASE POSTALE 159 14 BAIE CARON SAINT-GEORGES R0E 1V0 MB,CASE POSTALE 159,SAINT-GEORGES,R0E 1V0,MB,Province of Manitoba,case postale 159 14 baie caron saint georges r0e 1v0 mb,14,baie caron
78,ÉCOLE JOURS DE PLAINE,N-12,1,1,1,1,1,DIVISION SCOLAIRE FRANCO-MANITOBAINE,CASE POSTALE 135 283 - ROUTE PROV. 480 LAURIER R0J 1A0 MB,CASE POSTALE 135,LAURIER,R0J 1A0,MB,Province of Manitoba,case postale 135 283 route prov 480 laurier r0j 1a0 mb,480,laurier
79,ÉCOLE LA SOURCE,M-12,0,1,1,1,1,DIVISION SCOLAIRE FRANCO-MANITOBAINE,CASE POSTALE 240 T-102 AVENUE ST. BARBARA SHILO R0K 2A0 MB,CASE POSTALE 240,SHILO,R0K 2A0,MB,Province of Manitoba,case postale 240 t 102 avenue st barbara shilo r0k 2a0 mb,,t 102 avenue st barbara shilo
80,ÉCOLE LACERTE,M-8,0,1,1,1,0,DIVISION SCOLAIRE FRANCO-MANITOBAINE,1101 PROMENADE AUTUMNWOOD SAINT-BONIFACE R2J 1C8 MB,1101 PROMENADE AUTUMNWOOD,SAINT-BONIFACE,R2J 1C8,MB,Province of Manitoba,1101 promenade autumnwood saint boniface r2j 1c8 mb,1101,promenade autumnwood saint boniface
81,ÉCOLE LAGIMODIÈRE,M-8,0,1,1,1,0,DIVISION SCOLAIRE FRANCO-MANITOBAINE,CASE POSTALE 130 361 RUE SENEZ LORETTE R0A 0Y0 MB,CASE POSTALE 130,LORETTE,R0A 0Y0,MB,Province of Manitoba,case postale 130 361 rue senez lorette r0a 0y0 mb,361,rue senez
82,ÉCOLE NOËL-RITCHOT,M-8,0,1,1,1,0,DIVISION SCOLAIRE FRANCO-MANITOBAINE,45 AVENUE DE LA DIGUE SAINT-NORBERT R3V 1M7 MB,45 AVENUE DE LA DIGUE,SAINT-NORBERT,R3V 1M7,MB,Province of Manitoba,45 avenue de la digue saint norbert r3v 1m7 mb,45,avenue de la digue
83,ÉCOLE POINTE-DES-CHÊNES,M-12,0,1,1,1,1,DIVISION SCOLAIRE FRANCO-MANITOBAINE,90 CHEMIN ARENA SAINTE-ANNE R5H 1G6 MB,90 CHEMIN ARENA,SAINTE-ANNE,R5H 1G6,MB,Province of Manitoba,90 chemin arena sainte anne r5h 1g6 mb,90,chemin arena
84,ÉCOLE PRÉCIEUX-SANG,M-8,0,1,1,1,0,DIVISION SCOLAIRE FRANCO-MANITOBAINE,209 RUE KENNY SAINT-BONIFACE R2H 2E5 MB,209 RUE KENNY,SAINT-BONIFACE,R2H 2E5,MB,Province of Manitoba,209 rue kenny saint boniface r2h 2e5 mb,209,rue kenny
85,ÉCOLE RÉGIONALE NOTRE-DAME,M-12,0,1,1,1,1,DIVISION SCOLAIRE FRANCO-MANITOBAINE,CASE POSTALE 250 45 AVENUE NOTRE-DAME OUEST N.-D.-DE-LOURDES R0G 1M0 MB,CASE POSTALE 250,N.-D.-DE-LOURDES,R0G 1M0,MB,Province of Manitoba,case postale 250 45 avenue notre dame ouest n d de lourdes r0g 1m0 mb,45,avenue notre dame ouest
86,ÉCOLE RÉGIONALE SAINT-JEAN-BAPTISTE,M-12,0,1,1,1,1,DIVISION SCOLAIRE FRANCO-MANITOBAINE,"CASE POSTALE 130 113, 2E AVENUE SAINT-JEAN-BAPTISTE R0G 2B0 MB",CASE POSTALE 130,SAINT-JEAN-BAPTISTE,R0G 2B0,MB,Province of Manitoba,case postale 130 113 2e avenue saint jean baptiste r0g 2b0 mb,113,2e avenue
87,ÉCOLE ROMÉO-DALLAIRE,M-9,0,1,1,1,0,DIVISION SCOLAIRE FRANCO-MANITOBAINE,81 CHEMIN QUAIL RIDGE WINNIPEG R2Y 2A9 MB,81 CHEMIN QUAIL RIDGE,WINNIPEG,R2Y 2A9,MB,Province of Manitoba,81 chemin quail ridge winnipeg r2y 2a9 mb,81,chemin quail ridge
88,ÉCOLE SAINT-JOACHIM,M-12,0,1,1,1,1,DIVISION SCOLAIRE FRANCO-MANITOBAINE,CASE POSTALE 10 29 BAIE NORMANDEAU LA BROQUERIE R0A 0W0 MB,CASE POSTALE 10,LA BROQUERIE,R0A 0W0,MB,Province of Manitoba,case postale 10 29 baie normandeau la broquerie r0a 0w0 mb,29,baie normandeau
89,ÉCOLE SAINT-LAZARE,N-12,1,1,1,1,1,DIVISION SCOLAIRE FRANCO-MANITOBAINE,CASE POSTALE 70 116 AVENUE CHARTIER EST SAINT-LAZARE R0M 1Y0 MB,CASE POSTALE 70,SAINT-LAZARE,R0M 1Y0,MB,Province of Manitoba,case postale 70 116 avenue chartier est saint lazare r0m 1y0 mb,116,avenue chartier est
90,ÉCOLE SAINTE-AGATHE,M-8,0,1,1,1,0,DIVISION SCOLAIRE FRANCO-MANITOBAINE,CASE POSTALE 240 310 CHEMIN PEMBINA TRAIL SAINTE-AGATHE R0G 1Y0 MB,CASE POSTALE 240,SAINTE-AGATHE,R0G 1Y0,MB,Province of Manitoba,case postale 240 310 chemin pembina trail sainte agathe r0g 1y0 mb,310,chemin pembina trail
91,ÉCOLE TACHÉ,M-6,0,1,1,0,0,DIVISION SCOLAIRE FRANCO-MANITOBAINE,744 RUE LANGEVIN SAINT-BONIFACE R2H 2W7 MB,744 RUE LANGEVIN,SAINT-BONIFACE,R2H 2W7,MB,Province of Manitoba,744 rue langevin saint boniface r2h 2w7 mb,744,rue langevin
92,ÉCOLE/COLL. RÉG. GABRIELLE-ROY,N-12,1,1,1,1,1,DIVISION SCOLAIRE FRANCO-MANITOBAINE,310 A CHEMIN LAMOUREUX ÎLE DES CHÊNES R0A 0T1 MB,310 A CHEMIN LAMOUREUX,ÎLE DES CHÊNES,R0A 0T1,MB,Province of Manitoba,310 a chemin lamoureux île des chênes r0a 0t1 mb,310 a,chemin lamoureux île des chênes r0a
93,BRANDON SCHOOL DIVISION SUMMER SCHOOL,9-12,0,0,0,1,1,"EVENING, SUMMER & VIRTUAL SCHOOLS",C/O CROCUS PLAINS HIGH SCHOOL 1930 - 1ST STREET BRANDON R7A 6Y6 MB,C/O CROCUS PLAINS HIGH SCHOOL,BRANDON,R7A 6Y6,MB,Province of Manitoba,c/o crocus plains high school 1930 1st street brandon r7a 6y6 mb,1930,1st street
94,DISTANCE LEARNING UNIT,9-12,0,0,0,1,1,"EVENING, SUMMER & VIRTUAL SCHOOLS",MAIN PLAZA 555 MAIN STREET WINKLER R6W 1C4 MB,MAIN PLAZA,WINKLER,R6W 1C4,MB,Province of Manitoba,main plaza 555 main street winkler r6w 1c4 mb,555,main street winkler
95,INFORM NET,9-12,0,0,0,1,1,"EVENING, SUMMER & VIRTUAL SCHOOLS",181 HENLOW BAY WINNIPEG R3Y 1M7 MB,181 HENLOW BAY,WINNIPEG,R3Y 1M7,MB,Province of Manitoba,181 henlow bay winnipeg r3y 1m7 mb,181,henlow bay
96,NELSON MCINTYRE COLL. SUMMER SCHOOL,9-12,0,0,0,1,1,"EVENING, SUMMER & VIRTUAL SCHOOLS",188 ST. MARY'S ROAD WINNIPEG R2H 1H9 MB,188 ST. MARY'S ROAD,WINNIPEG,R2H 1H9,MB,Province of Manitoba,188 st mary's road winnipeg r2h 1h9 mb,188,st mary's road
97,SEVEN OAKS S.D. SUMMER SCHOOL,9-12,0,0,0,1,1,"EVENING, SUMMER & VIRTUAL SCHOOLS",C/O MAPLES COLL. I.T. CENTRE 2ND FLOOR-1330 JEFFERSON AVE. WINNIPEG R2P 1L3 MB,C/O MAPLES COLL. I.T. CENTRE,WINNIPEG,R2P 1L3,MB,Province of Manitoba,c/o maples coll it centre 2nd floor 1330 jefferson ave winnipeg r2p 1l3 mb,1330,jefferson ave
98,ST. JAMES-ASSINIBOIA SUMMER SCHOOL,9-12,0,0,0,1,1,"EVENING, SUMMER & VIRTUAL SCHOOLS",ST. JAMES COLLEGIATE 1900 PORTAGE AVENUE WINNIPEG R3J 0J1 MB,ST. JAMES COLLEGIATE,WINNIPEG,R3J 0J1,MB,Province of Manitoba,st james collegiate 1900 portage avenue winnipeg r3j 0j1 mb,1900,portage avenue
99,TURTLE MOUNTAIN SCH. DIV. SUMMER SCHOOL,9-12,0,0,0,1,1,"EVENING, SUMMER & VIRTUAL SCHOOLS",BOX 280 KILLARNEY R0K 1G0 MB,BOX 280,KILLARNEY,R0K 1G0,MB,Province of Manitoba,killarney r0k 1g0 mb,,
100,UNIV. OF WINNIPEG COLL. SUMMER SCHOOL,10-12,0,0,0,0,1,"EVENING, SUMMER & VIRTUAL SCHOOLS",2W04-515 PORTAGE AVENUE WINNIPEG R3B 2E9 MB,2W04-515 PORTAGE AVENUE,WINNIPEG,R3B 2E9,MB,Province of Manitoba,2w04 515 portage avenue winnipeg r3b 2e9 mb,515,portage avenue
101,WAPASKWA VIRTUAL COLLEGIATE,7-12,0,0,0,1,1,"EVENING, SUMMER & VIRTUAL SCHOOLS",C/O MFNERC 2 - 1100 WAVERLEY STREET WINNIPEG R3T 3X9 MB,C/O MFNERC,WINNIPEG,R3T 3X9,MB,Province of Manitoba,c/o mfnerc 2 1100 waverley street winnipeg r3t 3x9 mb,1100,waverley street
102,WINNIPEG S.D. SUMMER SCHOOL,10-12,0,0,0,0,1,"EVENING, SUMMER & VIRTUAL SCHOOLS",401 CHURCH AVENUE WINNIPEG R2W 1C4 MB,401 CHURCH AVENUE,WINNIPEG,R2W 1C4,MB,Province of Manitoba,401 church avenue winnipeg r2w 1c4 mb,401,church avenue
103,ARBORG COLLEGIATE,9-12,0,0,0,1,1,EVERGREEN SCHOOL DIVISION,BOX 220 461 ST. PETER STREET ARBORG R0C 0A0 MB,BOX 220,ARBORG,R0C 0A0,MB,Province of Manitoba,461 st peter street arborg r0c 0a0 mb,461,st peter street arborg
104,ARBORG EARLY/MIDDLE YEARS SCHOOL,K-8,0,1,1,1,0,EVERGREEN SCHOOL DIVISION,BOX 670 ARBORG R0C 0A0 MB,BOX 670,ARBORG,R0C 0A0,MB,Province of Manitoba,arborg r0c 0a0 mb,,arborg
105,DR. GEORGE JOHNSON MIDDLE SCHOOL,5-8,0,0,1,1,0,EVERGREEN SCHOOL DIVISION,BOX 1170 GIMLI R0C 1B0 MB,BOX 1170,GIMLI,R0C 1B0,MB,Province of Manitoba,gimli r0c 1b0 mb,,
106,GIMLI HIGH SCHOOL,9-12,0,0,0,1,1,EVERGREEN SCHOOL DIVISION,BOX 1260 GIMLI R0C 1B0 MB,BOX 1260,GIMLI,R0C 1B0,MB,Province of Manitoba,gimli r0c 1b0 mb,,
107,RIVERTON COLLEGIATE,8-12,0,0,0,1,1,EVERGREEN SCHOOL DIVISION,BOX 749 RIVERTON R0C 2R0 MB,BOX 749,RIVERTON,R0C 2R0,MB,Province of Manitoba,riverton r0c 2r0 mb,,
108,RIVERTON EARLY MIDDLE YEARS SCHOOL,K-8,0,1,1,1,0,EVERGREEN SCHOOL DIVISION,BOX 280 RIVERTON R0C 2R0 MB,BOX 280,RIVERTON,R0C 2R0,MB,Province of Manitoba,riverton r0c 2r0 mb,,
109,SIGURBJORG STEFANSSON EARLY SCHOOL,K-4,0,1,1,0,0,EVERGREEN SCHOOL DIVISION,BOX 7500 GIMLI R0C 1B0 MB,BOX 7500,GIMLI,R0C 1B0,MB,Province of Manitoba,gimli r0c 1b0 mb,,
110,WINNIPEG BEACH SCHOOL,K-8,0,1,1,1,0,EVERGREEN SCHOOL DIVISION,BOX 130 WINNIPEG BEACH R0C 3G0 MB,BOX 130,WINNIPEG BEACH,R0C 3G0,MB,Province of Manitoba,winnipeg beach r0c 3g0 mb,,
111,'72 MEMORIAL HIGH SCHOOL,7-12,0,0,0,1,1,FIRST NATIONS SCHOOLS,GENERAL DELIVERY OXFORD HOUSE R0B 1C0 MB,GENERAL DELIVERY,OXFORD HOUSE,R0B 1C0,MB,Province of Manitoba,general delivery oxford house r0b 1c0 mb,,
112,ABBALAK THUNDERSWIFT MEMORIAL SCHOOL,N-9,1,1,1,1,0,FIRST NATIONS SCHOOLS,BOX 160 LITTLE GRAND RAPIDS R0B 0V0 MB,BOX 160,LITTLE GRAND RAPIDS,R0B 0V0,MB,Province of Manitoba,little grand rapids r0b 0v0 mb,,
113,AMOS OKEMOW MEMORIAL SCHOOL,N-11,1,1,1,1,1,FIRST NATIONS SCHOOLS,BOX 103 GOD'S RIVER R0B 0N0 MB,BOX 103,GOD'S RIVER,R0B 0N0,MB,Province of Manitoba,god's river r0b 0n0 mb,,
114,ANICINABE COMMUNITY SCHOOL,N-3,1,1,1,0,0,FIRST NATIONS SCHOOLS,BOX 219 PINE FALLS R0E 1M0 MB,BOX 219,PINE FALLS,R0E 1M0,MB,Province of Manitoba,pine falls r0e 1m0 mb,,
115,CHARLES SINCLAIR SCHOOL,N-6,1,1,1,0,0,FIRST NATIONS SCHOOLS,BOX 109 KOOSTATAK R0C 1S0 MB,BOX 109,KOOSTATAK,R0C 1S0,MB,Province of Manitoba,koostatak r0c 1s0 mb,,
116,CHEMAWAWIN SCHOOL,N-12,1,1,1,1,1,FIRST NATIONS SCHOOLS,BOX 10 EASTERVILLE R0C 0V0 MB,BOX 10,EASTERVILLE,R0C 0V0,MB,Province of Manitoba,easterville r0c 0v0 mb,,
117,CHIEF CHARLES THOMAS AUDY MEMORIAL SCH.,N-8,1,1,1,1,0,FIRST NATIONS SCHOOLS,BOX 307 BIRCH RIVER R0L 0E0 MB,BOX 307,BIRCH RIVER,R0L 0E0,MB,Province of Manitoba,birch river r0l 0e0 mb,,
118,CHIEF CLIFFORD LYNXLEG ANISHINABE SCHOOL,N-7,1,1,1,1,0,FIRST NATIONS SCHOOLS,VALLEY RIVER RESERVE SHORTDALE R0L 1W0 MB,VALLEY RIVER RESERVE,SHORTDALE,R0L 1W0,MB,Province of Manitoba,valley river reserve shortdale r0l 1w0 mb,,
119,CHIEF SAM COOK MAHMUWEE EDUCATION CENTRE,N-12,1,1,1,1,1,FIRST NATIONS SCHOOLS,GENERAL DELIVERY SPLIT LAKE R0B 1P0 MB,GENERAL DELIVERY,SPLIT LAKE,R0B 1P0,MB,Province of Manitoba,general delivery split lake r0b 1p0 mb,,general delivery
120,DONALD AHMO SCHOOL,N-8,1,1,1,1,0,FIRST NATIONS SCHOOLS,GENERAL DELIVERY CRANE RIVER R0L 0M0 MB,GENERAL DELIVERY,CRANE RIVER,R0L 0M0,MB,Province of Manitoba,general delivery crane river r0l 0m0 mb,,general delivery
121,EBB AND FLOW SCHOOL,N-12,1,1,1,1,1,FIRST NATIONS SCHOOLS,GENERAL DELIVERY EBB AND FLOW R0L 0R0 MB,GENERAL DELIVERY,EBB AND FLOW,R0L 0R0,MB,Province of Manitoba,general delivery ebb and flow r0l 0r0 mb,,general delivery
122,FISHER RIVER HIGH SCHOOL,7-12,0,0,0,1,1,FIRST NATIONS SCHOOLS,"P.O. BOX 360, LOT 78 FISHER RIVER R0C 1S0 MB","P.O. BOX 360, LOT 78",FISHER RIVER,R0C 1S0,MB,Province of Manitoba,lot 78 fisher river r0c 1s0 mb,,
123,FOX LAKE SCHOOL,N-8,1,1,1,1,0,FIRST NATIONS SCHOOLS,P.O. BOX 279 GILLAM R0B 0L0 MB,P.O. BOX 279,GILLAM,R0B 0L0,MB,Province of Manitoba,gillam r0b 0l0 mb,,gillam
124,GARDEN HILL FIRST NATIONS HIGH SCHOOL,7-12,0,0,0,1,1,FIRST NATIONS SCHOOLS,GENERAL DELIVERY ISLAND LAKE R0B 0T0 MB,GENERAL DELIVERY,ISLAND LAKE,R0B 0T0,MB,Province of Manitoba,general delivery island lake r0b 0t0 mb,,general delivery
125,GEORGE KNOTT SCHOOL,N-12,1,1,1,1,1,FIRST NATIONS SCHOOLS,GENERAL DELIVERY WAASAGOMACH R0B 1Z0 MB,GENERAL DELIVERY,WAASAGOMACH,R0B 1Z0,MB,Province of Manitoba,general delivery waasagomach r0b 1z0 mb,,general delivery waasagomach
126,GEORGE SAUNDERS MEMORIAL SCHOOL,N-8,1,1,1,1,0,FIRST NATIONS SCHOOLS,GENERAL DELIVERY P.O. BOX 255 YORK LANDING R0B 2B0 MB,GENERAL DELIVERY,YORK LANDING,R0B 2B0,MB,Province of Manitoba,general delivery york landing r0b 2b0 mb,,general delivery
127,GINEW SCHOOL,N-8,1,1,1,1,0,FIRST NATIONS SCHOOLS,BOX 10 GINEW R0A 2R0 MB,BOX 10,GINEW,R0A 2R0,MB,Province of Manitoba,ginew r0a 2r0 mb,,
128,GOD'S LAKE NARROWS FIRST NATION SCHOOL,N-9,1,1,1,1,0,FIRST NATIONS SCHOOLS,GENERAL DELIVERY GOD'S LAKE NARROWS R0B 0M0 MB,GENERAL DELIVERY,GOD'S LAKE NARROWS,R0B 0M0,MB,Province of Manitoba,general delivery god's lake narrows r0b 0m0 mb,,general delivery god's lake narrows
129,INDIAN SPRINGS SCHOOL,N-8,1,1,1,1,0,FIRST NATIONS SCHOOLS,BOX 145 SWAN LAKE R0G 2S0 MB,BOX 145,SWAN LAKE,R0G 2S0,MB,Province of Manitoba,swan lake r0g 2s0 mb,,
130,ISAAC BEAULIEU MEMORIAL,N-12,1,1,1,1,1,FIRST NATIONS SCHOOLS,MARIUS POST OFFICE MARIUS R0H 0T0 MB,MARIUS POST OFFICE,MARIUS,R0H 0T0,MB,Province of Manitoba,marius post office marius r0h 0t0 mb,,
131,JOE A. ROSS SCHOOL,N-6,1,1,1,0,0,FIRST NATIONS SCHOOLS,OPASKWAYAK EDUCATION AUTHORITY BOX 10160 OPASKWAYAK R0B 2J0 MB,OPASKWAYAK EDUCATION AUTHORITY,OPASKWAYAK,R0B 2J0,MB,Province of Manitoba,opaskwayak education authority opaskwayak r0b 2j0 mb,,
132,KEESEEKOOWENIN SCHOOL,K-8,0,1,1,1,0,FIRST NATIONS SCHOOLS,BOX 129 ELPHINSTONE R0J 0N0 MB,BOX 129,ELPHINSTONE,R0J 0N0,MB,Province of Manitoba,elphinstone r0j 0n0 mb,,
133,KISEMATTAWA KISKINWAHAMAKEWIKAMIK,N-12,1,1,1,1,1,FIRST NATIONS SCHOOLS,GENERAL DELIVERY SHAMATTAWA R0B 1K0 MB,GENERAL DELIVERY,SHAMATTAWA,R0B 1K0,MB,Province of Manitoba,general delivery shamattawa r0b 1k0 mb,,general delivery
134,KISTIGANWACHEENG ELEMENTARY SCHOOL,N-6,1,1,1,0,0,FIRST NATIONS SCHOOLS,GENERAL DELIVERY ISLAND LAKE R0B 0T0 MB,GENERAL DELIVERY,ISLAND LAKE,R0B 0T0,MB,Province of Manitoba,general delivery island lake r0b 0t0 mb,,general delivery
135,LAKE MANITOBA SCHOOL,N-12,1,1,1,1,1,FIRST NATIONS SCHOOLS,BOX 1249 LAKE MAN. FIRST NATION R0C 3K0 MB,BOX 1249,LAKE MAN. FIRST NATION,R0C 3K0,MB,Province of Manitoba,lake man first nation r0c 3k0 mb,,
136,LAKE ST. MARTIN SCHOOL,N-9,1,1,1,1,0,FIRST NATIONS SCHOOLS,BOX 2020 GYPSUMVILLE R0C 1J MB,BOX 2020,GYPSUMVILLE,R0C 1J,MB,Province of Manitoba,gypsumville r0c 1j mb,,gypsumville r0c
137,LAWRENCE SINCLAIR MEMORIAL SCHOOL,N-11,1,1,1,1,1,FIRST NATIONS SCHOOLS,BOX 210 DALLAS R0C 0S0 MB,BOX 210,DALLAS,R0C 0S0,MB,Province of Manitoba,dallas r0c 0s0 mb,,
138,LITTLE SASKATCHEWAN SCHOOL,N-10,1,1,1,1,1,FIRST NATIONS SCHOOLS,BOX 5050 GYPSUMVILLE R0C 1J0 MB,BOX 5050,GYPSUMVILLE,R0C 1J0,MB,Province of Manitoba,gypsumville r0c 1j0 mb,,
139,LONG PLAIN SCHOOL,N-9,1,1,1,1,0,FIRST NATIONS SCHOOLS,BOX 430 PORTAGE LA PRAIRIE R1N 3B7 MB,BOX 430,PORTAGE LA PRAIRIE,R1N 3B7,MB,Province of Manitoba,portage la prairie r1n 3b7 mb,,
140,MAHPIYA HDEGA SCHOOL,K-8,0,1,1,1,0,FIRST NATIONS SCHOOLS,GENERAL DELIVERY EDWIN R0H 0G0 MB,GENERAL DELIVERY,EDWIN,R0H 0G0,MB,Province of Manitoba,general delivery edwin r0h 0g0 mb,,general delivery edwin
141,MIKISEW HIGH SCHOOL,8-12,0,0,0,1,1,FIRST NATIONS SCHOOLS,BOX 128 CROSS LAKE R0B 0J0 MB,BOX 128,CROSS LAKE,R0B 0J0,MB,Province of Manitoba,cross lake r0b 0j0 mb,,
142,MISKOOSEEPI SCHOOL,N-9,1,1,1,1,0,FIRST NATIONS SCHOOLS,BLOODVEIN R0C 0J0 MB,,BLOODVEIN,R0C 0J0,MB,Province of Manitoba,bloodvein r0c 0j0 mb,,
143,NEIL DENNIS KEMATCH MEMORIAL SCHOOL,N-12,1,1,1,1,1,FIRST NATIONS SCHOOLS,GENERAL DELIVERY PELICAN RAPIDS R0L 1L0 MB,GENERAL DELIVERY,PELICAN RAPIDS,R0L 1L0,MB,Province of Manitoba,general delivery pelican rapids r0l 1l0 mb,,general delivery
144,NISICHAWAYASIHK NEYO OHTINWAK COLLEGIATE,9-12,0,0,0,1,1,FIRST NATIONS SCHOOLS,GENERAL DELIVERY NELSON HOUSE R0B 1A0 MB,GENERAL DELIVERY,NELSON HOUSE,R0B 1A0,MB,Province of Manitoba,general delivery nelson house r0b 1a0 mb,,
145,OMIISHOSH MEMORIAL SCHOOL,N-9,1,1,1,1,0,FIRST NATIONS SCHOOLS,PAUINGASSI FIRST NATION BOX 31 PAUINGASSI R0B 2G0 MB,PAUINGASSI FIRST NATION,PAUINGASSI,R0B 2G0,MB,Province of Manitoba,pauingassi first nation pauingassi r0b 2g0 mb,,
146,OSCAR LATHLIN COLLEGIATE,7-12,0,0,0,1,1,FIRST NATIONS SCHOOLS,BOX 10400 OPASKWAYAK R0B 2J0 MB,BOX 10400,OPASKWAYAK,R0B 2J0,MB,Province of Manitoba,opaskwayak r0b 2j0 mb,,
147,OTETISKEWIN KISKINWAMAHTOWEKAMIK,N-8,1,1,1,1,0,FIRST NATIONS SCHOOLS,GENERAL DELIVERY NELSON HOUSE R0B 1A0 MB,GENERAL DELIVERY,NELSON HOUSE,R0B 1A0,MB,Province of Manitoba,general delivery nelson house r0b 1a0 mb,,
148,OTTER NELSON RIVER,N-7,1,1,1,1,0,FIRST NATIONS SCHOOLS,BOX 370 CROSS LAKE EDUCATION AUTHORITY CROSS LAKE R0B 0J0 MB,BOX 370,CROSS LAKE,R0B 0J0,MB,Province of Manitoba,cross lake education authority cross lake r0b 0j0 mb,,
149,OXFORD HOUSE ELEMENTARY SCHOOL,N-6,1,1,1,0,0,FIRST NATIONS SCHOOLS,GENERAL DELIVERY OXFORD HOUSE R0B 1C0 MB,GENERAL DELIVERY,OXFORD HOUSE,R0B 1C0,MB,Province of Manitoba,general delivery oxford house r0b 1c0 mb,,
150,PEGUIS CENTRAL SCHOOL,N-12,1,1,1,1,1,FIRST NATIONS SCHOOLS,BOX 670 PEGUIS FIRST NATION R0C 3J0 MB,BOX 670,PEGUIS FIRST NATION,R0C 3J0,MB,Province of Manitoba,peguis first nation r0c 3j0 mb,,
151,PETER YASSIE MEMORIAL SCHOOL,K-12,0,1,1,1,1,FIRST NATIONS SCHOOLS,GENERAL DELIVERY TADOULE LAKE R0B 2C0 MB,GENERAL DELIVERY,TADOULE LAKE,R0B 2C0,MB,Province of Manitoba,general delivery tadoule lake r0b 2c0 mb,,general delivery tadoule lake
152,PETIT CASIMIR MEMORIAL SCHOOL,K-12,0,1,1,1,1,FIRST NATIONS SCHOOLS,GENERAL DELIVERY LAC BROCHET R0B 2E0 MB,GENERAL DELIVERY,LAC BROCHET,R0B 2E0,MB,Province of Manitoba,general delivery lac brochet r0b 2e0 mb,,general delivery
153,PINAYMOOTANG SCHOOL,N-12,1,1,1,1,1,FIRST NATIONS SCHOOLS,FAIRFORD RESERVE FAIRFORD R0C 0X0 MB,FAIRFORD RESERVE,FAIRFORD,R0C 0X0,MB,Province of Manitoba,fairford reserve fairford r0c 0x0 mb,,
154,POPLAR RIVER SCHOOL,N-9,1,1,1,1,0,FIRST NATIONS SCHOOLS,NEGGINAN P.O. 120 NEGGINAN R0B 0Z0 MB,NEGGINAN P.O. 120,NEGGINAN,R0B 0Z0,MB,Province of Manitoba,negginan po 120 negginan r0b 0z0 mb,120,
155,RED SUCKER LAKE SCHOOL,N-12,1,1,1,1,1,FIRST NATIONS SCHOOLS,GENERAL DELIVERY RED SUCKER LAKE R0B 1H0 MB,GENERAL DELIVERY,RED SUCKER LAKE,R0B 1H0,MB,Province of Manitoba,general delivery red sucker lake r0b 1h0 mb,,general delivery
156,SAGKEENG ANICINABE HIGH SCHOOL,9-12,0,0,0,1,1,FIRST NATIONS SCHOOLS,BOX 1610 PINE FALLS R0E 1M0 MB,BOX 1610,PINE FALLS,R0E 1M0,MB,Province of Manitoba,pine falls r0e 1m0 mb,,
157,SAGKEENG CONSOLIDATED SCHOOL,4-8,0,0,1,1,0,FIRST NATIONS SCHOOLS,BOX 1610 PINE FALLS R0E 1M0 MB,BOX 1610,PINE FALLS,R0E 1M0,MB,Province of Manitoba,pine falls r0e 1m0 mb,,
158,SAKASTEW SCHOOL,K-12,0,1,1,1,1,FIRST NATIONS SCHOOLS,BOX 319 PUKATAWAGAN R0B 1G0 MB,BOX 319,PUKATAWAGAN,R0B 1G0,MB,Province of Manitoba,pukatawagan r0b 1g0 mb,,
159,SERGEANT TOMMY PRINCE SCHOOL,N-9,1,1,1,1,0,FIRST NATIONS SCHOOLS,BOX 179 SCANTERBURY R0E 1W0 MB,BOX 179,SCANTERBURY,R0E 1W0,MB,Province of Manitoba,scanterbury r0e 1w0 mb,,
160,SIOUX VALLEY SCHOOL,N-12,1,1,1,1,1,FIRST NATIONS SCHOOLS,BOX 99 GRISWOLD R0M 0S0 MB,BOX 99,GRISWOLD,R0M 0S0,MB,Province of Manitoba,griswold r0m 0s0 mb,,
161,SOUTHEAST COLLEGIATE,10-12,0,0,0,0,1,FIRST NATIONS SCHOOLS,1301 LEE BLVD. WINNIPEG R3T 5W8 MB,1301 LEE BLVD.,WINNIPEG,R3T 5W8,MB,Province of Manitoba,1301 lee blvd winnipeg r3t 5w8 mb,1301,lee blvd
162,ST. THERESA POINT SCHOOL,K-12,0,1,1,1,1,FIRST NATIONS SCHOOLS,BOX 670 ST. THERESA POINT R0B 1J0 MB,BOX 670,ST. THERESA POINT,R0B 1J0,MB,Province of Manitoba,st theresa point r0b 1j0 mb,,
163,WAMBDI IYOTAKA SCHOOL,N-K,1,1,0,0,0,FIRST NATIONS SCHOOLS,BOX 146 PIPESTONE R0M 1T0 MB,BOX 146,PIPESTONE,R0M 1T0,MB,Province of Manitoba,pipestone r0m 1t0 mb,,
164,ÉCOLE MCISAAC SCHOOL,K-8,0,1,1,1,0,FLIN FLON SCHOOL DIVISION,336 PRINCESS BOULEVARD FLIN FLON R8A 0K8 MB,336 PRINCESS BOULEVARD,FLIN FLON,R8A 0K8,MB,Province of Manitoba,336 princess boulevard flin flon r8a 0k8 mb,336,princess boulevard
165,HAPNOT COLLEGIATE,9-12,0,0,0,1,1,FLIN FLON SCHOOL DIVISION,115 GREEN STREET FLIN FLON R8A 0P7 MB,115 GREEN STREET,FLIN FLON,R8A 0P7,MB,Province of Manitoba,115 green street flin flon r8a 0p7 mb,115,green street
166,MANY FACES EDUCATION CENTRE,9-12,0,0,0,1,1,FLIN FLON SCHOOL DIVISION,115 GREEN STREET FLIN FLON R8A 0P7 MB,115 GREEN STREET,FLIN FLON,R8A 0P7,MB,Province of Manitoba,115 green street flin flon r8a 0p7 mb,115,green street
167,RUTH BETTS COMMUNITY SCHOOL,K-8,0,1,1,1,0,FLIN FLON SCHOOL DIVISION,9 TERRACE AVENUE FLIN FLON R8A 1S2 MB,9 TERRACE AVENUE,FLIN FLON,R8A 1S2,MB,Province of Manitoba,9 terrace avenue flin flon r8a 1s2 mb,9,terrace avenue
168,BOUNDARY LANE COLONY SCHOOL,K-12,0,1,1,1,1,FORT LA BOSSE SCHOOL DIVISION,BOX 164 ELKHORN R0M 0N0 MB,BOX 164,ELKHORN,R0M 0N0,MB,Province of Manitoba,elkhorn r0m 0n0 mb,,
169,ELKHORN SCHOOL,K-12,0,1,1,1,1,FORT LA BOSSE SCHOOL DIVISION,BOX 310 ELKHORN R0M 0N0 MB,BOX 310,ELKHORN,R0M 0N0,MB,Province of Manitoba,elkhorn r0m 0n0 mb,,
170,GOULTER SCHOOL,K-4,0,1,1,0,0,FORT LA BOSSE SCHOOL DIVISION,BOX 1090 VIRDEN R0M 2C0 MB,BOX 1090,VIRDEN,R0M 2C0,MB,Province of Manitoba,virden r0m 2c0 mb,,
171,KOLA SCHOOL,1-8,0,0,1,1,0,FORT LA BOSSE SCHOOL DIVISION,BOX 312 KOLA R0M 1B0 MB,BOX 312,KOLA,R0M 1B0,MB,Province of Manitoba,kola r0m 1b0 mb,,kola
172,MARY MONTGOMERY SCHOOL,K-4,0,1,1,0,0,FORT LA BOSSE SCHOOL DIVISION,BOX 700 VIRDEN R0M 2C0 MB,BOX 700,VIRDEN,R0M 2C0,MB,Province of Manitoba,virden r0m 2c0 mb,,
173,OAK LAKE COMMUNITY SCHOOL,K-8,0,1,1,1,0,FORT LA BOSSE SCHOOL DIVISION,BOX 7 OAK LAKE R0M 1P0 MB,BOX 7,OAK LAKE,R0M 1P0,MB,Province of Manitoba,oak lake r0m 1p0 mb,,
174,PLAINVIEW COLONY SCHOOL,K-12,0,1,1,1,1,FORT LA BOSSE SCHOOL DIVISION,PLAINVIEW COLONY BOX 59 ELKHORN R0M 0N0 MB,PLAINVIEW COLONY,ELKHORN,R0M 0N0,MB,Province of Manitoba,plainview colony elkhorn r0m 0n0 mb,,plainview colony elkhorn
175,RESTON SCHOOL,K-12,0,1,1,1,1,FORT LA BOSSE SCHOOL DIVISION,BOX 160 RESTON R0M 1X0 MB,BOX 160,RESTON,R0M 1X0,MB,Province of Manitoba,reston r0m 1x0 mb,,
176,VIRDEN COLLEGIATE,9-12,0,0,0,1,1,FORT LA BOSSE SCHOOL DIVISION,BOX 1418 VIRDEN R0M 2C0 MB,BOX 1418,VIRDEN,R0M 2C0,MB,Province of Manitoba,virden r0m 2c0 mb,,
177,VIRDEN JUNIOR HIGH,5-8,0,0,1,1,0,FORT LA BOSSE SCHOOL DIVISION,BOX 1510 VIRDEN R0M 2C0 MB,BOX 1510,VIRDEN,R0M 2C0,MB,Province of Manitoba,virden r0m 2c0 mb,,
178,BARROWS JUNCTION SCHOOL,N-9,1,1,1,1,0,FRONTIER SCHOOL DIVISION,GENERAL DELIVERY BARROWS JUNCTION R0L 0B0 MB,GENERAL DELIVERY,BARROWS JUNCTION,R0L 0B0,MB,Province of Manitoba,general delivery barrows junction r0l 0b0 mb,,general delivery barrows junction
179,BERENS RIVER SCHOOL,N-9,1,1,1,1,0,FRONTIER SCHOOL DIVISION,BOX 344 BERENS RIVER R0B 0A0 MB,BOX 344,BERENS RIVER,R0B 0A0,MB,Province of Manitoba,berens river r0b 0a0 mb,,
180,BLACK RIVER ANISHINABE SCHOOL,N-10,1,1,1,1,1,FRONTIER SCHOOL DIVISION,GENERAL DELIVERY O'HANLEY R0E 1K0 MB,GENERAL DELIVERY,O'HANLEY,R0E 1K0,MB,Province of Manitoba,general delivery o'hanley r0e 1k0 mb,,general delivery o'hanley
181,BROCHET SCHOOL,N-9,1,1,1,1,0,FRONTIER SCHOOL DIVISION,BOX 70 BROCHET R0B 0B0 MB,BOX 70,BROCHET,R0B 0B0,MB,Province of Manitoba,brochet r0b 0b0 mb,,brochet
182,CHAN KAGHA OTINA DAKOTA WAYAWA TIPI SCH.,N-12,1,1,1,1,1,FRONTIER SCHOOL DIVISION,BOX 40 BEULAH R0M 0B0 MB,BOX 40,BEULAH,R0M 0B0,MB,Province of Manitoba,beulah r0m 0b0 mb,,
183,COLD LAKE SCHOOL,K-8,0,1,1,1,0,FRONTIER SCHOOL DIVISION,GENERAL DELIVERY SHERRIDON R0B 1L0 MB,GENERAL DELIVERY,SHERRIDON,R0B 1L0,MB,Province of Manitoba,general delivery sherridon r0b 1l0 mb,,general delivery
184,CORMORANT LAKE SCHOOL,N-10,1,1,1,1,1,FRONTIER SCHOOL DIVISION,GENERAL DELIVERY CORMORANT R0B 0G0 MB,GENERAL DELIVERY,CORMORANT,R0B 0G0,MB,Province of Manitoba,general delivery cormorant r0b 0g0 mb,,general delivery cormorant
185,CRANBERRY PORTAGE ELEMENTARY,N-8,1,1,1,1,0,FRONTIER SCHOOL DIVISION,GENERAL DELIVERY CRANBERRY PORTAGE R0B 0H0 MB,GENERAL DELIVERY,CRANBERRY PORTAGE,R0B 0H0,MB,Province of Manitoba,general delivery cranberry portage r0b 0h0 mb,,general delivery
186,D. R. HAMILTON SCHOOL,N-9,1,1,1,1,0,FRONTIER SCHOOL DIVISION,BOX 70 CROSS LAKE R0B 0J0 MB,BOX 70,CROSS LAKE,R0B 0J0,MB,Province of Manitoba,cross lake r0b 0j0 mb,,
187,DAUPHIN RIVER SCHOOL,N-8,1,1,1,1,0,FRONTIER SCHOOL DIVISION,BOX 140 GYPSUMVILLE P.O. R0C 1J0 MB,BOX 140,GYPSUMVILLE P.O.,R0C 1J0,MB,Province of Manitoba,gypsumville po r0c 1j0 mb,,
188,DUCK BAY SCHOOL,N-9,1,1,1,1,0,FRONTIER SCHOOL DIVISION,BOX 123 DUCK BAY R0L 0N0 MB,BOX 123,DUCK BAY,R0L 0N0,MB,Province of Manitoba,duck bay r0l 0n0 mb,,
189,DUKE OF MARLBOROUGH SCHOOL,N-12,1,1,1,1,1,FRONTIER SCHOOL DIVISION,BOX 338 CHURCHILL R0B 0E0 MB,BOX 338,CHURCHILL,R0B 0E0,MB,Province of Manitoba,churchill r0b 0e0 mb,,
190,FALCON BEACH SCHOOL,N-10,1,1,1,1,1,FRONTIER SCHOOL DIVISION,BOX 70 FALCON LAKE R0E 0N0 MB,BOX 70,FALCON LAKE,R0E 0N0,MB,Province of Manitoba,falcon lake r0e 0n0 mb,,falcon lake
191,FRONTIER COLLEGIATE,9-12,0,0,0,1,1,FRONTIER SCHOOL DIVISION,GENERAL DELIVERY CRANBERRY PORTAGE R0B 0H0 MB,GENERAL DELIVERY,CRANBERRY PORTAGE,R0B 0H0,MB,Province of Manitoba,general delivery cranberry portage r0b 0h0 mb,,general delivery
192,FRONTIER MOSAKAHIKEN SCHOOL,N-12,1,1,1,1,1,FRONTIER SCHOOL DIVISION,GENERAL DELIVERY MOOSE LAKE R0B 0Y0 MB,GENERAL DELIVERY,MOOSE LAKE,R0B 0Y0,MB,Province of Manitoba,general delivery moose lake r0b 0y0 mb,,general delivery
193,GILLAM SCHOOL,N-12,1,1,1,1,1,FRONTIER SCHOOL DIVISION,BOX 370 GILLAM R0B 0L0 MB,BOX 370,GILLAM,R0B 0L0,MB,Province of Manitoba,gillam r0b 0l0 mb,,gillam
194,GRAND RAPIDS SCHOOL,N-12,1,1,1,1,1,FRONTIER SCHOOL DIVISION,GENERAL DELIVERY GRAND RAPIDS R0C 1E0 MB,GENERAL DELIVERY,GRAND RAPIDS,R0C 1E0,MB,Province of Manitoba,general delivery grand rapids r0c 1e0 mb,,general delivery
195,GYPSUMVILLE SCHOOL,K-8,0,1,1,1,0,FRONTIER SCHOOL DIVISION,GENERAL DELIVERY GYPSUMVILLE R0C 1J0 MB,GENERAL DELIVERY,GYPSUMVILLE,R0C 1J0,MB,Province of Manitoba,general delivery gypsumville r0c 1j0 mb,,general delivery
196,HELEN BETTY OSBORNE ININIW EDU. RES. CTR,N-12,1,1,1,1,1,FRONTIER SCHOOL DIVISION,BOX 790 NORWAY HOUSE R0B 1B0 MB,BOX 790,NORWAY HOUSE,R0B 1B0,MB,Province of Manitoba,norway house r0b 1b0 mb,,
197,JACK RIVER SCHOOL,N-6,1,1,1,0,0,FRONTIER SCHOOL DIVISION,BOX 970 NORWAY HOUSE R0B 1B0 MB,BOX 970,NORWAY HOUSE,R0B 1B0,MB,Province of Manitoba,norway house r0b 1b0 mb,,
198,JOSEPH H. KERR SCHOOL,N-12,1,1,1,1,1,FRONTIER SCHOOL DIVISION,100 POPLAR AVENUE SNOW LAKE R0B 1M0 MB,100 POPLAR AVENUE,SNOW LAKE,R0B 1M0,MB,Province of Manitoba,100 poplar avenue snow lake r0b 1m0 mb,100,poplar avenue snow
199,JULIE LINDAL SCHOOL,N-8,1,1,1,1,0,FRONTIER SCHOOL DIVISION,GENERAL DELIVERY ILFORD R0B 0S0 MB,GENERAL DELIVERY,ILFORD,R0B 0S0,MB,Province of Manitoba,general delivery ilford r0b 0s0 mb,,general delivery ilford
200,LAKEFRONT SCHOOL,N-8,1,1,1,1,0,FRONTIER SCHOOL DIVISION,GENERAL DELIVERY CRANE RIVER R0L 0M0 MB,GENERAL DELIVERY,CRANE RIVER,R0L 0M0,MB,Province of Manitoba,general delivery crane river r0l 0m0 mb,,general delivery
201,LEAF RAPIDS EDUCATION CENTRE,N-12,1,1,1,1,1,FRONTIER SCHOOL DIVISION,BOX 670 LEAF RAPIDS R0B 1W0 MB,BOX 670,LEAF RAPIDS,R0B 1W0,MB,Province of Manitoba,leaf rapids r0b 1w0 mb,,
202,MATHESON ISLAND SCHOOL,N-9,1,1,1,1,0,FRONTIER SCHOOL DIVISION,GENERAL DELIVERY MATHESON ISLAND R0C 2A0 MB,GENERAL DELIVERY,MATHESON ISLAND,R0C 2A0,MB,Province of Manitoba,general delivery matheson island r0c 2a0 mb,,general delivery matheson island
203,MEL JOHNSON SCHOOL,N-12,1,1,1,1,1,FRONTIER SCHOOL DIVISION,GENERAL DELIVERY WABOWDEN R0B 1S0 MB,GENERAL DELIVERY,WABOWDEN,R0B 1S0,MB,Province of Manitoba,general delivery wabowden r0b 1s0 mb,,general delivery
204,MINEGOZIIBE ANISHINABE SCHOOL,N-12,1,1,1,1,1,FRONTIER SCHOOL DIVISION,BOX 130 CAMPERVILLE R0L 0J0 MB,BOX 130,CAMPERVILLE,R0L 0J0,MB,Province of Manitoba,camperville r0l 0j0 mb,,
205,MINISTIC SCHOOL,N-9,1,1,1,1,0,FRONTIER SCHOOL DIVISION,BOX 320 GOD'S LAKE NARROWS R0B 0M0 MB,BOX 320,GOD'S LAKE NARROWS,R0B 0M0,MB,Province of Manitoba,god's lake narrows r0b 0m0 mb,,god's lake narrows
206,OSCAR BLACKBURN SCHOOL,N-10,1,1,1,1,1,FRONTIER SCHOOL DIVISION,GENERAL DELIVERY SOUTH INDIAN LAKE R0B 1N0 MB,GENERAL DELIVERY,SOUTH INDIAN LAKE,R0B 1N0,MB,Province of Manitoba,general delivery south indian lake r0b 1n0 mb,,general delivery south indian lake
207,PEONAN POINT SCHOOL,1-12,0,0,1,1,1,FRONTIER SCHOOL DIVISION,BOX 193 ST. MARTIN R0C 2T0 MB,BOX 193,ST. MARTIN,R0C 2T0,MB,Province of Manitoba,st martin r0c 2t0 mb,,
208,PHILOMENE CHARTRAND SCHOOL,K-8,0,1,1,1,0,FRONTIER SCHOOL DIVISION,BOX 40 CAMPERVILLE R0L 0J0 MB,BOX 40,CAMPERVILLE,R0L 0J0,MB,Province of Manitoba,camperville r0l 0j0 mb,,
209,PIKWITONEI SCHOOL,N-8,1,1,1,1,0,FRONTIER SCHOOL DIVISION,GENERAL DELIVERY PIKWITONEI R0B 1E0 MB,GENERAL DELIVERY,PIKWITONEI,R0B 1E0,MB,Province of Manitoba,general delivery pikwitonei r0b 1e0 mb,,general delivery
210,RORKETON SCHOOL,K-12,0,1,1,1,1,FRONTIER SCHOOL DIVISION,BOX 160 RORKETON R0L 1R0 MB,BOX 160,RORKETON,R0L 1R0,MB,Province of Manitoba,rorketon r0l 1r0 mb,,
211,SAN ANTONIO SCHOOL,N-9,1,1,1,1,0,FRONTIER SCHOOL DIVISION,GENERAL DELIVERY BISSETT R0E 0J0 MB,GENERAL DELIVERY,BISSETT,R0E 0J0,MB,Province of Manitoba,general delivery bissett r0e 0j0 mb,,general delivery bissett
212,SKOWNAN SCHOOL,N-9,1,1,1,1,0,FRONTIER SCHOOL DIVISION,GENERAL DELIVERY SKOWNAN R0L 1Y0 MB,GENERAL DELIVERY,SKOWNAN,R0L 1Y0,MB,Province of Manitoba,general delivery skownan r0l 1y0 mb,,general delivery
213,STEVENSON ISLAND SCHOOL,N-9,1,1,1,1,0,FRONTIER SCHOOL DIVISION,BOX 9 STEVENSON ISLAND R0B 2H0 MB,BOX 9,STEVENSON ISLAND,R0B 2H0,MB,Province of Manitoba,stevenson island r0b 2h0 mb,,
214,THICKET PORTAGE SCHOOL,N-8,1,1,1,1,0,FRONTIER SCHOOL DIVISION,GENERAL DELIVERY THICKET PORTAGE R0B 1R0 MB,GENERAL DELIVERY,THICKET PORTAGE,R0B 1R0,MB,Province of Manitoba,general delivery thicket portage r0b 1r0 mb,,general delivery
215,WANIPIGOW SCHOOL,N-12,1,1,1,1,1,FRONTIER SCHOOL DIVISION,BOX 2569 WANIPIGOW R0E 2E0 MB,BOX 2569,WANIPIGOW,R0E 2E0,MB,Province of Manitoba,wanipigow r0e 2e0 mb,,
216,WATERHEN SCHOOL,N-9,1,1,1,1,0,FRONTIER SCHOOL DIVISION,GENERAL DELIVERY WATERHEN R0L 2C0 MB,GENERAL DELIVERY,WATERHEN,R0L 2C0,MB,Province of Manitoba,general delivery waterhen r0l 2c0 mb,,general delivery
217,WEST LYNN HEIGHTS SCHOOL,K-12,0,1,1,1,1,FRONTIER SCHOOL DIVISION,BOX 670 LYNN LAKE R0B 0W0 MB,BOX 670,LYNN LAKE,R0B 0W0,MB,Province of Manitoba,lynn lake r0b 0w0 mb,,
218,BLUMENFELD SCHOOL,1-8,0,0,1,1,0,GARDEN VALLEY SCHOOL DIVISION,BORDER VALLEY UNIT BOX 1510 WINKLER R6W 4B4 MB,BORDER VALLEY UNIT,WINKLER,R6W 4B4,MB,Province of Manitoba,border valley unit winkler r6w 4b4 mb,,
219,BORDER VALLEY ELEMENTARY,K-8,0,1,1,1,0,GARDEN VALLEY SCHOOL DIVISION,BORDER VALLEY UNIT BOX 1510 WINKLER R6W 4B4 MB,BORDER VALLEY UNIT,WINKLER,R6W 4B4,MB,Province of Manitoba,border valley unit winkler r6w 4b4 mb,,
220,EDELWEISS SCHOOL,K-12,0,1,1,1,1,GARDEN VALLEY SCHOOL DIVISION,PLUM COULEE UNIT BOX 108 PLUM COULEE R0G 1R0 MB,PLUM COULEE UNIT,PLUM COULEE,R0G 1R0,MB,Province of Manitoba,plum coulee unit plum coulee r0g 1r0 mb,,
221,EMERADO CENTENNIAL,5-8,0,0,1,1,0,GARDEN VALLEY SCHOOL DIVISION,675 PRAIRIEVIEW DRIVE WINKLER R6W 1M5 MB,675 PRAIRIEVIEW DRIVE,WINKLER,R6W 1M5,MB,Province of Manitoba,675 prairieview drive winkler r6w 1m5 mb,675,prairieview drive winkler
222,GARDEN VALLEY COLLEGIATE,9-12,0,0,0,1,1,GARDEN VALLEY SCHOOL DIVISION,736 MAIN STREET WINKLER R6W 4C8 MB,736 MAIN STREET,WINKLER,R6W 4C8,MB,Province of Manitoba,736 main street winkler r6w 4c8 mb,736,main street winkler
223,HOCHFELD SCHOOL,1-8,0,0,1,1,0,GARDEN VALLEY SCHOOL DIVISION,C/O SOUTHWOOD UNIT 224 HESPELER AVENUE E. SCHANZENFELD R6W 1K3 MB,C/O SOUTHWOOD UNIT,SCHANZENFELD,R6W 1K3,MB,Province of Manitoba,c/o southwood unit 224 hespeler avenue e schanzenfeld r6w 1k3 mb,,hespeler avenue e schanzenfeld
224,J. R. WALKOF ELEMENTARY,K-4,0,1,1,0,0,GARDEN VALLEY SCHOOL DIVISION,800 SOUTHVIEW DRIVE WINKLER R6W 4E1 MB,800 SOUTHVIEW DRIVE,WINKLER,R6W 4E1,MB,Province of Manitoba,800 southview drive winkler r6w 4e1 mb,800,southview drive winkler
225,NORTHLANDS PARKWAY COLLEGIATE,9-12,0,0,0,1,1,GARDEN VALLEY SCHOOL DIVISION,139 NORTHLANDS PARKWAY EAST WINKLER R6W 0E9 MB,139 NORTHLANDS PARKWAY EAST,WINKLER,R6W 0E9,MB,Province of Manitoba,139 northlands parkway east winkler r6w 0e9 mb,139,northlands parkway east winkler r6w
226,PARKLAND ELEMENTARY SCHOOL,K-8,0,1,1,1,0,GARDEN VALLEY SCHOOL DIVISION,1100 ROBLIN BLVD WINKLER R6W 1G2 MB,1100 ROBLIN BLVD,WINKLER,R6W 1G2,MB,Province of Manitoba,1100 roblin blvd winkler r6w 1g2 mb,1100,roblin blvd winkler
227,PINE RIDGE ELEMENTARY SCHOOL,K-8,0,1,1,1,0,GARDEN VALLEY SCHOOL DIVISION,BOX 1330 750 TRIPLE E. BLVD WINKLER R6W 4B3 MB,BOX 1330,WINKLER,R6W 4B3,MB,Province of Manitoba,750 triple e blvd winkler r6w 4b3 mb,750,triple e blvd winkler
228,PLUM COULEE SCHOOL,K-8,0,1,1,1,0,GARDEN VALLEY SCHOOL DIVISION,PLUM COULEE UNIT BOX 108 PLUM COULEE R0G 1R0 MB,PLUM COULEE UNIT,PLUM COULEE,R0G 1R0,MB,Province of Manitoba,plum coulee unit plum coulee r0g 1r0 mb,,
229,PRAIRIE DALE SCHOOL,4-8,0,0,1,1,0,GARDEN VALLEY SCHOOL DIVISION,39 CHURCH STREET SOUTH SCHANZENFELD R6W 0E4 MB,39 CHURCH STREET SOUTH,SCHANZENFELD,R6W 0E4,MB,Province of Manitoba,39 church street south schanzenfeld r6w 0e4 mb,39,church street south schanzenfeld r6w
230,SOUTHWOOD ELEMENTARY,K-3,0,1,1,0,0,GARDEN VALLEY SCHOOL DIVISION,224 HESPELER AVENUE E. SCHANZENFELD R6W 1K3 MB,224 HESPELER AVENUE E.,SCHANZENFELD,R6W 1K3,MB,Province of Manitoba,224 hespeler avenue e schanzenfeld r6w 1k3 mb,224,hespeler avenue e schanzenfeld
231,WINKLER ELEMENTARY,K-8,0,1,1,1,0,GARDEN VALLEY SCHOOL DIVISION,284 8TH STREET WINKLER R6W 4C9 MB,284 8TH STREET,WINKLER,R6W 4C9,MB,Province of Manitoba,284 8th street winkler r6w 4c9 mb,284,8th street winkler
232,BLUMENORT SCHOOL,K-8,0,1,1,1,0,HANOVER SCHOOL DIVISION,10 PARK STREET BLUMENORT R0A 0C1 MB,10 PARK STREET,BLUMENORT,R0A 0C1,MB,Province of Manitoba,10 park street blumenort r0a 0c1 mb,10,park street
233,BOTHWELL SCHOOL,K-8,0,1,1,1,0,HANOVER SCHOOL DIVISION,BOX 220 25 CROWN VALLEY RD. E. NEW BOTHWELL R0A 1C0 MB,BOX 220,NEW BOTHWELL,R0A 1C0,MB,Province of Manitoba,25 crown valley rd e new bothwell r0a 1c0 mb,25,crown valley rd e
234,CLEARSPRING MIDDLE SCHOOL,5-8,0,0,1,1,0,HANOVER SCHOOL DIVISION,1 BRIGHTON LANE STEINBACH R5G 0Y2 MB,1 BRIGHTON LANE,STEINBACH,R5G 0Y2,MB,Province of Manitoba,1 brighton lane steinbach r5g 0y2 mb,1,brighton lane
235,CRYSTAL SPRINGS SCHOOL,K-12,0,1,1,1,1,HANOVER SCHOOL DIVISION,BOX 10 STE. AGATHE R0G 1Y0 MB,BOX 10,STE. AGATHE,R0G 1Y0,MB,Province of Manitoba,ste agathe r0g 1y0 mb,,
236,ELMDALE SCHOOL,K-4,0,1,1,0,0,HANOVER SCHOOL DIVISION,160 ELMDALE STREET STEINBACH R5G 0P3 MB,160 ELMDALE STREET,STEINBACH,R5G 0P3,MB,Province of Manitoba,160 elmdale street steinbach r5g 0p3 mb,160,elmdale street
237,GREEN VALLEY SCHOOL,5-12,0,0,1,1,1,HANOVER SCHOOL DIVISION,BOX 29 GRUNTHAL R0A 0R0 MB,BOX 29,GRUNTHAL,R0A 0R0,MB,Province of Manitoba,grunthal r0a 0r0 mb,,
238,KLEEFELD SCHOOL,K-8,0,1,1,1,0,HANOVER SCHOOL DIVISION,BOX 80 KLEEFELD R0A 0V0 MB,BOX 80,KLEEFELD,R0A 0V0,MB,Province of Manitoba,kleefeld r0a 0v0 mb,,
239,LANDMARK COLLEGIATE,7-12,0,0,0,1,1,HANOVER SCHOOL DIVISION,BOX 40 LANDMARK R0A 0X0 MB,BOX 40,LANDMARK,R0A 0X0,MB,Province of Manitoba,landmark r0a 0x0 mb,,
240,LANDMARK ELEMENTARY SCHOOL,K-6,0,1,1,0,0,HANOVER SCHOOL DIVISION,PO BOX 260 LANDMARK R0A 0X0 MB,PO BOX 260,LANDMARK,R0A 0X0,MB,Province of Manitoba,landmark r0a 0x0 mb,,
241,MITCHELL ELEMENTARY SCHOOL,K-4,0,1,1,0,0,HANOVER SCHOOL DIVISION,99 STANWAY BAY MITCHELL R5G 1J4 MB,99 STANWAY BAY,MITCHELL,R5G 1J4,MB,Province of Manitoba,99 stanway bay mitchell r5g 1j4 mb,99,stanway bay
242,MITCHELL MIDDLE SCHOOL,5-8,0,0,1,1,0,HANOVER SCHOOL DIVISION,203 THIRD STREET MITCHELL R5G 1H7 MB,203 THIRD STREET,MITCHELL,R5G 1H7,MB,Province of Manitoba,203 third street mitchell r5g 1h7 mb,203,third street
243,NIVERVILLE COLLEGIATE,5-12,0,0,1,1,1,HANOVER SCHOOL DIVISION,BOX 188 NIVERVILLE R0A 1E0 MB,BOX 188,NIVERVILLE,R0A 1E0,MB,Province of Manitoba,niverville r0a 1e0 mb,,
244,NIVERVILLE ELEMENTARY,K-5,0,1,1,0,0,HANOVER SCHOOL DIVISION,BOX 239 NIVERVILLE R0A 1E0 MB,BOX 239,NIVERVILLE,R0A 1E0,MB,Province of Manitoba,niverville r0a 1e0 mb,,
245,NIVERVILLE HIGH SCHOOL,9-12,0,0,0,1,1,HANOVER SCHOOL DIVISION,401 CENTER STREET NIVERVILLE R0A 1E0 MB,401 CENTER STREET,NIVERVILLE,R0A 1E0,MB,Province of Manitoba,401 center street niverville r0a 1e0 mb,401,center street
246,SOUTH OAKS ELEMENTARY,K-4,0,1,1,0,0,HANOVER SCHOOL DIVISION,BOX 550 GRUNTHAL R0A 0R0 MB,BOX 550,GRUNTHAL,R0A 0R0,MB,Province of Manitoba,grunthal r0a 0r0 mb,,
247,SOUTHWOOD SCHOOL,K-4,0,1,1,0,0,HANOVER SCHOOL DIVISION,155 BARKMAN AVENUE STEINBACH R5G 0P2 MB,155 BARKMAN AVENUE,STEINBACH,R5G 0P2,MB,Province of Manitoba,155 barkman avenue steinbach r5g 0p2 mb,155,barkman avenue
248,STEINBACH REGIONAL SECONDARY,9-12,0,0,0,1,1,HANOVER SCHOOL DIVISION,190 MCKENZIE AVENUE STEINBACH R5G 0P1 MB,190 MCKENZIE AVENUE,STEINBACH,R5G 0P1,MB,Province of Manitoba,190 mckenzie avenue steinbach r5g 0p1 mb,190,mckenzie avenue
249,STONYBROOK MIDDLE SCHOOL,5-9,0,0,1,1,0,HANOVER SCHOOL DIVISION,77 LUMBER AVENUE STEINBACH R5G 0R3 MB,77 LUMBER AVENUE,STEINBACH,R5G 0R3,MB,Province of Manitoba,77 lumber avenue steinbach r5g 0r3 mb,77,lumber avenue
250,WOODLAWN SCHOOL,K-4,0,1,1,0,0,HANOVER SCHOOL DIVISION,411 HENRY ST. EAST STEINBACH R5G 0R1 MB,411 HENRY ST. EAST,STEINBACH,R5G 0R1,MB,Province of Manitoba,411 henry st east steinbach r5g 0r1 mb,411,henry st east
251,ACADÉMIE ISLAMIQUE DU MANITOBA,K-8,0,1,1,1,0,INDEPENDENT SCHOOLS,208 PROVENCHER BLVD. P.O. BOX 153 WINNIPEG R2H 3B4 MB,208 PROVENCHER BLVD.,WINNIPEG,R2H 3B4,MB,Province of Manitoba,208 provencher blvd winnipeg r2h 3b4 mb,208,provencher blvd
252,ALHIJRA ISLAMIC SCHOOL,K-9,0,1,1,1,0,INDEPENDENT SCHOOLS,410 DESALABERRY AVENUE WINNIPEG R2L 0Y7 MB,410 DESALABERRY AVENUE,WINNIPEG,R2L 0Y7,MB,Province of Manitoba,410 desalaberry avenue winnipeg r2l 0y7 mb,410,desalaberry avenue
253,AUSTIN CHRISTIAN ACADEMY,K-12,0,1,1,1,1,INDEPENDENT SCHOOLS,BOX 460 AUSTIN R0H 0C0 MB,BOX 460,AUSTIN,R0H 0C0,MB,Province of Manitoba,austin r0h 0c0 mb,,
254,BALMORAL HALL SCHOOL,K-12,0,1,1,1,1,INDEPENDENT SCHOOLS,630 WESTMINSTER AVENUE WINNIPEG R3C 3S1 MB,630 WESTMINSTER AVENUE,WINNIPEG,R3C 3S1,MB,Province of Manitoba,630 westminster avenue winnipeg r3c 3s1 mb,630,westminster avenue
255,BEAUTIFUL SAVIOR LUTHERAN SCHOOL,N-8,1,1,1,1,0,INDEPENDENT SCHOOLS,52 BIRCHDALE AVE. WINNIPEG R2H 1R9 MB,52 BIRCHDALE AVE.,WINNIPEG,R2H 1R9,MB,Province of Manitoba,52 birchdale ave winnipeg r2h 1r9 mb,52,birchdale ave
256,CALVIN CHRISTIAN SCHOOL,K-12,0,1,1,1,1,INDEPENDENT SCHOOLS,245 SUTTON AVENUE WINNIPEG R2G 0T1 MB,245 SUTTON AVENUE,WINNIPEG,R2G 0T1,MB,Province of Manitoba,245 sutton avenue winnipeg r2g 0t1 mb,245,sutton avenue
257,CARTWRIGHT COMMUNITY INDEPENDENT SCH.,12-12,0,0,0,0,1,INDEPENDENT SCHOOLS,BOX 419 810 BROADWAY STREET CARTWRIGHT R0K 0L0 MB,BOX 419 810 BROADWAY STREET,CARTWRIGHT,R0K 0L0,MB,Province of Manitoba,810 broadway street cartwright r0k 0l0 mb,810,broadway street
258,CHILDREN'S HOUSE,N-K,1,1,0,0,0,INDEPENDENT SCHOOLS,150 PACIFIC AVENUE WINNIPEG R3B 3K8 MB,150 PACIFIC AVENUE,WINNIPEG,R3B 3K8,MB,Province of Manitoba,150 pacific avenue winnipeg r3b 3k8 mb,150,pacific avenue
259,CHRISTIAN HERITAGE SCHOOL,K-8,0,1,1,1,0,INDEPENDENT SCHOOLS,2025 26TH STREET BRANDON R7B 3Y2 MB,2025 26TH STREET,BRANDON,R7B 3Y2,MB,Province of Manitoba,2025 26th street brandon r7b 3y2 mb,2025,26th street
260,COMMUNITY BIBLE FELLOWSHIP CHRISTIAN,N-8,1,1,1,1,0,INDEPENDENT SCHOOLS,BOX 1630 SWAN RIVER R0L 1Z0 MB,BOX 1630,SWAN RIVER,R0L 1Z0,MB,Province of Manitoba,swan river r0l 1z0 mb,,
261,DASMESH SCHOOL,N-8,1,1,1,1,0,INDEPENDENT SCHOOLS,1770 KING EDWARD STREET WINNIPEG R2R 0M5 MB,1770 KING EDWARD STREET,WINNIPEG,R2R 0M5,MB,Province of Manitoba,1770 king edward street winnipeg r2r 0m5 mb,1770,king edward street
262,DUFFERIN CHRISTIAN SCHOOL,K-12,0,1,1,1,1,INDEPENDENT SCHOOLS,BOX 1450 CARMAN R0G 0J0 MB,BOX 1450,CARMAN,R0G 0J0,MB,Province of Manitoba,carman r0g 0j0 mb,,carman
263,FAITH ACADEMY,K-12,0,1,1,1,1,INDEPENDENT SCHOOLS,437 MATHESON AVE. WINNIPEG R2W 0E1 MB,437 MATHESON AVE.,WINNIPEG,R2W 0E1,MB,Province of Manitoba,437 matheson ave winnipeg r2w 0e1 mb,437,matheson ave
264,GREEN ACRES COLONY HIGH SCHOOL,9-12,0,0,0,1,1,INDEPENDENT SCHOOLS,BOX 190 WAWANESA R0K 2G0 MB,BOX 190,WAWANESA,R0K 2G0,MB,Province of Manitoba,wawanesa r0k 2g0 mb,,
265,H. B. COMMUNITY SCHOOL,K-12,0,1,1,1,1,INDEPENDENT SCHOOLS,BOX 40 MACGREGOR R0H 0R0 MB,BOX 40,MACGREGOR,R0H 0R0,MB,Province of Manitoba,macgregor r0h 0r0 mb,,
266,IMMANUEL CHRISTIAN SCHOOL,K-12,0,1,1,1,1,INDEPENDENT SCHOOLS,215 ROUGEAU AVENUE WINNIPEG R2C 3Z9 MB,215 ROUGEAU AVENUE,WINNIPEG,R2C 3Z9,MB,Province of Manitoba,215 rougeau avenue winnipeg r2c 3z9 mb,215,rougeau avenue
267,IQRA ISLAMIC,N-8,1,1,1,1,0,INDEPENDENT SCHOOLS,404 WEBB PLACE WINNIPEG R3B 3J4 MB,404 WEBB PLACE,WINNIPEG,R3B 3J4,MB,Province of Manitoba,404 webb place winnipeg r3b 3j4 mb,404,webb place
268,KOLA COMMUNITY SCHOOL,N-K,1,1,0,0,0,INDEPENDENT SCHOOLS,BOX 553 KOLA R0M 1B0 MB,BOX 553,KOLA,R0M 1B0,MB,Province of Manitoba,kola r0m 1b0 mb,,kola
269,LAKESIDE CHRISTIAN SCHOOL,K-12,0,1,1,1,1,INDEPENDENT SCHOOLS,BOX 894 237 HAMMOND STREET KILLARNEY R0K 1G0 MB,BOX 894,KILLARNEY,R0K 1G0,MB,Province of Manitoba,237 hammond street killarney r0k 1g0 mb,237,hammond street
270,LINDEN CHRISTIAN SCHOOL,K-12,0,1,1,1,1,INDEPENDENT SCHOOLS,877 WILKES AVENUE WINNIPEG R3P 1B8 MB,877 WILKES AVENUE,WINNIPEG,R3P 1B8,MB,Province of Manitoba,877 wilkes avenue winnipeg r3p 1b8 mb,877,wilkes avenue
271,MENNONITE BRETHREN COLLEGIATE INST.,6-12,0,0,1,1,1,INDEPENDENT SCHOOLS,173 TALBOT AVENUE WINNIPEG R2L 0P6 MB,173 TALBOT AVENUE,WINNIPEG,R2L 0P6,MB,Province of Manitoba,173 talbot avenue winnipeg r2l 0p6 mb,173,talbot avenue
272,MENNONITE COLLEGIATE INSTITUTE,9-12,0,0,0,1,1,INDEPENDENT SCHOOLS,BOX 250 466 MARY STREET GRETNA R0G 0V0 MB,BOX 250,GRETNA,R0G 0V0,MB,Province of Manitoba,466 mary street gretna r0g 0v0 mb,466,mary street
273,MONTESSORI LEARNING CENTRES INC.,N-K,1,1,0,0,0,INDEPENDENT SCHOOLS,170 ASHLAND AVENUE WINNIPEG R3L 1L1 MB,170 ASHLAND AVENUE,WINNIPEG,R3L 1L1,MB,Province of Manitoba,170 ashland avenue winnipeg r3l 1l1 mb,170,ashland avenue
274,MORWEENA CHRISTIAN SCHOOL,K-12,0,1,1,1,1,INDEPENDENT SCHOOLS,BOX 4065 ARBORG R0C 0A0 MB,BOX 4065,ARBORG,R0C 0A0,MB,Province of Manitoba,arborg r0c 0a0 mb,,arborg
275,NORTHERN SHIELD ACADEMY,3-12,0,0,1,1,1,INDEPENDENT SCHOOLS,619 - 4TH STREET EAST BOX 1309 STONEWALL R0C 2Z0 MB,619 - 4TH STREET EAST,STONEWALL,R0C 2Z0,MB,Province of Manitoba,619 4th street east stonewall r0c 2z0 mb,619,4th street east stonewall
276,NOVA MONTESSORI,N-K,1,1,0,0,0,INDEPENDENT SCHOOLS,C-3311 PEMBINA HIGHWAY WINNIPEG R3V 1T7 MB,C-3311 PEMBINA HIGHWAY,WINNIPEG,R3V 1T7,MB,Province of Manitoba,c 3311 pembina highway winnipeg r3v 1t7 mb,3311,pembina highway
277,ODANAH COLONY SCHOOL,K-12,0,1,1,1,1,INDEPENDENT SCHOOLS,BOX 990 MINNEDOSA R0J 1E0 MB,BOX 990,MINNEDOSA,R0J 1E0,MB,Province of Manitoba,minnedosa r0j 1e0 mb,,
278,OHOLEI TORAH SCHOOL,N-8,1,1,1,1,0,INDEPENDENT SCHOOLS,1845 MATHERS AVENUE WINNIPEG R3N 0N2 MB,1845 MATHERS AVENUE,WINNIPEG,R3N 0N2,MB,Province of Manitoba,1845 mathers avenue winnipeg r3n 0n2 mb,1845,mathers avenue
279,PINE CREEK SCHOOL,K-12,0,1,1,1,1,INDEPENDENT SCHOOLS,PINE CREEK COLONY BOX 370 AUSTIN R0H 0C0 MB,PINE CREEK COLONY,AUSTIN,R0H 0C0,MB,Province of Manitoba,pine creek colony austin r0h 0c0 mb,,pine creek colony
280,POPLAR POINT COLONY SCHOOL,K-12,0,1,1,1,1,INDEPENDENT SCHOOLS,BOX 910 PORTAGE LA PRAIRIE R1N 3C4 MB,BOX 910,PORTAGE LA PRAIRIE,R1N 3C4,MB,Province of Manitoba,portage la prairie r1n 3c4 mb,,
281,RED RIVER VALLEY JUNIOR ACADEMY,N-10,1,1,1,1,1,INDEPENDENT SCHOOLS,56 GREY STREET WINNIPEG R2L 1V3 MB,56 GREY STREET,WINNIPEG,R2L 1V3,MB,Province of Manitoba,56 grey street winnipeg r2l 1v3 mb,56,grey street
282,SILVERWINDS SCHOOL,K-12,0,1,1,1,1,INDEPENDENT SCHOOLS,BOX 130 SPERLING R0G 2M0 MB,BOX 130,SPERLING,R0G 2M0,MB,Province of Manitoba,sperling r0g 2m0 mb,,
283,SPRINGS CHRISTIAN ACADEMY,K-12,0,1,1,1,1,INDEPENDENT SCHOOLS,261 YOUVILLE STREET WINNIPEG R2H 2S7 MB,261 YOUVILLE STREET,WINNIPEG,R2H 2S7,MB,Province of Manitoba,261 youville street winnipeg r2h 2s7 mb,261,youville street
284,ST. AIDAN'S CHRISTIAN SCHOOL,N-10,1,1,1,1,1,INDEPENDENT SCHOOLS,418 ABERDEEN AVENUE WINNIPEG R2W 1V7 MB,418 ABERDEEN AVENUE,WINNIPEG,R2W 1V7,MB,Province of Manitoba,418 aberdeen avenue winnipeg r2w 1v7 mb,418,aberdeen avenue
285,ST. JOHN'S-RAVENSCOURT SCHOOL,K-12,0,1,1,1,1,INDEPENDENT SCHOOLS,400 SOUTH DRIVE WINNIPEG R3T 3K5 MB,400 SOUTH DRIVE,WINNIPEG,R3T 3K5,MB,Province of Manitoba,400 south drive winnipeg r3t 3k5 mb,400,south drive
286,STEINBACH CHRISTIAN SCHOOL,K-12,0,1,1,1,1,INDEPENDENT SCHOOLS,50 PTH 12 NORTH STEINBACH R5G 1T4 MB,50 PTH 12 NORTH,STEINBACH,R5G 1T4,MB,Province of Manitoba,50 pth 12 north steinbach r5g 1t4 mb,50,pth 12 north
287,THE KING'S SCHOOL,N-12,1,1,1,1,1,INDEPENDENT SCHOOLS,851 PANET ROAD WINNIPEG R2K 4C9 MB,851 PANET ROAD,WINNIPEG,R2K 4C9,MB,Province of Manitoba,851 panet road winnipeg r2k 4c9 mb,851,panet road
288,THE LAUREATE ACADEMY,1-12,0,0,1,1,1,INDEPENDENT SCHOOLS,100 VILLA MARIA PLACE WINNIPEG R3V 1A9 MB,100 VILLA MARIA PLACE,WINNIPEG,R3V 1A9,MB,Province of Manitoba,100 villa maria place winnipeg r3v 1a9 mb,100,villa maria place
289,UNIVERSITY OF WINNIPEG COLLEGIATE,9-12,0,0,0,1,1,INDEPENDENT SCHOOLS,515 PORTAGE AVENUE WINNIPEG R3B 2E9 MB,515 PORTAGE AVENUE,WINNIPEG,R3B 2E9,MB,Province of Manitoba,515 portage avenue winnipeg r3b 2e9 mb,515,portage avenue
290,WESTGATE MENNONITE COLLEGIATE,6-12,0,0,1,1,1,INDEPENDENT SCHOOLS,86 WEST GATE WINNIPEG R3E 2E1 MB,86 WEST GATE,WINNIPEG,R3E 2E1,MB,Province of Manitoba,86 west gate winnipeg r3e 2e1 mb,86,west gate
291,WESTPARK SCHOOL,K-12,0,1,1,1,1,INDEPENDENT SCHOOLS,2375B SASKATCHEWAN AVENUE W PORTAGE LA PRAIRIE R1N 4A6 MB,2375B SASKATCHEWAN AVENUE W,PORTAGE LA PRAIRIE,R1N 4A6,MB,Province of Manitoba,2375b saskatchewan avenue w portage la prairie r1n 4a6 mb,2375b,saskatchewan avenue w
292,WINGHAM HB SCHOOL,K-12,0,1,1,1,1,INDEPENDENT SCHOOLS,BOX 219 ELM CREEK R0G 0N0 MB,BOX 219,ELM CREEK,R0G 0N0,MB,Province of Manitoba,elm creek r0g 0n0 mb,,
293,WINNIPEG MENNONITE ELEMENTARY,K-8,0,1,1,1,0,INDEPENDENT SCHOOLS,250 BEDSON STREET WINNIPEG R3K 1R7 MB,250 BEDSON STREET,WINNIPEG,R3K 1R7,MB,Province of Manitoba,250 bedson street winnipeg r3k 1r7 mb,250,bedson street
294,WINNIPEG SOUTH ACADEMY,N-4,1,1,1,0,0,INDEPENDENT SCHOOLS,870 SCOTLAND AVE. WINNIPEG R3M 1X8 MB,870 SCOTLAND AVE.,WINNIPEG,R3M 1X8,MB,Province of Manitoba,870 scotland ave winnipeg r3m 1x8 mb,870,scotland ave
295,BEHAVIOURAL HEALTH FOUNDATION,K-6,0,1,1,0,0,INSTITUTIONAL SCHOOLS,35 AVE DE LA DIGUE ST. NORBERT R3V 1L6 MB,35 AVE DE LA DIGUE,ST. NORBERT,R3V 1L6,MB,Province of Manitoba,35 ave de la digue st norbert r3v 1l6 mb,35,ave de la digue
296,CHILD & ADOLESCENT TREATMENT CENTRE,1-12,0,0,1,1,1,INSTITUTIONAL SCHOOLS,1240 - 10TH STREET BRANDON R7A 7L6 MB,1240 - 10TH STREET,BRANDON,R7A 7L6,MB,Province of Manitoba,1240 10th street brandon r7a 7l6 mb,1240,10th street
297,GLADYS COOK EDUCATION CENTRE,1-12,0,0,1,1,1,INSTITUTIONAL SCHOOLS,#2 RIVER ROAD BOX 1342 PORTAGE LA PRAIRIE R1N 3A9 MB,#2 RIVER ROAD,PORTAGE LA PRAIRIE,R1N 3A9,MB,Province of Manitoba,#2 river road portage la prairie r1n 3a9 mb,#2,river road
298,JOBWORKS ALTERNATIVE HIGH SCHOOL,9-12,0,0,0,1,1,INSTITUTIONAL SCHOOLS,1175 PEMBINA HIGHWAY WINNIPEG R3T 2A5 MB,1175 PEMBINA HIGHWAY,WINNIPEG,R3T 2A5,MB,Province of Manitoba,1175 pembina highway winnipeg r3t 2a5 mb,1175,pembina highway
299,MANITOBA SCHOOL FOR THE DEAF,K-12,0,1,1,1,1,INSTITUTIONAL SCHOOLS,242 STRADFORD STREET WINNIPEG R2Y 2C9 MB,242 STRADFORD STREET,WINNIPEG,R2Y 2C9,MB,Province of Manitoba,242 stradford street winnipeg r2y 2c9 mb,242,stradford street
300,MANITOBA YOUTH CENTRE,K-12,0,1,1,1,1,INSTITUTIONAL SCHOOLS,170 DONCASTER STREET WINNIPEG R3N 1X9 MB,170 DONCASTER STREET,WINNIPEG,R3N 1X9,MB,Province of Manitoba,170 doncaster street winnipeg r3n 1x9 mb,170,doncaster street
301,MARYMOUND SCHOOL,2-10,0,0,1,1,1,INSTITUTIONAL SCHOOLS,442 SCOTIA STREET WINNIPEG R2V 1X4 MB,442 SCOTIA STREET,WINNIPEG,R2V 1X4,MB,Province of Manitoba,442 scotia street winnipeg r2v 1x4 mb,442,scotia street
302,NEW DIRECTIONS INC. SCHOOL,9-10,0,0,0,1,1,INSTITUTIONAL SCHOOLS,500 - 717 PORTAGE AVENUE WINNIPEG R3G 0M8 MB,500 - 717 PORTAGE AVENUE,WINNIPEG,R3G 0M8,MB,Province of Manitoba,500 717 portage avenue winnipeg r3g 0m8 mb,500 717,portage avenue
303,ST. AMANT SCHOOL,K-12,0,1,1,1,1,INSTITUTIONAL SCHOOLS,440 RIVER ROAD WINNIPEG R2M 3Z9 MB,440 RIVER ROAD,WINNIPEG,R2M 3Z9,MB,Province of Manitoba,440 river road winnipeg r2m 3z9 mb,440,river road
304,BALMORAL SCHOOL,K-8,0,1,1,1,0,INTERLAKE SCHOOL DIVISION,GENERAL DELIVERY BALMORAL R0C 0H0 MB,GENERAL DELIVERY,BALMORAL,R0C 0H0,MB,Province of Manitoba,general delivery balmoral r0c 0h0 mb,,general delivery
305,BRANT-ARGYLE SCHOOL,K-8,0,1,1,1,0,INTERLAKE SCHOOL DIVISION,BOX 70 ARGYLE R0C 0B0 MB,BOX 70,ARGYLE,R0C 0B0,MB,Province of Manitoba,argyle r0c 0b0 mb,,
306,CONCORD SCHOOL,K-12,0,1,1,1,1,INTERLAKE SCHOOL DIVISION,CONCORD COLONY BOX 940 STONY MOUNTAIN R0C 3A0 MB,CONCORD COLONY,STONY MOUNTAIN,R0C 3A0,MB,Province of Manitoba,concord colony stony mountain r0c 3a0 mb,,concord colony
307,ÉCOLE R. W. BOBBY BEND SCHOOL,K-4,0,1,1,0,0,INTERLAKE SCHOOL DIVISION,377-2ND AVE. NORTH STONEWALL R0C 2Z0 MB,377-2ND AVE. NORTH,STONEWALL,R0C 2Z0,MB,Province of Manitoba,377 2nd ave north stonewall r0c 2z0 mb,377,2nd ave north stonewall
308,GROSSE ISLE SCHOOL,5-8,0,0,1,1,0,INTERLAKE SCHOOL DIVISION,BOX 1 GROSSE ISLE R0C 1G0 MB,BOX 1,GROSSE ISLE,R0C 1G0,MB,Province of Manitoba,grosse isle r0c 1g0 mb,,
309,KELSEY SCHOOL,K-12,0,1,1,1,1,INTERLAKE SCHOOL DIVISION,BOX 82 ROSSER R0H 1E0 MB,BOX 82,ROSSER,R0H 1E0,MB,Province of Manitoba,rosser r0h 1e0 mb,,
310,LIGHTLY SCHOOL,K-12,0,1,1,1,1,INTERLAKE SCHOOL DIVISION,CLEARWATER COLONY BOX 103 BALMORAL R0C 0H0 MB,CLEARWATER COLONY,BALMORAL,R0C 0H0,MB,Province of Manitoba,clearwater colony balmoral r0c 0h0 mb,,clearwater colony
311,MALLARD SCHOOL,K-12,0,1,1,1,1,INTERLAKE SCHOOL DIVISION,"BOX 7, GROUP 40 WARREN R0C 3E0 MB","BOX 7, GROUP 40",WARREN,R0C 3E0,MB,Province of Manitoba,group 40 warren r0c 3e0 mb,40,warren
312,MEADOW LANE SCHOOL,K-12,0,1,1,1,1,INTERLAKE SCHOOL DIVISION,C/O MEADOW LANE COLONY BOX 68 ROSSER R0H 1E0 MB,C/O MEADOW LANE COLONY,ROSSER,R0H 1E0,MB,Province of Manitoba,c/o meadow lane colony rosser r0h 1e0 mb,,c/o meadow lane
313,NEW HAVEN SCHOOL,K-12,0,1,1,1,1,INTERLAKE SCHOOL DIVISION,NEW HAVEN COLONY BOX 100 ARGYLE R0C 0B0 MB,NEW HAVEN COLONY,ARGYLE,R0C 0B0,MB,Province of Manitoba,new haven colony argyle r0c 0b0 mb,,new haven colony argyle
314,OMEGA SCHOOL,K-12,0,1,1,1,1,INTERLAKE SCHOOL DIVISION,INTERLAKE COLONY BOX 138 TEULON R0C 3B0 MB,INTERLAKE COLONY,TEULON,R0C 3B0,MB,Province of Manitoba,interlake colony teulon r0c 3b0 mb,,interlake colony teulon
315,PRAIRIE BLOSSOM SCHOOL,K-12,0,1,1,1,1,INTERLAKE SCHOOL DIVISION,GENERAL DELIVERY BALMORAL R0C 0H0 MB,GENERAL DELIVERY,BALMORAL,R0C 0H0,MB,Province of Manitoba,general delivery balmoral r0c 0h0 mb,,general delivery
316,ROCK LAKE SCHOOL,K-12,0,1,1,1,1,INTERLAKE SCHOOL DIVISION,ROCK LAKE COLONY BOX 158 GROSSE ISLE R0C 1G0 MB,ROCK LAKE COLONY,GROSSE ISLE,R0C 1G0,MB,Province of Manitoba,rock lake colony grosse isle r0c 1g0 mb,,rock lake colony grosse isle
317,ROSSER SCHOOL,K-4,0,1,1,0,0,INTERLAKE SCHOOL DIVISION,BOX 130 ROSSER R0H 1E0 MB,BOX 130,ROSSER,R0H 1E0,MB,Province of Manitoba,rosser r0h 1e0 mb,,
318,STONEWALL CENTENNIAL SCHOOL,5-8,0,0,1,1,0,INTERLAKE SCHOOL DIVISION,573 - 2ND AVENUE N STONEWALL R0C 2Z0 MB,573 - 2ND AVENUE N,STONEWALL,R0C 2Z0,MB,Province of Manitoba,573 2nd avenue n stonewall r0c 2z0 mb,573,2nd avenue n stonewall
319,STONEWALL COLLEGIATE,9-12,0,0,0,1,1,INTERLAKE SCHOOL DIVISION,297 - 5TH ST WEST STONEWALL R0C 2Z0 MB,297 - 5TH ST WEST,STONEWALL,R0C 2Z0,MB,Province of Manitoba,297 5th st west stonewall r0c 2z0 mb,297,5th st west stonewall
320,STONY MOUNTAIN ELEMENTARY,K-8,0,1,1,1,0,INTERLAKE SCHOOL DIVISION,GENERAL DELIVERY STONY MOUNTAIN R0C 3A0 MB,GENERAL DELIVERY,STONY MOUNTAIN,R0C 3A0,MB,Province of Manitoba,general delivery stony mountain r0c 3a0 mb,,general delivery
321,TEULON COLLEGIATE,7-12,0,0,0,1,1,INTERLAKE SCHOOL DIVISION,BOX 189 TEULON R0C 3B0 MB,BOX 189,TEULON,R0C 3B0,MB,Province of Manitoba,teulon r0c 3b0 mb,,teulon
322,TEULON ELEMENTARY,K-6,0,1,1,0,0,INTERLAKE SCHOOL DIVISION,BOX 143 TEULON R0C 3B0 MB,BOX 143,TEULON,R0C 3B0,MB,Province of Manitoba,teulon r0c 3b0 mb,,teulon
323,WARREN COLLEGIATE,9-12,0,0,0,1,1,INTERLAKE SCHOOL DIVISION,BOX 580 WARREN R0C 3E0 MB,BOX 580,WARREN,R0C 3E0,MB,Province of Manitoba,warren r0c 3e0 mb,,
324,WARREN ELEMENTARY,K-8,0,1,1,1,0,INTERLAKE SCHOOL DIVISION,BOX 610 WARREN R0C 3E0 MB,BOX 610,WARREN,R0C 3E0,MB,Province of Manitoba,warren r0c 3e0 mb,,
325,WOODLANDS SCHOOL,K-8,0,1,1,1,0,INTERLAKE SCHOOL DIVISION,BOX 40 WOODLANDS R0C 3H0 MB,BOX 40,WOODLANDS,R0C 3H0,MB,Province of Manitoba,woodlands r0c 3h0 mb,,
326,ÉCOLE OPASQUIA SCHOOL,K-5,0,1,1,0,0,KELSEY SCHOOL DIVISION,BOX 4700 THE PAS R9A 1R4 MB,BOX 4700,THE PAS,R9A 1R4,MB,Province of Manitoba,the pas r9a 1r4 mb,,
327,KELSEY COMMUNITY SCHOOL,K-5,0,1,1,0,0,KELSEY SCHOOL DIVISION,BOX 4700 THE PAS R9A 1R4 MB,BOX 4700,THE PAS,R9A 1R4,MB,Province of Manitoba,the pas r9a 1r4 mb,,
328,MARGARET BARBOUR COLLEGIATE INSTITUTE,9-12,0,0,0,1,1,KELSEY SCHOOL DIVISION,BOX 4700 429 SMITH AVENUE THE PAS R9A 1R4 MB,BOX 4700,THE PAS,R9A 1R4,MB,Province of Manitoba,429 smith avenue the pas r9a 1r4 mb,429,smith avenue
329,MARY DUNCAN SCHOOL,7-12,0,0,0,1,1,KELSEY SCHOOL DIVISION,BOX 4700 THE PAS R9A 1R4 MB,BOX 4700,THE PAS,R9A 1R4,MB,Province of Manitoba,the pas r9a 1r4 mb,,
330,SCOTT BATEMAN MIDDLE SCHOOL,6-8,0,0,1,1,0,KELSEY SCHOOL DIVISION,BOX 4700 THE PAS R9A 1R4 MB,BOX 4700,THE PAS,R9A 1R4,MB,Province of Manitoba,the pas r9a 1r4 mb,,
331,ALF CUTHBERT SCHOOL,K-8,0,1,1,1,0,LAKESHORE SCHOOL DIVISION,BOX 220 MOOSEHORN R0C 2E0 MB,BOX 220,MOOSEHORN,R0C 2E0,MB,Province of Manitoba,moosehorn r0c 2e0 mb,,
332,ASHERN CENTRAL SCHOOL,5-12,0,0,1,1,1,LAKESHORE SCHOOL DIVISION,BOX 1200 ASHERN R0C 0E0 MB,BOX 1200,ASHERN,R0C 0E0,MB,Province of Manitoba,ashern r0c 0e0 mb,,
333,ASHERN EARLY YEARS SCHOOL,K-4,0,1,1,0,0,LAKESHORE SCHOOL DIVISION,BOX 1400 ASHERN R0C 0E0 MB,BOX 1400,ASHERN,R0C 0E0,MB,Province of Manitoba,ashern r0c 0e0 mb,,
334,BROAD VALLEY COLONY SCHOOL,K-12,0,1,1,1,1,LAKESHORE SCHOOL DIVISION,BROAD VALLEY COLONY BOX 8 POPLARFIELD R0C 2N0 MB,BROAD VALLEY COLONY,POPLARFIELD,R0C 2N0,MB,Province of Manitoba,broad valley colony poplarfield r0c 2n0 mb,,broad valley colony
335,ERIKSDALE SCHOOL,K-8,0,1,1,1,0,LAKESHORE SCHOOL DIVISION,BOX 179 ERIKSDALE R0C 0W0 MB,BOX 179,ERIKSDALE,R0C 0W0,MB,Province of Manitoba,eriksdale r0c 0w0 mb,,
336,FISHER BRANCH COLLEGIATE,5-12,0,0,1,1,1,LAKESHORE SCHOOL DIVISION,BOX 250 FISHER BRANCH R0C 0Z0 MB,BOX 250,FISHER BRANCH,R0C 0Z0,MB,Province of Manitoba,fisher branch r0c 0z0 mb,,fisher branch
337,FISHER BRANCH EARLY YEARS SCHOOL,K-4,0,1,1,0,0,LAKESHORE SCHOOL DIVISION,BOX 355 FISHER BRANCH R0C 0Z0 MB,BOX 355,FISHER BRANCH,R0C 0Z0,MB,Province of Manitoba,fisher branch r0c 0z0 mb,,fisher branch
338,INWOOD SCHOOL,K-12,0,1,1,1,1,LAKESHORE SCHOOL DIVISION,BOX 220 INWOOD R0C 1P0 MB,BOX 220,INWOOD,R0C 1P0,MB,Province of Manitoba,inwood r0c 1p0 mb,,
339,LUNDAR SCHOOL,K-12,0,1,1,1,1,LAKESHORE SCHOOL DIVISION,BOX 602 LUNDAR R0C 1Y0 MB,BOX 602,LUNDAR,R0C 1Y0,MB,Province of Manitoba,lundar r0c 1y0 mb,,lundar
340,MARBLE RIDGE COLONY SCHOOL,K-12,0,1,1,1,1,LAKESHORE SCHOOL DIVISION,MARBLE RIDGE COLONY BOX 310 HODGSON R0C 1N0 MB,MARBLE RIDGE COLONY,HODGSON,R0C 1N0,MB,Province of Manitoba,marble ridge colony hodgson r0c 1n0 mb,,marble ridge colony hodgson
341,CENTENNIAL SCHOOL,K-6,0,1,1,0,0,LORD SELKIRK SCHOOL DIVISION,19 CENTENNIAL AVENUE SELKIRK R1A 0C8 MB,19 CENTENNIAL AVENUE,SELKIRK,R1A 0C8,MB,Province of Manitoba,19 centennial avenue selkirk r1a 0c8 mb,19,centennial avenue
342,DAERWOOD SCHOOL,K-6,0,1,1,0,0,LORD SELKIRK SCHOOL DIVISION,211 MAIN STREET SELKIRK R1A 1R7 MB,211 MAIN STREET,SELKIRK,R1A 1R7,MB,Province of Manitoba,211 main street selkirk r1a 1r7 mb,211,main street
343,EAST SELKIRK MIDDLE SCHOOL,5-9,0,0,1,1,0,LORD SELKIRK SCHOOL DIVISION,BOX 310 1140 STRATHCONA ROAD EAST SELKIRK R0E 0M0 MB,BOX 310,EAST SELKIRK,R0E 0M0,MB,Province of Manitoba,1140 strathcona road east selkirk r0e 0m0 mb,1140,strathcona road east selkirk
344,ÉCOLE BONAVENTURE,M-6,0,1,1,0,0,LORD SELKIRK SCHOOL DIVISION,516A AVENUE STANLEY SELKIRK R1A 0S1 MB,516A AVENUE STANLEY,SELKIRK,R1A 0S1,MB,Province of Manitoba,516a avenue stanley selkirk r1a 0s1 mb,,516a avenue stanley
345,HAPPY THOUGHT SCHOOL,K-4,0,1,1,0,0,LORD SELKIRK SCHOOL DIVISION,BOX 6 GROUP 35 RR1 EAST SELKIRK R0E 0M0 MB,BOX 6 GROUP 35 RR1,EAST SELKIRK,R0E 0M0,MB,Province of Manitoba,group 35 rr1 east selkirk r0e 0m0 mb,35,rr1 east selkirk
346,LOCKPORT SCHOOL,7-9,0,0,0,1,0,LORD SELKIRK SCHOOL DIVISION,129 LOCKPORT ROAD LOCKPORT R1A 3H6 MB,129 LOCKPORT ROAD,LOCKPORT,R1A 3H6,MB,Province of Manitoba,129 lockport road lockport r1a 3h6 mb,129,lockport road
347,LORD SELKIRK REGIONAL SECONDARY,10-12,0,0,0,0,1,LORD SELKIRK SCHOOL DIVISION,221 MERCY STREET SELKIRK R1A 2C8 MB,221 MERCY STREET,SELKIRK,R1A 2C8,MB,Province of Manitoba,221 mercy street selkirk r1a 2c8 mb,221,mercy street
348,MAPLETON SCHOOL,K-6,0,1,1,0,0,LORD SELKIRK SCHOOL DIVISION,112 CALDER ROAD SELKIRK R1A 4B5 MB,112 CALDER ROAD,SELKIRK,R1A 4B5,MB,Province of Manitoba,112 calder road selkirk r1a 4b5 mb,112,calder road
349,NETLEY SCHOOL,K-12,0,1,1,1,1,LORD SELKIRK SCHOOL DIVISION,BOX 100 PETERSFIELD R0C 2L0 MB,BOX 100,PETERSFIELD,R0C 2L0,MB,Province of Manitoba,petersfield r0c 2l0 mb,,
350,ROBERT SMITH ELEMENTARY,K-6,0,1,1,0,0,LORD SELKIRK SCHOOL DIVISION,300 SOPHIA STREET SELKIRK R1A 2E2 MB,300 SOPHIA STREET,SELKIRK,R1A 2E2,MB,Province of Manitoba,300 sophia street selkirk r1a 2e2 mb,300,sophia street
351,RUTH HOOKER SCHOOL,K-6,0,1,1,0,0,LORD SELKIRK SCHOOL DIVISION,430 MORRIS AVENUE SELKIRK R1A 1B4 MB,430 MORRIS AVENUE,SELKIRK,R1A 1B4,MB,Province of Manitoba,430 morris avenue selkirk r1a 1b4 mb,430,morris avenue
352,SELKIRK JUNIOR HIGH,7-9,0,0,0,1,0,LORD SELKIRK SCHOOL DIVISION,516 STANLEY AVENUE SELKIRK R1A 0S1 MB,516 STANLEY AVENUE,SELKIRK,R1A 0S1,MB,Province of Manitoba,516 stanley avenue selkirk r1a 0s1 mb,516,stanley avenue
353,ST. ANDREWS SCHOOL,K-6,0,1,1,0,0,LORD SELKIRK SCHOOL DIVISION,8 ST. ANDREWS ROAD ST. ANDREWS R1A 2Y1 MB,8 ST. ANDREWS ROAD,ST. ANDREWS,R1A 2Y1,MB,Province of Manitoba,8 st andrews road st andrews r1a 2y1 mb,8,st andrews road
354,WALTER WHYTE SCHOOL,K-9,0,1,1,1,0,LORD SELKIRK SCHOOL DIVISION,BOX 189 GRAND MARAIS R0E 0T0 MB,BOX 189,GRAND MARAIS,R0E 0T0,MB,Province of Manitoba,grand marais r0e 0t0 mb,,grand marais
355,WILLIAM S. PATTERSON SCHOOL,K-6,0,1,1,0,0,LORD SELKIRK SCHOOL DIVISION,BOX 100 CLANDEBOYE R0C 0P0 MB,BOX 100,CLANDEBOYE,R0C 0P0,MB,Province of Manitoba,clandeboye r0c 0p0 mb,,
356,ARCHWOOD SCHOOL,K-8,0,1,1,1,0,LOUIS RIEL SCHOOL DIVISION,800 ARCHIBALD STREET WINNIPEG R2J 0Y4 MB,800 ARCHIBALD STREET,WINNIPEG,R2J 0Y4,MB,Province of Manitoba,800 archibald street winnipeg r2j 0y4 mb,800,archibald street
357,COLLÈGE BÉLIVEAU,7-12,0,0,0,1,1,LOUIS RIEL SCHOOL DIVISION,296 CHEMIN SPEERS WINNIPEG R2J 1M7 MB,296 CHEMIN SPEERS,WINNIPEG,R2J 1M7,MB,Province of Manitoba,296 chemin speers winnipeg r2j 1m7 mb,296,chemin speers
358,COLLÈGE JEANNE-SAUVÉ,9-12,0,0,0,1,1,LOUIS RIEL SCHOOL DIVISION,1128 RUE DAKOTA WINNIPEG R2N 3T8 MB,1128 RUE DAKOTA,WINNIPEG,R2N 3T8,MB,Province of Manitoba,1128 rue dakota winnipeg r2n 3t8 mb,1128,rue dakota
359,DAKOTA COLLEGIATE,9-12,0,0,0,1,1,LOUIS RIEL SCHOOL DIVISION,661 DAKOTA STREET WINNIPEG R2M 3K3 MB,661 DAKOTA STREET,WINNIPEG,R2M 3K3,MB,Province of Manitoba,661 dakota street winnipeg r2m 3k3 mb,661,dakota street
360,DARWIN SCHOOL,K-8,0,1,1,1,0,LOUIS RIEL SCHOOL DIVISION,175 DARWIN STREET WINNIPEG R2M 4A9 MB,175 DARWIN STREET,WINNIPEG,R2M 4A9,MB,Province of Manitoba,175 darwin street winnipeg r2m 4a9 mb,175,darwin street
361,DR. D. W. PENNER SCHOOL,K-6,0,1,1,0,0,LOUIS RIEL SCHOOL DIVISION,121 HAZELWOOD CRESCENT WINNIPEG R2M 4E4 MB,121 HAZELWOOD CRESCENT,WINNIPEG,R2M 4E4,MB,Province of Manitoba,121 hazelwood crescent winnipeg r2m 4e4 mb,121,hazelwood crescent
362,ÉCOLE GEORGE MCDOWELL,6-8,0,0,1,1,0,LOUIS RIEL SCHOOL DIVISION,366 CHEMIN PADDINGTON WINNIPEG R2N 1R1 MB,366 CHEMIN PADDINGTON,WINNIPEG,R2N 1R1,MB,Province of Manitoba,366 chemin paddington winnipeg r2n 1r1 mb,366,chemin paddington
363,ÉCOLE GUYOT,M-6,0,1,1,0,0,LOUIS RIEL SCHOOL DIVISION,400 CROISSANT WILLOW LAKE WINNIPEG R2J 3K2 MB,400 CROISSANT WILLOW LAKE,WINNIPEG,R2J 3K2,MB,Province of Manitoba,400 croissant willow lake winnipeg r2j 3k2 mb,400,croissant willow lake
364,ÉCOLE HENRI-BERGERON,4-8,0,0,1,1,0,LOUIS RIEL SCHOOL DIVISION,363 CROISSANT ENFIELD WINNIPEG R2H 1C6 MB,363 CROISSANT ENFIELD,WINNIPEG,R2H 1C6,MB,Province of Manitoba,363 croissant enfield winnipeg r2h 1c6 mb,363,croissant enfield
365,ÉCOLE HOWDEN,M-6,0,1,1,0,0,LOUIS RIEL SCHOOL DIVISION,150 CHEMIN HOWDEN WINNIPEG R2J 1L3 MB,150 CHEMIN HOWDEN,WINNIPEG,R2J 1L3,MB,Province of Manitoba,150 chemin howden winnipeg r2j 1l3 mb,150,chemin howden
366,ÉCOLE JULIE-RIEL,M-5,0,1,1,0,0,LOUIS RIEL SCHOOL DIVISION,316 RUE ASHWORTH WINNIPEG R2N 2L7 MB,316 RUE ASHWORTH,WINNIPEG,R2N 2L7,MB,Province of Manitoba,316 rue ashworth winnipeg r2n 2l7 mb,316,rue ashworth
367,ÉCOLE MARIE-ANNE-GABOURY,M-8,0,1,1,1,0,LOUIS RIEL SCHOOL DIVISION,95 RUE PULBERRY WINNIPEG R2M 3X5 MB,95 RUE PULBERRY,WINNIPEG,R2M 3X5,MB,Province of Manitoba,95 rue pulberry winnipeg r2m 3x5 mb,95,rue pulberry
368,ÉCOLE PROVENCHER,M-3,0,1,1,0,0,LOUIS RIEL SCHOOL DIVISION,320 AVENUE DE LA CATHÉDRALE WINNIPEG R2H 0J4 MB,320 AVENUE DE LA CATHÉDRALE,WINNIPEG,R2H 0J4,MB,Province of Manitoba,320 avenue de la cathédrale winnipeg r2h 0j4 mb,320,avenue de la cathédrale
369,ÉCOLE SAGE CREEK SCHOOL,K-8,0,1,1,1,0,LOUIS RIEL SCHOOL DIVISION,315 SAGE CREEK BLVD WINNIPEG R3X 0G4 MB,315 SAGE CREEK BLVD,WINNIPEG,R3X 0G4,MB,Province of Manitoba,315 sage creek blvd winnipeg r3x 0g4 mb,315,sage creek blvd
370,ÉCOLE SAINT-GERMAIN,M-5,0,1,1,0,0,LOUIS RIEL SCHOOL DIVISION,77 CHEMIN JOHN FORSYTH WINNIPEG R2N 1R3 MB,77 CHEMIN JOHN FORSYTH,WINNIPEG,R2N 1R3,MB,Province of Manitoba,77 chemin john forsyth winnipeg r2n 1r3 mb,77,chemin john forsyth
371,ÉCOLE VAN BELLEGHEM,M-8,0,1,1,1,0,LOUIS RIEL SCHOOL DIVISION,10 CHEMIN VERMILLION WINNIPEG R2J 2T1 MB,10 CHEMIN VERMILLION,WINNIPEG,R2J 2T1,MB,Province of Manitoba,10 chemin vermillion winnipeg r2j 2t1 mb,10,chemin vermillion
372,ÉCOLE VARENNES,M-8,0,1,1,1,0,LOUIS RIEL SCHOOL DIVISION,22 AVENUE VARENNES WINNIPEG R2M 0N1 MB,22 AVENUE VARENNES,WINNIPEG,R2M 0N1,MB,Province of Manitoba,22 avenue varennes winnipeg r2m 0n1 mb,22,avenue varennes
373,FRONTENAC SCHOOL,K-8,0,1,1,1,0,LOUIS RIEL SCHOOL DIVISION,866 AUTUMNWOOD DRIVE WINNIPEG R2J 1C1 MB,866 AUTUMNWOOD DRIVE,WINNIPEG,R2J 1C1,MB,Province of Manitoba,866 autumnwood drive winnipeg r2j 1c1 mb,866,autumnwood drive
374,GENERAL VANIER SCHOOL,K-8,0,1,1,1,0,LOUIS RIEL SCHOOL DIVISION,18 LOMOND BOULEVARD WINNIPEG R2J 1Y2 MB,18 LOMOND BOULEVARD,WINNIPEG,R2J 1Y2,MB,Province of Manitoba,18 lomond boulevard winnipeg r2j 1y2 mb,18,lomond boulevard
375,GLENLAWN COLLEGIATE,9-12,0,0,0,1,1,LOUIS RIEL SCHOOL DIVISION,770 ST. MARY'S ROAD WINNIPEG R2M 3N7 MB,770 ST. MARY'S ROAD,WINNIPEG,R2M 3N7,MB,Province of Manitoba,770 st mary's road winnipeg r2m 3n7 mb,770,st mary's road
376,GLENWOOD SCHOOL,K-8,0,1,1,1,0,LOUIS RIEL SCHOOL DIVISION,51 BLENHEIM AVENUE WINNIPEG R2M 0H9 MB,51 BLENHEIM AVENUE,WINNIPEG,R2M 0H9,MB,Province of Manitoba,51 blenheim avenue winnipeg r2m 0h9 mb,51,blenheim avenue
377,H. S. PAUL SCHOOL,K-8,0,1,1,1,0,LOUIS RIEL SCHOOL DIVISION,160 SOUTHGLEN BOULEVARD WINNIPEG R2N 3J3 MB,160 SOUTHGLEN BOULEVARD,WINNIPEG,R2N 3J3,MB,Province of Manitoba,160 southglen boulevard winnipeg r2n 3j3 mb,160,southglen boulevard
378,HASTINGS SCHOOL,K-8,0,1,1,1,0,LOUIS RIEL SCHOOL DIVISION,50 HASTINGS BOULEVARD WINNIPEG R2M 3X5 MB,50 HASTINGS BOULEVARD,WINNIPEG,R2M 3X5,MB,Province of Manitoba,50 hastings boulevard winnipeg r2m 3x5 mb,50,hastings boulevard
379,HIGHBURY SCHOOL,K-8,0,1,1,1,0,LOUIS RIEL SCHOOL DIVISION,99 HIGHBURY ROAD WINNIPEG R2N 2N5 MB,99 HIGHBURY ROAD,WINNIPEG,R2N 2N5,MB,Province of Manitoba,99 highbury road winnipeg r2n 2n5 mb,99,highbury road
380,ISLAND LAKES COMMUNITY SCHOOL,K-8,0,1,1,1,0,LOUIS RIEL SCHOOL DIVISION,445 ISLAND SHORE BLVD. WINNIPEG R3X 2B4 MB,445 ISLAND SHORE BLVD.,WINNIPEG,R3X 2B4,MB,Province of Manitoba,445 island shore blvd winnipeg r3x 2b4 mb,445,island shore blvd
381,J. H. BRUNS COLLEGIATE,9-12,0,0,0,1,1,LOUIS RIEL SCHOOL DIVISION,250 LAKEWOOD BOULEVARD WINNIPEG R2J 3A2 MB,250 LAKEWOOD BOULEVARD,WINNIPEG,R2J 3A2,MB,Province of Manitoba,250 lakewood boulevard winnipeg r2j 3a2 mb,250,lakewood boulevard
382,LAVALLEE SCHOOL,K-8,0,1,1,1,0,LOUIS RIEL SCHOOL DIVISION,505 ST. ANNE'S ROAD WINNIPEG R2M 3E5 MB,505 ST. ANNE'S ROAD,WINNIPEG,R2M 3E5,MB,Province of Manitoba,505 st anne's road winnipeg r2m 3e5 mb,505,st anne's road
383,LOUIS RIEL S.D. ARTS AND TECHNOLOGY CTR.,11-12,0,0,0,0,1,LOUIS RIEL SCHOOL DIVISION,5 DEBOURMONT AVENUE WINNIPEG R2J 1J9 MB,5 DEBOURMONT AVENUE,WINNIPEG,R2J 1J9,MB,Province of Manitoba,5 debourmont avenue winnipeg r2j 1j9 mb,5,debourmont avenue
384,MARION SCHOOL,K-8,0,1,1,1,0,LOUIS RIEL SCHOOL DIVISION,619 DESMEURONS STREET WINNIPEG R2H 2R1 MB,619 DESMEURONS STREET,WINNIPEG,R2H 2R1,MB,Province of Manitoba,619 desmeurons street winnipeg r2h 2r1 mb,619,desmeurons street
385,MINNETONKA SCHOOL,K-8,0,1,1,1,0,LOUIS RIEL SCHOOL DIVISION,200 MINNETONKA STREET WINNIPEG R2M 3Y6 MB,200 MINNETONKA STREET,WINNIPEG,R2M 3Y6,MB,Province of Manitoba,200 minnetonka street winnipeg r2m 3y6 mb,200,minnetonka street
386,NELSON MCINTYRE COLLEGIATE,9-12,0,0,0,1,1,LOUIS RIEL SCHOOL DIVISION,188 ST. MARY'S ROAD WINNIPEG R2H 1H9 MB,188 ST. MARY'S ROAD,WINNIPEG,R2H 1H9,MB,Province of Manitoba,188 st mary's road winnipeg r2h 1h9 mb,188,st mary's road
387,NIAKWA PLACE SCHOOL,K-8,0,1,1,1,0,LOUIS RIEL SCHOOL DIVISION,200 PEBBLE BEACH ROAD WINNIPEG R2J 3K3 MB,200 PEBBLE BEACH ROAD,WINNIPEG,R2J 3K3,MB,Province of Manitoba,200 pebble beach road winnipeg r2j 3k3 mb,200,pebble beach road
388,NORDALE SCHOOL,K-8,0,1,1,1,0,LOUIS RIEL SCHOOL DIVISION,99 BIRCHDALE AVENUE WINNIPEG R2H 1S2 MB,99 BIRCHDALE AVENUE,WINNIPEG,R2H 1S2,MB,Province of Manitoba,99 birchdale avenue winnipeg r2h 1s2 mb,99,birchdale avenue
389,SAMUEL BURLAND SCHOOL,K-8,0,1,1,1,0,LOUIS RIEL SCHOOL DIVISION,192 BURLAND AVENUE WINNIPEG R2N 2T9 MB,192 BURLAND AVENUE,WINNIPEG,R2N 2T9,MB,Province of Manitoba,192 burland avenue winnipeg r2n 2t9 mb,192,burland avenue
390,SHAMROCK SCHOOL,K-8,0,1,1,1,0,LOUIS RIEL SCHOOL DIVISION,831 BEAVERHILL BOULEVARD WINNIPEG R2J 3K1 MB,831 BEAVERHILL BOULEVARD,WINNIPEG,R2J 3K1,MB,Province of Manitoba,831 beaverhill boulevard winnipeg r2j 3k1 mb,831,beaverhill boulevard
391,ST. GEORGE SCHOOL,K-8,0,1,1,1,0,LOUIS RIEL SCHOOL DIVISION,151 ST. GEORGE ROAD WINNIPEG R2M 3J2 MB,151 ST. GEORGE ROAD,WINNIPEG,R2M 3J2,MB,Province of Manitoba,151 st george road winnipeg r2m 3j2 mb,151,st george road
392,VICTOR H.L. WYATT SCHOOL,K-8,0,1,1,1,0,LOUIS RIEL SCHOOL DIVISION,485 MEADOWOOD DRIVE WINNIPEG R2M 5C1 MB,485 MEADOWOOD DRIVE,WINNIPEG,R2M 5C1,MB,Province of Manitoba,485 meadowood drive winnipeg r2m 5c1 mb,485,meadowood drive
393,VICTOR MAGER SCHOOL,K-8,0,1,1,1,0,LOUIS RIEL SCHOOL DIVISION,81 BELIVEAU ROAD WINNIPEG R2M 1S6 MB,81 BELIVEAU ROAD,WINNIPEG,R2M 1S6,MB,Province of Manitoba,81 beliveau road winnipeg r2m 1s6 mb,81,beliveau road
394,WINDSOR PARK COLLEGIATE,9-12,0,0,0,1,1,LOUIS RIEL SCHOOL DIVISION,1015 COTTONWOOD ROAD WINNIPEG R2J 1G3 MB,1015 COTTONWOOD ROAD,WINNIPEG,R2J 1G3,MB,Province of Manitoba,1015 cottonwood road winnipeg r2j 1g3 mb,1015,cottonwood road
395,WINDSOR SCHOOL,K-8,0,1,1,1,0,LOUIS RIEL SCHOOL DIVISION,80 CUNNINGTON AVENUE WINNIPEG R2M 0W7 MB,80 CUNNINGTON AVENUE,WINNIPEG,R2M 0W7,MB,Province of Manitoba,80 cunnington avenue winnipeg r2m 0w7 mb,80,cunnington avenue
396,MANITOBA INSTITUTE OF TRADES AND TECH.,11-12,0,0,0,0,1,MANITOBA INSTITUTE OF TRADES AND TECH.,130 HENLOW BAY WINNIPEG R3Y 1G4 MB,130 HENLOW BAY,WINNIPEG,R3Y 1G4,MB,Province of Manitoba,130 henlow bay winnipeg r3y 1g4 mb,130,henlow bay
397,DAUPHIN REGIONAL COMP SECONDARY,9-12,0,0,0,1,1,MOUNTAIN VIEW SCHOOL DIVISION,330 MOUNTAIN ROAD NORTH DAUPHIN R7N 2V6 MB,330 MOUNTAIN ROAD NORTH,DAUPHIN,R7N 2V6,MB,Province of Manitoba,330 mountain road north dauphin r7n 2v6 mb,330,mountain road north
398,ÉCOLE MACNEILL,M-5,0,1,1,0,0,MOUNTAIN VIEW SCHOOL DIVISION,312 RUE SANDY DAUPHIN R7N 0K9 MB,312 RUE SANDY,DAUPHIN,R7N 0K9,MB,Province of Manitoba,312 rue sandy dauphin r7n 0k9 mb,312,rue sandy dauphin
399,ETHELBERT SCHOOL,K-12,0,1,1,1,1,MOUNTAIN VIEW SCHOOL DIVISION,BOX 241 ETHELBERT R0L 0T0 MB,BOX 241,ETHELBERT,R0L 0T0,MB,Province of Manitoba,ethelbert r0l 0t0 mb,,
400,GILBERT PLAINS COLLEGIATE INSTITUTE,9-12,0,0,0,1,1,MOUNTAIN VIEW SCHOOL DIVISION,BOX 70 GILBERT PLAINS R0L 0X0 MB,BOX 70,GILBERT PLAINS,R0L 0X0,MB,Province of Manitoba,gilbert plains r0l 0x0 mb,,
401,GILBERT PLAINS ELEMENTARY,K-8,0,1,1,1,0,MOUNTAIN VIEW SCHOOL DIVISION,BOX 397 GILBERT PLAINS R0L 0X0 MB,BOX 397,GILBERT PLAINS,R0L 0X0,MB,Province of Manitoba,gilbert plains r0l 0x0 mb,,
402,GOOSE LAKE HIGH,9-12,0,0,0,1,1,MOUNTAIN VIEW SCHOOL DIVISION,BOX 759 ROBLIN R0L 1P0 MB,BOX 759,ROBLIN,R0L 1P0,MB,Province of Manitoba,roblin r0l 1p0 mb,,
403,GRANDVIEW SCHOOL,K-12,0,1,1,1,1,MOUNTAIN VIEW SCHOOL DIVISION,BOX 279 GRANDVIEW R0L 0Y0 MB,BOX 279,GRANDVIEW,R0L 0Y0,MB,Province of Manitoba,grandview r0l 0y0 mb,,
404,HENDERSON ELEMENTARY,K-6,0,1,1,0,0,MOUNTAIN VIEW SCHOOL DIVISION,911 BOND STREET DAUPHIN R7N 3J7 MB,911 BOND STREET,DAUPHIN,R7N 3J7,MB,Province of Manitoba,911 bond street dauphin r7n 3j7 mb,911,bond street
405,LT. COL. BARKER V.C. SCHOOL,K-5,0,1,1,0,0,MOUNTAIN VIEW SCHOOL DIVISION,1516 BOND STREET DAUPHIN R7N 0K4 MB,1516 BOND STREET,DAUPHIN,R7N 0K4,MB,Province of Manitoba,1516 bond street dauphin r7n 0k4 mb,1516,bond street
406,MACKENZIE MIDDLE SCHOOL,6-8,0,0,1,1,0,MOUNTAIN VIEW SCHOOL DIVISION,212 - 1ST STREET N.E. DAUPHIN R7N 1B7 MB,212 - 1ST STREET N.E.,DAUPHIN,R7N 1B7,MB,Province of Manitoba,212 1st street ne dauphin r7n 1b7 mb,212,1st street ne
407,OCHRE RIVER SCHOOL,K-8,0,1,1,1,0,MOUNTAIN VIEW SCHOOL DIVISION,GENERAL DELIVERY OCHRE RIVER R0L 1K0 MB,GENERAL DELIVERY,OCHRE RIVER,R0L 1K0,MB,Province of Manitoba,general delivery ochre river r0l 1k0 mb,,general delivery
408,ROBLIN ELEMENTARY,K-8,0,1,1,1,0,MOUNTAIN VIEW SCHOOL DIVISION,BOX 699 ROBLIN R0L 1P0 MB,BOX 699,ROBLIN,R0L 1P0,MB,Province of Manitoba,roblin r0l 1p0 mb,,
409,SMITH-JACKSON SCHOOL,K-5,0,1,1,0,0,MOUNTAIN VIEW SCHOOL DIVISION,701 FIRST STREET S.E. DAUPHIN R7N 3L4 MB,701 FIRST STREET S.E.,DAUPHIN,R7N 3L4,MB,Province of Manitoba,701 first street se dauphin r7n 3l4 mb,701,first street se
410,WHITMORE SCHOOL,K-5,0,1,1,0,0,MOUNTAIN VIEW SCHOOL DIVISION,28 SIXTH AVENUE S.W. DAUPHIN R7N 1V9 MB,28 SIXTH AVENUE S.W.,DAUPHIN,R7N 1V9,MB,Province of Manitoba,28 sixth avenue sw dauphin r7n 1v9 mb,28,sixth avenue sw dauphin
411,WINNIPEGOSIS COLLEGIATE,9-12,0,0,0,1,1,MOUNTAIN VIEW SCHOOL DIVISION,BOX 100 WINNIPEGOSIS R0L 2G0 MB,BOX 100,WINNIPEGOSIS,R0L 2G0,MB,Province of Manitoba,winnipegosis r0l 2g0 mb,,
412,WINNIPEGOSIS ELEMENTARY,K-8,0,1,1,1,0,MOUNTAIN VIEW SCHOOL DIVISION,BOX 120 WINNIPEGOSIS R0L 2G0 MB,BOX 120,WINNIPEGOSIS,R0L 2G0,MB,Province of Manitoba,winnipegosis r0l 2g0 mb,,
413,BURNTWOOD ELEMENTARY,K-8,0,1,1,1,0,MYSTERY LAKE SCHOOL DISTRICT,103 ARCTIC DRIVE THOMPSON R8N 1G8 MB,103 ARCTIC DRIVE,THOMPSON,R8N 1G8,MB,Province of Manitoba,103 arctic drive thompson r8n 1g8 mb,103,arctic drive
414,DEERWOOD SCHOOL,K-8,0,1,1,1,0,MYSTERY LAKE SCHOOL DISTRICT,101 BEAVER CRESCENT THOMPSON R8N 1C5 MB,101 BEAVER CRESCENT,THOMPSON,R8N 1C5,MB,Province of Manitoba,101 beaver crescent thompson r8n 1c5 mb,101,beaver crescent
415,JUNIPER SCHOOL,K-8,0,1,1,1,0,MYSTERY LAKE SCHOOL DISTRICT,306 JUNIPER DRIVE THOMPSON R8N 0S9 MB,306 JUNIPER DRIVE,THOMPSON,R8N 0S9,MB,Province of Manitoba,306 juniper drive thompson r8n 0s9 mb,306,juniper drive
416,R. D. PARKER COLLEGIATE,9-12,0,0,0,1,1,MYSTERY LAKE SCHOOL DISTRICT,272 THOMPSON DRIVE NORTH THOMPSON R8N 0C4 MB,272 THOMPSON DRIVE NORTH,THOMPSON,R8N 0C4,MB,Province of Manitoba,272 thompson drive north thompson r8n 0c4 mb,272,thompson drive north thompson
417,RIVERSIDE SCHOOL,K-8,0,1,1,1,0,MYSTERY LAKE SCHOOL DISTRICT,119 RIVERSIDE DRIVE THOMPSON R8N 0X1 MB,119 RIVERSIDE DRIVE,THOMPSON,R8N 0X1,MB,Province of Manitoba,119 riverside drive thompson r8n 0x1 mb,119,riverside drive
418,WAPANOHK COMMUNITY SCHOOL,K-8,0,1,1,1,0,MYSTERY LAKE SCHOOL DISTRICT,453 PRINCETON DRIVE THOMPSON R8N 1W8 MB,453 PRINCETON DRIVE,THOMPSON,R8N 1W8,MB,Province of Manitoba,453 princeton drive thompson r8n 1w8 mb,453,princeton drive
419,WESTWOOD ELEMENTARY,K-8,0,1,1,1,0,MYSTERY LAKE SCHOOL DISTRICT,46 MALLARD CRESCENT THOMPSON R8N 0X9 MB,46 MALLARD CRESCENT,THOMPSON,R8N 0X9,MB,Province of Manitoba,46 mallard crescent thompson r8n 0x9 mb,46,mallard crescent
420,AIRPORT COLONY SCHOOL,K-12,0,1,1,1,1,NON-FUNDED SCHOOLS,P.O. BOX 967 PORTAGE LA PRAIRIE R1N 3C4 MB,P.O. BOX 967,PORTAGE LA PRAIRIE,R1N 3C4,MB,Province of Manitoba,portage la prairie r1n 3c4 mb,,
421,ASSINIBOINE VALLEY CHRISTIAN SCHOOL,1-9,0,0,1,1,0,NON-FUNDED SCHOOLS,"SITE 170, BOX 37, R.R. #1 BRANDON R7A 5Y1 MB","SITE 170, BOX 37, R.R. #1",BRANDON,R7A 5Y1,MB,Province of Manitoba,site 170 rr #1 brandon r7a 5y1 mb,#1,brandon
422,BORDER VIEW CHRISTIAN DAY SCHOOL,1-10,0,0,1,1,1,NON-FUNDED SCHOOLS,BOX 103 STUARTBURN R0A 2B0 MB,BOX 103,STUARTBURN,R0A 2B0,MB,Province of Manitoba,stuartburn r0a 2b0 mb,,
423,CASA MONTESSORI AND ORFF SCHOOL,K-6,0,1,1,0,0,NON-FUNDED SCHOOLS,80 FENNELL STREET WINNIPEG R3T 3M4 MB,80 FENNELL STREET,WINNIPEG,R3T 3M4,MB,Province of Manitoba,80 fennell street winnipeg r3t 3m4 mb,80,fennell street
424,CGF Mitchell Academy,1-4,0,0,1,0,0,NON-FUNDED SCHOOLS,BOX 3143 STEINBACH R5G 1P5 MB,BOX 3143,STEINBACH,R5G 1P5,MB,Province of Manitoba,steinbach r5g 1p5 mb,,
425,CHRIST FULL GOSPEL ACADEMY,1-12,0,0,1,1,1,NON-FUNDED SCHOOLS,BOX 107 75 ELM STREET PLUM COULEE R0G 1R0 MB,BOX 107,PLUM COULEE,R0G 1R0,MB,Province of Manitoba,75 elm street plum coulee r0g 1r0 mb,75,elm street
426,CHURCH OF GOD ACADEMY,1-12,0,0,1,1,1,NON-FUNDED SCHOOLS,P.O. BOX 3368 STEINBACH R5G 1P6 MB,P.O. BOX 3368,STEINBACH,R5G 1P6,MB,Province of Manitoba,steinbach r5g 1p6 mb,,
427,COUNTRY VIEW SCHOOL,1-9,0,0,1,1,0,NON-FUNDED SCHOOLS,BOX 3910 STEINBACH R5G 1P9 MB,BOX 3910,STEINBACH,R5G 1P9,MB,Province of Manitoba,steinbach r5g 1p9 mb,,
428,CRYSTAL CREEK SCHOOL,2-9,0,0,1,1,0,NON-FUNDED SCHOOLS,BOX 266 CRYSTAL CITY R0K 0N0 MB,BOX 266,CRYSTAL CITY,R0K 0N0,MB,Province of Manitoba,crystal city r0k 0n0 mb,,
429,EDRANS CHRISTIAN SCHOOL,K-12,0,1,1,1,1,NON-FUNDED SCHOOLS,"BOX 1 R.R. #1, GRP 15 AUSTIN R0H 0C0 MB",BOX 1,AUSTIN,R0H 0C0,MB,Province of Manitoba,rr #1 grp 15 austin r0h 0c0 mb,,rr #1 grp 15
430,FREEDOM INTERNATIONAL SCHOOL,8-12,0,0,0,1,1,NON-FUNDED SCHOOLS,376 NOTRE DAME AVENUE WINNIPEG R3B 1P8 MB,376 NOTRE DAME AVENUE,WINNIPEG,R3B 1P8,MB,Province of Manitoba,376 notre dame avenue winnipeg r3b 1p8 mb,376,notre dame avenue
431,GONZAGA MIDDLE SCHOOL,6-7,0,0,1,1,0,NON-FUNDED SCHOOLS,174 MAPLE STREET NORTH WINNIPEG R2W 3L4 MB,174 MAPLE STREET NORTH,WINNIPEG,R2W 3L4,MB,Province of Manitoba,174 maple street north winnipeg r2w 3l4 mb,174,maple street north
432,GRACE VALLEY MENNONITE ACADEMY,K-12,0,1,1,1,1,NON-FUNDED SCHOOLS,BOX 839 WINKLER R6W 4A9 MB,BOX 839,WINKLER,R6W 4A9,MB,Province of Manitoba,winkler r6w 4a9 mb,,
433,GREENLAND SCHOOL,1-9,0,0,1,1,0,NON-FUNDED SCHOOLS,"BOX 22, GRP. 15, R.R.#1 STE. ANNE R5H 1R1 MB","BOX 22, GRP. 15, R.R.#1",STE. ANNE,R5H 1R1,MB,Province of Manitoba,grp 15 rr#1 ste anne r5h 1r1 mb,,grp 15 rr#1
434,HORNDEAN CHRISTIAN DAY SCHOOL,1-12,0,0,1,1,1,NON-FUNDED SCHOOLS,BOX 79 HORNDEAN R0G 0Z0 MB,BOX 79,HORNDEAN,R0G 0Z0,MB,Province of Manitoba,horndean r0g 0z0 mb,,
435,HOSANNA CHRISTIAN SCHOOL,1-12,0,0,1,1,1,NON-FUNDED SCHOOLS,UNIT C-1 431 THAMES STREET WINNIPEG R2L 0V4 MB,UNIT C-1,WINNIPEG,R2L 0V4,MB,Province of Manitoba,unit c 1 431 thames street winnipeg r2l 0v4 mb,431,thames street
436,INSPIRED EXPLORATIONS LEARNING COMMUNITY,K-3,0,1,1,0,0,NON-FUNDED SCHOOLS,"PO BOX 413, STN MAIN WINNIPEG R3C 2H6 MB","PO BOX 413, STN MAIN",WINNIPEG,R3C 2H6,MB,Province of Manitoba,stn main winnipeg r3c 2h6 mb,,
437,INTERLAKE MENNONITE FELLOWSHIP SCHOOL,1-12,0,0,1,1,1,NON-FUNDED SCHOOLS,BOX 388 ARBORG R0C 0A0 MB,BOX 388,ARBORG,R0C 0A0,MB,Province of Manitoba,arborg r0c 0a0 mb,,arborg
438,LAKE CENTRE MENNONITE FELLOWSHIP SCH.,K-10,0,1,1,1,1,NON-FUNDED SCHOOLS,BOX 838 ARBORG R0C 0A0 MB,BOX 838,ARBORG,R0C 0A0,MB,Province of Manitoba,arborg r0c 0a0 mb,,arborg
439,LIGHTFIELD MENNONITE SCHOOL,1-10,0,0,1,1,1,NON-FUNDED SCHOOLS,BOX 41 HORDEAN R0G 0Z0 MB,BOX 41,HORDEAN,R0G 0Z0,MB,Province of Manitoba,hordean r0g 0z0 mb,,
440,LIGHTHOUSE CHRISTIAN SCHOOL,K-12,0,1,1,1,1,NON-FUNDED SCHOOLS,BOX 1360 PORTAGE LA PRAIRIE R1N 3N9 MB,BOX 1360,PORTAGE LA PRAIRIE,R1N 3N9,MB,Province of Manitoba,portage la prairie r1n 3n9 mb,,
441,LITTLE CREEK SCHOOL,1-12,0,0,1,1,1,NON-FUNDED SCHOOLS,BOX 205 247 JUBILEE ROAD MARQUETTE R0H 0V0 MB,BOX 205,MARQUETTE,R0H 0V0,MB,Province of Manitoba,247 jubilee road marquette r0h 0v0 mb,247,jubilee road
442,LIVING HOPE SCHOOL,K-12,0,1,1,1,1,NON-FUNDED SCHOOLS,BOX 2158 NEEPAWA R0J 1H0 MB,BOX 2158,NEEPAWA,R0J 1H0,MB,Province of Manitoba,neepawa r0j 1h0 mb,,
443,MENNONITE CHRISTIAN ACADEMY,K-12,0,1,1,1,1,NON-FUNDED SCHOOLS,BOX 149 GRUNTHAL R0A 0R0 MB,BOX 149,GRUNTHAL,R0A 0R0,MB,Province of Manitoba,grunthal r0a 0r0 mb,,
444,MILLTOWN ACADEMY,K-12,0,1,1,1,1,NON-FUNDED SCHOOLS,BOX 250 ELIE R0H 0H0 MB,BOX 250,ELIE,R0H 0H0,MB,Province of Manitoba,elie r0h 0h0 mb,,
445,MORNING GLORY SCHOOL,K-12,0,1,1,1,1,NON-FUNDED SCHOOLS,35062 ROAD 32 EAST MITCHELL R5G 2N1 MB,35062 ROAD 32 EAST,MITCHELL,R5G 2N1,MB,Province of Manitoba,35062 road 32 east mitchell r5g 2n1 mb,35062,road 32 east mitchell r5g
446,NEW LIFE FELLOWSHIP SCHOOL,K-12,0,1,1,1,1,NON-FUNDED SCHOOLS,RR1 BOX 247 WINKLER R6W 4A1 MB,RR1 BOX 247,WINKLER,R6W 4A1,MB,Province of Manitoba,rr1 winkler r6w 4a1 mb,,rr1 winkler
447,OLD COLONY MENNONITE SCHOOL,K-12,0,1,1,1,1,NON-FUNDED SCHOOLS,5 REINFELD STREET SOUTH REINFELD R6W 1L6 MB,5 REINFELD STREET SOUTH,REINFELD,R6W 1L6,MB,Province of Manitoba,5 reinfeld street south reinfeld r6w 1l6 mb,5,reinfeld street south reinfeld
448,PARADISE MONTESSORI SCHOOL,N-K,1,1,0,0,0,NON-FUNDED SCHOOLS,1341 KENASTON BLVD. WINNIPEG R3P 2P2 MB,1341 KENASTON BLVD.,WINNIPEG,R3P 2P2,MB,Province of Manitoba,1341 kenaston blvd winnipeg r3p 2p2 mb,1341,kenaston blvd
449,PARKLAND CHRISTIAN SCHOOL,1-9,0,0,1,1,0,NON-FUNDED SCHOOLS,BOX 480 ROBLIN R0L 1P0 MB,BOX 480,ROBLIN,R0L 1P0,MB,Province of Manitoba,roblin r0l 1p0 mb,,
450,PINE CREEK CHRISTIAN DAY SCHOOL,1-9,0,0,1,1,0,NON-FUNDED SCHOOLS,BOX 219 AUSTIN R0H 0C0 MB,BOX 219,AUSTIN,R0H 0C0,MB,Province of Manitoba,austin r0h 0c0 mb,,
451,PINE RIVER COUNTRY SCHOOL,1-9,0,0,1,1,0,NON-FUNDED SCHOOLS,P.O. BOX 242 PINE RIVER R0L 1M0 MB,P.O. BOX 242,PINE RIVER,R0L 1M0,MB,Province of Manitoba,pine river r0l 1m0 mb,,
452,POPLAR GROVE SCHOOL,1-9,0,0,1,1,0,NON-FUNDED SCHOOLS,BOX 70 GRANDVIEW R0L 0Y0 MB,BOX 70,GRANDVIEW,R0L 0Y0,MB,Province of Manitoba,grandview r0l 0y0 mb,,
453,PRAIRIE MENNONITE SCHOOL,K-12,0,1,1,1,1,NON-FUNDED SCHOOLS,BOX 50 PLUM COULEE R0G 1R0 MB,BOX 50,PLUM COULEE,R0G 1R0,MB,Province of Manitoba,plum coulee r0g 1r0 mb,,
454,PRAIRIE VIEW AMISH SCHOOL,1-8,0,0,1,1,0,NON-FUNDED SCHOOLS,BOX 390 GLADSTONE R0J 0T0 MB,BOX 390,GLADSTONE,R0J 0T0,MB,Province of Manitoba,gladstone r0j 0t0 mb,,
455,PRAIRIE VIEW SCHOOL,K-9,0,1,1,1,0,NON-FUNDED SCHOOLS,BOX 117 ROSENORT R0G 1W0 MB,BOX 117,ROSENORT,R0G 1W0,MB,Province of Manitoba,rosenort r0g 1w0 mb,,
456,RIVERDALE SCHOOL,K-9,0,1,1,1,0,NON-FUNDED SCHOOLS,R.R. #1 KENVILLE R0L 0Z0 MB,R.R. #1,KENVILLE,R0L 0Z0,MB,Province of Manitoba,rr #1 kenville r0l 0z0 mb,,rr #1
457,RIVERSIDE SCHOOL,1-9,0,0,1,1,0,NON-FUNDED SCHOOLS,BOX 136 ELMA R0E 0Z0 MB,BOX 136,ELMA,R0E 0Z0,MB,Province of Manitoba,elma r0e 0z0 mb,,elma
458,ROCK LAKE SCHOOL,1-9,0,0,1,1,0,NON-FUNDED SCHOOLS,BOX 69 CARTWRIGHT R0K 0L0 MB,BOX 69,CARTWRIGHT,R0K 0L0,MB,Province of Manitoba,cartwright r0k 0l0 mb,,
459,SHADY OAK CHRISTIAN SCHOOL,K-9,0,1,1,1,0,NON-FUNDED SCHOOLS,BOX 14 BIRNIE R0J 0J0 MB,BOX 14,BIRNIE,R0J 0J0,MB,Province of Manitoba,birnie r0j 0j0 mb,,
460,SOLID ROCK MINISTRIES CHRISTIAN SCHOOL,K-12,0,1,1,1,1,NON-FUNDED SCHOOLS,125 - 4TH AVENUE PORTAGE LA PRAIRIE R1N 0E9 MB,125 - 4TH AVENUE,PORTAGE LA PRAIRIE,R1N 0E9,MB,Province of Manitoba,125 4th avenue portage la prairie r1n 0e9 mb,125,4th avenue
461,STONY CREEK SCHOOL,1-9,0,0,1,1,0,NON-FUNDED SCHOOLS,BOX 5 SINCLAIR R0M 2A0 MB,BOX 5,SINCLAIR,R0M 2A0,MB,Province of Manitoba,sinclair r0m 2a0 mb,,
462,SUNFLOWER VALLEY CHRISTIAN SCHOOL,1-9,0,0,1,1,0,NON-FUNDED SCHOOLS,BOX 2484 ALTONA R0G 0B0 MB,BOX 2484,ALTONA,R0G 0B0,MB,Province of Manitoba,altona r0g 0b0 mb,,
463,TWELVE TRIBES SCHOOL,1-12,0,0,1,1,1,NON-FUNDED SCHOOLS,89 EAST GATE WINNIPEG R3C 2C2 MB,89 EAST GATE,WINNIPEG,R3C 2C2,MB,Province of Manitoba,89 east gate winnipeg r3c 2c2 mb,89,east gate
464,TWIN RIVERS COUNTRY SCHOOL,1-9,0,0,1,1,0,NON-FUNDED SCHOOLS,BOX 30 ELMA R0E 0Z0 MB,BOX 30,ELMA,R0E 0Z0,MB,Province of Manitoba,elma r0e 0z0 mb,,elma
465,VALLEY MENNONITE ACADEMY,K-12,0,1,1,1,1,NON-FUNDED SCHOOLS,BOX 139 GRP 7 RR 1 WINKLER R6W 4A1 MB,BOX 139 GRP 7 RR 1,WINKLER,R6W 4A1,MB,Province of Manitoba,grp 7 rr 1 winkler r6w 4a1 mb,,grp 7 rr 1 winkler
466,WILD ROSE SCHOOL,1-9,0,0,1,1,0,NON-FUNDED SCHOOLS,33157 ROAD 27E KLEEFELD R0A 0V1 MB,33157 ROAD 27E,KLEEFELD,R0A 0V1,MB,Province of Manitoba,33157 road 27e kleefeld r0a 0v1 mb,33157,road 27e kleefeld r0a
467,WILLOW GROVE SCHOOL,K-9,0,1,1,1,0,NON-FUNDED SCHOOLS,BOX 59 BEAUSEJOUR R0E 0C0 MB,BOX 59,BEAUSEJOUR,R0E 0C0,MB,Province of Manitoba,beausejour r0e 0c0 mb,,
468,WINNIPEG MONTESSORI SCHOOL INC.,K-K,0,1,0,0,0,NON-FUNDED SCHOOLS,1525 WILSON PLACE WINNIPEG R3T 4H1 MB,1525 WILSON PLACE,WINNIPEG,R3T 4H1,MB,Province of Manitoba,1525 wilson place winnipeg r3t 4h1 mb,1525,wilson place
469,BINSCARTH ELEMENTARY,K-8,0,1,1,1,0,PARK WEST SCHOOL DIVISION,BOX 130 BINSCARTH R0J 0G0 MB,BOX 130,BINSCARTH,R0J 0G0,MB,Province of Manitoba,binscarth r0j 0g0 mb,,
470,BIRTLE COLLEGIATE,5-12,0,0,1,1,1,PARK WEST SCHOOL DIVISION,BOX 370 BIRTLE R0M 0C0 MB,BOX 370,BIRTLE,R0M 0C0,MB,Province of Manitoba,birtle r0m 0c0 mb,,
471,BIRTLE ELEMENTARY,K-4,0,1,1,0,0,PARK WEST SCHOOL DIVISION,BOX 340 BIRTLE R0M 0C0 MB,BOX 340,BIRTLE,R0M 0C0,MB,Province of Manitoba,birtle r0m 0c0 mb,,
472,DECKER COLONY SCHOOL,K-12,0,1,1,1,1,PARK WEST SCHOOL DIVISION,DECKER COLONY BOX 8 DECKER R0M 0K0 MB,DECKER COLONY,DECKER,R0M 0K0,MB,Province of Manitoba,decker colony decker r0m 0k0 mb,,
473,HAMIOTA COLLEGIATE,6-12,0,0,1,1,1,PARK WEST SCHOOL DIVISION,BOX 200 HAMIOTA R0M 0T0 MB,BOX 200,HAMIOTA,R0M 0T0,MB,Province of Manitoba,hamiota r0m 0t0 mb,,
474,HAMIOTA ELEMENTARY,K-5,0,1,1,0,0,PARK WEST SCHOOL DIVISION,BOX 427 HAMIOTA R0M 0T0 MB,BOX 427,HAMIOTA,R0M 0T0,MB,Province of Manitoba,hamiota r0m 0t0 mb,,
475,INGLIS ELEMENTARY,K-8,0,1,1,1,0,PARK WEST SCHOOL DIVISION,BOX 30 INGLIS R0J 0X0 MB,BOX 30,INGLIS,R0J 0X0,MB,Province of Manitoba,inglis r0j 0x0 mb,,inglis
476,MAJOR PRATT SCHOOL,K-12,0,1,1,1,1,PARK WEST SCHOOL DIVISION,GENERAL DELIVERY RUSSELL R0J 1W0 MB,GENERAL DELIVERY,RUSSELL,R0J 1W0,MB,Province of Manitoba,general delivery russell r0j 1w0 mb,,general delivery
477,MINIOTA SCHOOL,K-8,0,1,1,1,0,PARK WEST SCHOOL DIVISION,BOX 190 MINIOTA R0M 1M0 MB,BOX 190,MINIOTA,R0M 1M0,MB,Province of Manitoba,miniota r0m 1m0 mb,,
478,MONARCH COLONY SCHOOL,K-12,0,1,1,1,1,PARK WEST SCHOOL DIVISION,MONARCH COLONY FARMS LTD. BOX 226 FOXWARREN R0J 0R0 MB,MONARCH COLONY FARMS LTD.,FOXWARREN,R0J 0R0,MB,Province of Manitoba,monarch colony farms ltd foxwarren r0j 0r0 mb,,foxwarren
479,ROSSBURN COLLEGIATE,9-12,0,0,0,1,1,PARK WEST SCHOOL DIVISION,BOX 370 ROSSBURN R0J 1V0 MB,BOX 370,ROSSBURN,R0J 1V0,MB,Province of Manitoba,rossburn r0j 1v0 mb,,
480,ROSSBURN ELEMENTARY,K-8,0,1,1,1,0,PARK WEST SCHOOL DIVISION,BOX 160 ROSSBURN R0J 1V0 MB,BOX 160,ROSSBURN,R0J 1V0,MB,Province of Manitoba,rossburn r0j 1v0 mb,,
481,SHOAL LAKE SCHOOL,K-12,0,1,1,1,1,PARK WEST SCHOOL DIVISION,BOX 10 SHOAL LAKE R0J 1Z0 MB,BOX 10,SHOAL LAKE,R0J 1Z0,MB,Province of Manitoba,shoal lake r0j 1z0 mb,,
482,STRATHCLAIR COMMUNITY SCHOOL,K-12,0,1,1,1,1,PARK WEST SCHOOL DIVISION,BOX 130 STRATHCLAIR R0J 2C0 MB,BOX 130,STRATHCLAIR,R0J 2C0,MB,Province of Manitoba,strathclair r0j 2c0 mb,,
483,WAYWAYSEECAPPO COMMUNITY SCHOOL,N-8,1,1,1,1,0,PARK WEST SCHOOL DIVISION,BOX 9 WAYWAYSEECAPPO R0J 1S0 MB,BOX 9,WAYWAYSEECAPPO,R0J 1S0,MB,Province of Manitoba,waywayseecappo r0j 1s0 mb,,
484,ACADIA JUNIOR HIGH SCHOOL,7-9,0,0,0,1,0,PEMBINA TRAILS SCHOOL DIVISION,175 KILLARNEY AVENUE WINNIPEG R3T 3B3 MB,175 KILLARNEY AVENUE,WINNIPEG,R3T 3B3,MB,Province of Manitoba,175 killarney avenue winnipeg r3t 3b3 mb,175,killarney avenue
485,ARTHUR A. LEACH JUNIOR HIGH,5-9,0,0,1,1,0,PEMBINA TRAILS SCHOOL DIVISION,1827 CHANCELLOR DRIVE WINNIPEG R3T 4C4 MB,1827 CHANCELLOR DRIVE,WINNIPEG,R3T 4C4,MB,Province of Manitoba,1827 chancellor drive winnipeg r3t 4c4 mb,1827,chancellor drive
486,BAIRDMORE SCHOOL,K-6,0,1,1,0,0,PEMBINA TRAILS SCHOOL DIVISION,700 BAIRDMORE BOULEVARD WINNIPEG R3T 5R3 MB,700 BAIRDMORE BOULEVARD,WINNIPEG,R3T 5R3,MB,Province of Manitoba,700 bairdmore boulevard winnipeg r3t 5r3 mb,700,bairdmore boulevard
487,BEAUMONT SCHOOL,K-5,0,1,1,0,0,PEMBINA TRAILS SCHOOL DIVISION,5880 BETSWORTH AVENUE WINNIPEG R3R 0J7 MB,5880 BETSWORTH AVENUE,WINNIPEG,R3R 0J7,MB,Province of Manitoba,5880 betsworth avenue winnipeg r3r 0j7 mb,5880,betsworth avenue
488,BEAVERLODGE SCHOOL,K-5,0,1,1,0,0,PEMBINA TRAILS SCHOOL DIVISION,6691 RANNOCK AVENUE WINNIPEG R3R 1Z3 MB,6691 RANNOCK AVENUE,WINNIPEG,R3R 1Z3,MB,Province of Manitoba,6691 rannock avenue winnipeg r3r 1z3 mb,6691,rannock avenue
489,CHANCELLOR ELEMENTARY,K-6,0,1,1,0,0,PEMBINA TRAILS SCHOOL DIVISION,1520 CHANCELLOR DRIVE WINNIPEG R3T 4P8 MB,1520 CHANCELLOR DRIVE,WINNIPEG,R3T 4P8,MB,Province of Manitoba,1520 chancellor drive winnipeg r3t 4p8 mb,1520,chancellor drive
490,DALHOUSIE SCHOOL,K-6,0,1,1,0,0,PEMBINA TRAILS SCHOOL DIVISION,262 DALHOUSIE DRIVE WINNIPEG R3T 2Z1 MB,262 DALHOUSIE DRIVE,WINNIPEG,R3T 2Z1,MB,Province of Manitoba,262 dalhousie drive winnipeg r3t 2z1 mb,262,dalhousie drive
491,ÉCOLE CHARLESWOOD SCHOOL,5-8,0,0,1,1,0,PEMBINA TRAILS SCHOOL DIVISION,505 OAKDALE DRIVE WINNIPEG R3R 0Z9 MB,505 OAKDALE DRIVE,WINNIPEG,R3R 0Z9,MB,Province of Manitoba,505 oakdale drive winnipeg r3r 0z9 mb,505,oakdale drive
492,ÉCOLE CRANE,M-4,0,1,1,0,0,PEMBINA TRAILS SCHOOL DIVISION,888 AVENUE CRANE WINNIPEG R3T 1T9 MB,888 AVENUE CRANE,WINNIPEG,R3T 1T9,MB,Province of Manitoba,888 avenue crane winnipeg r3t 1t9 mb,888,avenue crane
493,ÉCOLE DIEPPE,M-4,0,1,1,0,0,PEMBINA TRAILS SCHOOL DIVISION,530 CHEMIN DIEPPE WINNIPEG R3R 1C4 MB,530 CHEMIN DIEPPE,WINNIPEG,R3R 1C4,MB,Province of Manitoba,530 chemin dieppe winnipeg r3r 1c4 mb,530,chemin dieppe
494,ÉCOLE SAINT-AVILA,M-6,0,1,1,0,0,PEMBINA TRAILS SCHOOL DIVISION,633 AVENUE PATRICIA WINNIPEG R3T 3A8 MB,633 AVENUE PATRICIA,WINNIPEG,R3T 3A8,MB,Province of Manitoba,633 avenue patricia winnipeg r3t 3a8 mb,633,avenue patricia
495,ÉCOLE SOUTH POINTE SCHOOL,K-8,0,1,1,1,0,PEMBINA TRAILS SCHOOL DIVISION,615 KIRKBRIDGE DRIVE WINNIPEG R3T 6B4 MB,615 KIRKBRIDGE DRIVE,WINNIPEG,R3T 6B4,MB,Province of Manitoba,615 kirkbridge drive winnipeg r3t 6b4 mb,615,kirkbridge drive
496,ÉCOLE TUXEDO PARK,M-4,0,1,1,0,0,PEMBINA TRAILS SCHOOL DIVISION,2300 AVENUE CORYDON WINNIPEG R3P 0N6 MB,2300 AVENUE CORYDON,WINNIPEG,R3P 0N6,MB,Province of Manitoba,2300 avenue corydon winnipeg r3p 0n6 mb,2300,avenue corydon
497,ÉCOLE VISCOUNT ALEXANDER,5-8,0,0,1,1,0,PEMBINA TRAILS SCHOOL DIVISION,810 AVENUE WATERFORD WINNIPEG R3T 1G7 MB,810 AVENUE WATERFORD,WINNIPEG,R3T 1G7,MB,Province of Manitoba,810 avenue waterford winnipeg r3t 1g7 mb,810,avenue
498,FORT RICHMOND COLLEGIATE,10-12,0,0,0,0,1,PEMBINA TRAILS SCHOOL DIVISION,99 KILLARNEY AVENUE WINNIPEG R3T 3B3 MB,99 KILLARNEY AVENUE,WINNIPEG,R3T 3B3,MB,Province of Manitoba,99 killarney avenue winnipeg r3t 3b3 mb,99,killarney avenue
499,GENERAL BYNG SCHOOL,K-9,0,1,1,1,0,PEMBINA TRAILS SCHOOL DIVISION,1250 BEAUMONT STREET WINNIPEG R3T 0L8 MB,1250 BEAUMONT STREET,WINNIPEG,R3T 0L8,MB,Province of Manitoba,1250 beaumont street winnipeg r3t 0l8 mb,1250,beaumont street
500,HENRY G. IZATT MIDDLE SCHOOL,5-9,0,0,1,1,0,PEMBINA TRAILS SCHOOL DIVISION,960 SCURFIELD BLVD. WINNIPEG R3Y 1N6 MB,960 SCURFIELD BLVD.,WINNIPEG,R3Y 1N6,MB,Province of Manitoba,960 scurfield blvd winnipeg r3y 1n6 mb,960,scurfield blvd
501,LAIDLAW SCHOOL,K-8,0,1,1,1,0,PEMBINA TRAILS SCHOOL DIVISION,515 LAIDLAW BOULEVARD WINNIPEG R3P 0L2 MB,515 LAIDLAW BOULEVARD,WINNIPEG,R3P 0L2,MB,Province of Manitoba,515 laidlaw boulevard winnipeg r3p 0l2 mb,515,laidlaw boulevard
502,LINDEN MEADOWS SCHOOL,K-8,0,1,1,1,0,PEMBINA TRAILS SCHOOL DIVISION,335 LINDENWOOD DRIVE EAST WINNIPEG R3P 2H1 MB,335 LINDENWOOD DRIVE EAST,WINNIPEG,R3P 2H1,MB,Province of Manitoba,335 lindenwood drive east winnipeg r3p 2h1 mb,335,lindenwood drive east
503,OAK PARK HIGH,9-12,0,0,0,1,1,PEMBINA TRAILS SCHOOL DIVISION,820 CHARLESWOOD ROAD WINNIPEG R3R 1K6 MB,820 CHARLESWOOD ROAD,WINNIPEG,R3R 1K6,MB,Province of Manitoba,820 charleswood road winnipeg r3r 1k6 mb,820,charleswood road
504,OAKENWALD SCHOOL,K-6,0,1,1,0,0,PEMBINA TRAILS SCHOOL DIVISION,666 OAKENWALD AVENUE WINNIPEG R3T 1M4 MB,666 OAKENWALD AVENUE,WINNIPEG,R3T 1M4,MB,Province of Manitoba,666 oakenwald avenue winnipeg r3t 1m4 mb,666,oakenwald avenue
505,PACIFIC JUNCTION SCHOOL,K-5,0,1,1,0,0,PEMBINA TRAILS SCHOOL DIVISION,715 CATHCART STREET WINNIPEG R3R 3M7 MB,715 CATHCART STREET,WINNIPEG,R3R 3M7,MB,Province of Manitoba,715 cathcart street winnipeg r3r 3m7 mb,715,cathcart street
506,PEMBINA TRAILS ALTERNATIVE HIGH SCHOOL,11-12,0,0,0,0,1,PEMBINA TRAILS SCHOOL DIVISION,315 CHANCELLOR MATHESON ROAD WINNIPEG R3T 1Z2 MB,315 CHANCELLOR MATHESON ROAD,WINNIPEG,R3T 1Z2,MB,Province of Manitoba,315 chancellor matheson road winnipeg r3t 1z2 mb,315,chancellor matheson road
507,R.H.G. BONNYCASTLE SCHOOL,K-4,0,1,1,0,0,PEMBINA TRAILS SCHOOL DIVISION,1100 CHANCELLOR DRIVE WINNIPEG R3T 4W8 MB,1100 CHANCELLOR DRIVE,WINNIPEG,R3T 4W8,MB,Province of Manitoba,1100 chancellor drive winnipeg r3t 4w8 mb,1100,chancellor drive
508,RALPH MAYBANK SCHOOL,K-6,0,1,1,0,0,PEMBINA TRAILS SCHOOL DIVISION,20 DONNELLY STREET WINNIPEG R3T 0S4 MB,20 DONNELLY STREET,WINNIPEG,R3T 0S4,MB,Province of Manitoba,20 donnelly street winnipeg r3t 0s4 mb,20,donnelly street
509,RIVER WEST PARK SCHOOL,K-8,0,1,1,1,0,PEMBINA TRAILS SCHOOL DIVISION,30 STACK STREET WINNIPEG R3R 2H3 MB,30 STACK STREET,WINNIPEG,R3R 2H3,MB,Province of Manitoba,30 stack street winnipeg r3r 2h3 mb,30,stack street
510,ROYAL SCHOOL,K-5,0,1,1,0,0,PEMBINA TRAILS SCHOOL DIVISION,450 LAXDAL ROAD WINNIPEG R3R 0W4 MB,450 LAXDAL ROAD,WINNIPEG,R3R 0W4,MB,Province of Manitoba,450 laxdal road winnipeg r3r 0w4 mb,450,laxdal road
511,RYERSON ELEMENTARY,K-6,0,1,1,0,0,PEMBINA TRAILS SCHOOL DIVISION,10 RYERSON AVENUE WINNIPEG R3T 3P9 MB,10 RYERSON AVENUE,WINNIPEG,R3T 3P9,MB,Province of Manitoba,10 ryerson avenue winnipeg r3t 3p9 mb,10,ryerson avenue
512,SHAFTESBURY HIGH,9-12,0,0,0,1,1,PEMBINA TRAILS SCHOOL DIVISION,2240 GRANT AVENUE WINNIPEG R3P 0P7 MB,2240 GRANT AVENUE,WINNIPEG,R3P 0P7,MB,Province of Manitoba,2240 grant avenue winnipeg r3p 0p7 mb,2240,grant avenue
513,VAN WALLEGHEM SCHOOL,K-8,0,1,1,1,0,PEMBINA TRAILS SCHOOL DIVISION,1 PRINCEMERE ROAD WINNIPEG R3P 1K9 MB,1 PRINCEMERE ROAD,WINNIPEG,R3P 1K9,MB,Province of Manitoba,1 princemere road winnipeg r3p 1k9 mb,1,princemere road
514,VINCENT MASSEY COLLEGIATE,9-12,0,0,0,1,1,PEMBINA TRAILS SCHOOL DIVISION,975 DOWKER AVENUE WINNIPEG R3T 1R7 MB,975 DOWKER AVENUE,WINNIPEG,R3T 1R7,MB,Province of Manitoba,975 dowker avenue winnipeg r3t 1r7 mb,975,dowker avenue
515,WESTDALE JUNIOR HIGH,6-8,0,0,1,1,0,PEMBINA TRAILS SCHOOL DIVISION,6720 BETSWORTH AVENUE WINNIPEG R3R 1W3 MB,6720 BETSWORTH AVENUE,WINNIPEG,R3R 1W3,MB,Province of Manitoba,6720 betsworth avenue winnipeg r3r 1w3 mb,6720,betsworth avenue
516,WESTGROVE SCHOOL,K-5,0,1,1,0,0,PEMBINA TRAILS SCHOOL DIVISION,50 WESTGROVE WAY WINNIPEG R3R 1R7 MB,50 WESTGROVE WAY,WINNIPEG,R3R 1R7,MB,Province of Manitoba,50 westgrove way winnipeg r3r 1r7 mb,50,westgrove way
517,WHYTE RIDGE ELEMENTARY,K-4,0,1,1,0,0,PEMBINA TRAILS SCHOOL DIVISION,400 SCURFIELD BOULEVARD WINNIPEG R3Y 1L3 MB,400 SCURFIELD BOULEVARD,WINNIPEG,R3Y 1L3,MB,Province of Manitoba,400 scurfield boulevard winnipeg r3y 1l3 mb,400,scurfield boulevard
518,AUSTIN ELEMENTARY,K-8,0,1,1,1,0,PINE CREEK SCHOOL DIVISION,BOX 130 AUSTIN R0H 0C0 MB,BOX 130,AUSTIN,R0H 0C0,MB,Province of Manitoba,austin r0h 0c0 mb,,
519,BEAVER CREEK SCHOOL,K-12,0,1,1,1,1,PINE CREEK SCHOOL DIVISION,ASPENHEIM COLONY BOX 179 AUSTIN R0H 0C0 MB,ASPENHEIM COLONY,AUSTIN,R0H 0C0,MB,Province of Manitoba,aspenheim colony austin r0h 0c0 mb,,
520,CASCADE COLONY SCHOOL,K-12,0,1,1,1,1,PINE CREEK SCHOOL DIVISION,BOX 179 AUSTIN R0H 0C0 MB,BOX 179,AUSTIN,R0H 0C0,MB,Province of Manitoba,austin r0h 0c0 mb,,
521,EMERALD COLONY SCHOOL,K-12,0,1,1,1,1,PINE CREEK SCHOOL DIVISION,SE 35-14-12W BOX 179 AUSTIN R0H 0C0 MB,SE 35-14-12W,AUSTIN,R0H 0C0,MB,Province of Manitoba,se 35 14 12w austin r0h 0c0 mb,14,12w
522,FOREST HOME SCHOOL,K-12,0,1,1,1,1,PINE CREEK SCHOOL DIVISION,RIVERDALE COLONY BOX 179 AUSTIN R0H 0C0 MB,RIVERDALE COLONY,AUSTIN,R0H 0C0,MB,Province of Manitoba,riverdale colony austin r0h 0c0 mb,,riverdale colony
523,GLADSTONE ELEMENTARY,K-6,0,1,1,0,0,PINE CREEK SCHOOL DIVISION,BOX 690 GLADSTONE R0J 0T0 MB,BOX 690,GLADSTONE,R0J 0T0,MB,Province of Manitoba,gladstone r0j 0t0 mb,,
524,HIDDEN VALLEY SCHOOL,K-12,0,1,1,1,1,PINE CREEK SCHOOL DIVISION,HIDDEN VALLEY COLONY BOX 179 AUSTIN R0H 0C0 MB,HIDDEN VALLEY COLONY,AUSTIN,R0H 0C0,MB,Province of Manitoba,hidden valley colony austin r0h 0c0 mb,,hidden valley colony
525,LANGRUTH ELEMENTARY,K-8,0,1,1,1,0,PINE CREEK SCHOOL DIVISION,BOX 148 LANGRUTH R0H 0N0 MB,BOX 148,LANGRUTH,R0H 0N0,MB,Province of Manitoba,langruth r0h 0n0 mb,,
526,MACGREGOR COLLEGIATE,9-12,0,0,0,1,1,PINE CREEK SCHOOL DIVISION,BOX 160 MACGREGOR R0H 0R0 MB,BOX 160,MACGREGOR,R0H 0R0,MB,Province of Manitoba,macgregor r0h 0r0 mb,,
527,MACGREGOR ELEMENTARY,K-8,0,1,1,1,0,PINE CREEK SCHOOL DIVISION,BOX 10 MACGREGOR R0H 0R0 MB,BOX 10,MACGREGOR,R0H 0R0,MB,Province of Manitoba,macgregor r0h 0r0 mb,,
528,MULLER SCHOOL,K-12,0,1,1,1,1,PINE CREEK SCHOOL DIVISION,BOX 179 AUSTIN R0H 0C0 MB,BOX 179,AUSTIN,R0H 0C0,MB,Province of Manitoba,austin r0h 0c0 mb,,
529,PLUMAS ELEMENTARY,K-8,0,1,1,1,0,PINE CREEK SCHOOL DIVISION,BOX 40 PLUMAS R0J 1P0 MB,BOX 40,PLUMAS,R0J 1P0,MB,Province of Manitoba,plumas r0j 1p0 mb,,
530,WEST PLAINS SCHOOL,K-12,0,1,1,1,1,PINE CREEK SCHOOL DIVISION,BOX 179 AUSTIN R0H 0C0 MB,BOX 179,AUSTIN,R0H 0C0,MB,Province of Manitoba,austin r0h 0c0 mb,,
531,WILLIAM MORTON COLLEGIATE,7-12,0,0,0,1,1,PINE CREEK SCHOOL DIVISION,BOX 510 GLADSTONE R0J 0T0 MB,BOX 510,GLADSTONE,R0J 0T0,MB,Province of Manitoba,gladstone r0j 0t0 mb,,
532,BRANTWOOD SCHOOL,K-12,0,1,1,1,1,PORTAGE LA PRAIRIE SCHOOL DIVISION,BRANTWOOD COLONY 65 - 3RD STREET SW PORTAGE LA PRAIRIE R1N 2B6 MB,BRANTWOOD COLONY,PORTAGE LA PRAIRIE,R1N 2B6,MB,Province of Manitoba,brantwood colony 65 3rd street sw portage la prairie r1n 2b6 mb,65,3rd street sw
533,BRENNAN SCHOOL,K-12,0,1,1,1,1,PORTAGE LA PRAIRIE SCHOOL DIVISION,ELM RIVER COLONY-NEWTON SIDING 65 - 3RD STREET SW PORTAGE LA PRAIRIE R1N 2B6 MB,ELM RIVER COLONY-NEWTON SIDING,PORTAGE LA PRAIRIE,R1N 2B6,MB,Province of Manitoba,elm river colony newton siding 65 3rd street sw portage la prairie r1n 2b6 mb,65,3rd street sw
534,ÉCOLE ARTHUR MEIGHEN SCHOOL,5-8,0,0,1,1,0,PORTAGE LA PRAIRIE SCHOOL DIVISION,201 RIVER ROAD PORTAGE LA PRAIRIE R1N 3W2 MB,201 RIVER ROAD,PORTAGE LA PRAIRIE,R1N 3W2,MB,Province of Manitoba,201 river road portage la prairie r1n 3w2 mb,201,river road
535,ÉCOLE CRESCENTVIEW SCHOOL,K-4,0,1,1,0,0,PORTAGE LA PRAIRIE SCHOOL DIVISION,751 CRESCENT ROAD EAST PORTAGE LA PRAIRIE R1N 0Y2 MB,751 CRESCENT ROAD EAST,PORTAGE LA PRAIRIE,R1N 0Y2,MB,Province of Manitoba,751 crescent road east portage la prairie r1n 0y2 mb,751,crescent road east
536,FORT LA REINE SCHOOL,K-6,0,1,1,0,0,PORTAGE LA PRAIRIE SCHOOL DIVISION,36 - 13TH STREET N.W. PORTAGE LA PRAIRIE R1N 2T5 MB,36 - 13TH STREET N.W.,PORTAGE LA PRAIRIE,R1N 2T5,MB,Province of Manitoba,36 13th street nw portage la prairie r1n 2t5 mb,36,13th street nw
537,GOOD HOPE COLONY SCHOOL,K-12,0,1,1,1,1,PORTAGE LA PRAIRIE SCHOOL DIVISION,GOOD HOPE COLONY 65 - 3RD STREET SW PORTAGE LA PRAIRIE R1N 2B6 MB,GOOD HOPE COLONY,PORTAGE LA PRAIRIE,R1N 2B6,MB,Province of Manitoba,good hope colony 65 3rd street sw portage la prairie r1n 2b6 mb,65,3rd street sw
538,INGLESIDE SCHOOL,K-12,0,1,1,1,1,PORTAGE LA PRAIRIE SCHOOL DIVISION,GRANDE COLONY (OAKVILLE) 65 - 3RD STREET SW PORTAGE LA PRAIRIE R1N 2B6 MB,GRANDE COLONY (OAKVILLE),PORTAGE LA PRAIRIE,R1N 2B6,MB,Province of Manitoba,grande colony 65 3rd street sw portage la prairie r1n 2b6 mb,65,3rd street sw
539,LA VERENDRYE SCHOOL,K-8,0,1,1,1,0,PORTAGE LA PRAIRIE SCHOOL DIVISION,500 - 7TH AVENUE N.W. PORTAGE LA PRAIRIE R1N 0A5 MB,500 - 7TH AVENUE N.W.,PORTAGE LA PRAIRIE,R1N 0A5,MB,Province of Manitoba,500 7th avenue nw portage la prairie r1n 0a5 mb,500,7th avenue nw
540,NORQUAY COLONY SCHOOL,K-12,0,1,1,1,1,PORTAGE LA PRAIRIE SCHOOL DIVISION,C/O PORTAGE LA PRARIE SD 65 - 3RD STREET SW PORTAGE LA PRAIRIE R1N 2B6 MB,C/O PORTAGE LA PRARIE SD,PORTAGE LA PRAIRIE,R1N 2B6,MB,Province of Manitoba,c/o portage la prarie sd 65 3rd street sw portage la prairie r1n 2b6 mb,,c/o portage la prarie sd 65 3rd street sw
541,NORTH MEMORIAL SCHOOL,K-6,0,1,1,0,0,PORTAGE LA PRAIRIE SCHOOL DIVISION,410 - 6TH AVENUE N.E. PORTAGE LA PRAIRIE R1N 0B4 MB,410 - 6TH AVENUE N.E.,PORTAGE LA PRAIRIE,R1N 0B4,MB,Province of Manitoba,410 6th avenue ne portage la prairie r1n 0b4 mb,410,6th avenue ne
542,NORTHERN BREEZE COLONY SCHOOL,K-12,0,1,1,1,1,PORTAGE LA PRAIRIE SCHOOL DIVISION,C/O PORTAGE LA PRAIRIE SD 65 - 3RD STREET SW PORTAGE LA PRAIRIE R1N 2B6 MB,C/O PORTAGE LA PRAIRIE SD,PORTAGE LA PRAIRIE,R1N 2B6,MB,Province of Manitoba,c/o portage la prairie sd 65 3rd street sw portage la prairie r1n 2b6 mb,,c/o portage la prairie sd 65 3rd street sw
543,OAKVILLE SCHOOL,K-8,0,1,1,1,0,PORTAGE LA PRAIRIE SCHOOL DIVISION,BOX 130 OAKVILLE R0H 0Y0 MB,BOX 130,OAKVILLE,R0H 0Y0,MB,Province of Manitoba,oakville r0h 0y0 mb,,
544,PORTAGE COLLEGIATE INSTITUTE,9-12,0,0,0,1,1,PORTAGE LA PRAIRIE SCHOOL DIVISION,65 - 3RD STREET S.W. PORTAGE LA PRAIRIE R1N 2B6 MB,65 - 3RD STREET S.W.,PORTAGE LA PRAIRIE,R1N 2B6,MB,Province of Manitoba,65 3rd street sw portage la prairie r1n 2b6 mb,65,3rd street sw
545,SOMMERFELD COLONY SCHOOL,K-12,0,1,1,1,1,PORTAGE LA PRAIRIE SCHOOL DIVISION,SOMMERFELD COLONY (HIGH BLUFF) 65 - 3RD STREET SW PORTAGE LA PRAIRIE R1N 2B6 MB,SOMMERFELD COLONY (HIGH BLUFF),PORTAGE LA PRAIRIE,R1N 2B6,MB,Province of Manitoba,sommerfeld colony 65 3rd street sw portage la prairie r1n 2b6 mb,65,3rd street sw
546,SUNNYSIDE SCHOOL,K-12,0,1,1,1,1,PORTAGE LA PRAIRIE SCHOOL DIVISION,SUNNYSIDE COLONY 65 - 3RD STREET SW PORTAGE LA PRAIRIE R1N 2B6 MB,SUNNYSIDE COLONY,PORTAGE LA PRAIRIE,R1N 2B6,MB,Province of Manitoba,sunnyside colony 65 3rd street sw portage la prairie r1n 2b6 mb,65,3rd street sw
547,WESTROC SCHOOL,K-12,0,1,1,1,1,PORTAGE LA PRAIRIE SCHOOL DIVISION,C/O PORTAGE LA PRAIRIE SD 65 - 3RD STREET SW PORTAGE LA PRAIRIE R1N 2B6 MB,C/O PORTAGE LA PRAIRIE SD,PORTAGE LA PRAIRIE,R1N 2B6,MB,Province of Manitoba,c/o portage la prairie sd 65 3rd street sw portage la prairie r1n 2b6 mb,,c/o portage la prairie sd 65 3rd street sw
548,WOODLAND COLONY SCHOOL,K-12,0,1,1,1,1,PORTAGE LA PRAIRIE SCHOOL DIVISION,WOODLAND COLONY (POPLAR POINT) 65 - 3RD STREET SW PORTAGE LA PRAIRIE R1N 2B6 MB,WOODLAND COLONY (POPLAR POINT),PORTAGE LA PRAIRIE,R1N 2B6,MB,Province of Manitoba,woodland colony 65 3rd street sw portage la prairie r1n 2b6 mb,65,3rd street sw
549,YELLOWQUILL SCHOOL,K-8,0,1,1,1,0,PORTAGE LA PRAIRIE SCHOOL DIVISION,BOX 1000 PORTAGE LA PRAIRIE R1N 3C4 MB,BOX 1000,PORTAGE LA PRAIRIE,R1N 3C4,MB,Province of Manitoba,portage la prairie r1n 3c4 mb,,
550,BARRICKMAN COLONY SCHOOL,K-12,0,1,1,1,1,PRAIRIE ROSE SCHOOL DIVISION,BOX 56 #3 PR 248 SOUTH ELIE R0H 0H0 MB,BOX 56,ELIE,R0H 0H0,MB,Province of Manitoba,#3 pr 248 south elie r0h 0h0 mb,#3,pr 248 south elie
551,BLOOMING PRAIRIE COLONY SCHOOL,K-12,0,1,1,1,1,PRAIRIE ROSE SCHOOL DIVISION,BOX 56 #3 PR 248 SOUTH ELIE R0H 0H0 MB,BOX 56,ELIE,R0H 0H0,MB,Province of Manitoba,#3 pr 248 south elie r0h 0h0 mb,#3,pr 248 south elie
552,BON HOMME COLONY SCHOOL,K-12,0,1,1,1,1,PRAIRIE ROSE SCHOOL DIVISION,BOX 56 #3 PR 248 SOUTH ELIE R0H 0H0 MB,BOX 56,ELIE,R0H 0H0,MB,Province of Manitoba,#3 pr 248 south elie r0h 0h0 mb,#3,pr 248 south elie
553,BOYNE VIEW SCHOOL,K-12,0,1,1,1,1,PRAIRIE ROSE SCHOOL DIVISION,BOX 56 #3 PR 248 SOUTH ELIE R0H 0H0 MB,BOX 56,ELIE,R0H 0H0,MB,Province of Manitoba,#3 pr 248 south elie r0h 0h0 mb,#3,pr 248 south elie
554,CARMAN COLLEGIATE,6-12,0,0,1,1,1,PRAIRIE ROSE SCHOOL DIVISION,BOX 1510 CARMAN R0G 0J0 MB,BOX 1510,CARMAN,R0G 0J0,MB,Province of Manitoba,carman r0g 0j0 mb,,carman
555,CARMAN ELEMENTARY,K-5,0,1,1,0,0,PRAIRIE ROSE SCHOOL DIVISION,BOX 1510 CARMAN R0G 0J0 MB,BOX 1510,CARMAN,R0G 0J0,MB,Province of Manitoba,carman r0g 0j0 mb,,carman
556,CLEARVIEW COLONY SCHOOL,K-12,0,1,1,1,1,PRAIRIE ROSE SCHOOL DIVISION,BOX 56 #3 PR 248 SOUTH ELIE R0H 0H0 MB,BOX 56,ELIE,R0H 0H0,MB,Province of Manitoba,#3 pr 248 south elie r0h 0h0 mb,#3,pr 248 south elie
557,EAGLE CREEK COLONY SCHOOL,K-12,0,1,1,1,1,PRAIRIE ROSE SCHOOL DIVISION,BOX 56 #3 PR 248 SOUTH ELIE R0H 0H0 MB,BOX 56,ELIE,R0H 0H0,MB,Province of Manitoba,#3 pr 248 south elie r0h 0h0 mb,#3,pr 248 south elie
558,ÉCOLE SAINT-EUSTACHE,M-6,0,1,1,0,0,PRAIRIE ROSE SCHOOL DIVISION,CASE POSTALE 182 ST. EUSTACHE R0H 1H0 MB,CASE POSTALE 182,ST. EUSTACHE,R0H 1H0,MB,Province of Manitoba,case postale 182 st eustache r0h 1h0 mb,,
559,ELM CREEK SCHOOL,K-12,0,1,1,1,1,PRAIRIE ROSE SCHOOL DIVISION,BOX 40 ELM CREEK R0G 0N0 MB,BOX 40,ELM CREEK,R0G 0N0,MB,Province of Manitoba,elm creek r0g 0n0 mb,,
560,HURON COLONY SCHOOL,K-12,0,1,1,1,1,PRAIRIE ROSE SCHOOL DIVISION,BOX 56 #3 PR 248 SOUTH ELIE R0H 0H0 MB,BOX 56,ELIE,R0H 0H0,MB,Province of Manitoba,#3 pr 248 south elie r0h 0h0 mb,#3,pr 248 south elie
561,IBERVILLE COLONY SCHOOL,K-12,0,1,1,1,1,PRAIRIE ROSE SCHOOL DIVISION,BOX 56 #3 PR 248 SOUTH ELIE R0H 0H0 MB,BOX 56,ELIE,R0H 0H0,MB,Province of Manitoba,#3 pr 248 south elie r0h 0h0 mb,#3,pr 248 south elie
562,JAMES VALLEY COLONY SCHOOL,K-12,0,1,1,1,1,PRAIRIE ROSE SCHOOL DIVISION,BOX 56 #3 PR 248 SOUTH ELIE R0H 0H0 MB,BOX 56,ELIE,R0H 0H0,MB,Province of Manitoba,#3 pr 248 south elie r0h 0h0 mb,#3,pr 248 south elie
563,LAKESIDE COLONY SCHOOL,K-12,0,1,1,1,1,PRAIRIE ROSE SCHOOL DIVISION,BOX 56 #3 PR 248 SOUTH ELIE R0H 0H0 MB,BOX 56,ELIE,R0H 0H0,MB,Province of Manitoba,#3 pr 248 south elie r0h 0h0 mb,#3,pr 248 south elie
564,MAPLE CREEK SCHOOL,K-12,0,1,1,1,1,PRAIRIE ROSE SCHOOL DIVISION,BOX 56 #3 PR 248 SOUTH ELIE R0H 0H0 MB,BOX 56,ELIE,R0H 0H0,MB,Province of Manitoba,#3 pr 248 south elie r0h 0h0 mb,#3,pr 248 south elie
565,MAXWELL COLONY SCHOOL,K-12,0,1,1,1,1,PRAIRIE ROSE SCHOOL DIVISION,BOX 56 #3 PR 248 SOUTH ELIE R0H 0H0 MB,BOX 56,ELIE,R0H 0H0,MB,Province of Manitoba,#3 pr 248 south elie r0h 0h0 mb,#3,pr 248 south elie
566,MIAMI SCHOOL,K-12,0,1,1,1,1,PRAIRIE ROSE SCHOOL DIVISION,BOX 220 MIAMI R0G 1H0 MB,BOX 220,MIAMI,R0G 1H0,MB,Province of Manitoba,miami r0g 1h0 mb,,
567,ROLAND ELEMENTARY,K-6,0,1,1,0,0,PRAIRIE ROSE SCHOOL DIVISION,BOX 93 ROLAND R0G 1T0 MB,BOX 93,ROLAND,R0G 1T0,MB,Province of Manitoba,roland r0g 1t0 mb,,
568,ROSEBANK COLONY SCHOOL,K-12,0,1,1,1,1,PRAIRIE ROSE SCHOOL DIVISION,BOX 56 #3 PR 248 SOUTH ELIE R0H 0H0 MB,BOX 56,ELIE,R0H 0H0,MB,Province of Manitoba,#3 pr 248 south elie r0h 0h0 mb,#3,pr 248 south elie
569,ROSEDALE COLONY SCHOOL,K-12,0,1,1,1,1,PRAIRIE ROSE SCHOOL DIVISION,BOX 56 #3 PR 248 SOUTH ELIE R0H 0H0 MB,BOX 56,ELIE,R0H 0H0,MB,Province of Manitoba,#3 pr 248 south elie r0h 0h0 mb,#3,pr 248 south elie
570,SKY VIEW SCHOOL,K-12,0,1,1,1,1,PRAIRIE ROSE SCHOOL DIVISION,BOX 56 #3 PR 248 SOUTH ELIE R0H 0H0 MB,BOX 56,ELIE,R0H 0H0,MB,Province of Manitoba,#3 pr 248 south elie r0h 0h0 mb,#3,pr 248 south elie
571,ST. FRANCOIS XAVIER COMMUNITY SCHOOL,K-6,0,1,1,0,0,PRAIRIE ROSE SCHOOL DIVISION,991 HIGHWAY 26 ST. FRANCOIS XAVIER R4L 1A4 MB,991 HIGHWAY 26,ST. FRANCOIS XAVIER,R4L 1A4,MB,Province of Manitoba,991 highway 26 st francois xavier r4l 1a4 mb,991,highway 26
572,ST. LAURENT SCHOOL,K-12,0,1,1,1,1,PRAIRIE ROSE SCHOOL DIVISION,447 VETERAN'S MEMORIAL ROAD ST. LAURENT R0C 2S0 MB,447 VETERAN'S MEMORIAL ROAD,ST. LAURENT,R0C 2S0,MB,Province of Manitoba,447 veteran's memorial road st laurent r0c 2s0 mb,447,veteran's memorial road
573,ST. PAUL'S COLLEGIATE,7-12,0,0,0,1,1,PRAIRIE ROSE SCHOOL DIVISION,P.O. BOX 70 ELIE R0H 0H0 MB,P.O. BOX 70,ELIE,R0H 0H0,MB,Province of Manitoba,elie r0h 0h0 mb,,
574,STARLITE COLONY SCHOOL,K-12,0,1,1,1,1,PRAIRIE ROSE SCHOOL DIVISION,BOX 56 #3 PR 248 SOUTH ELIE R0H 0H0 MB,BOX 56,ELIE,R0H 0H0,MB,Province of Manitoba,#3 pr 248 south elie r0h 0h0 mb,#3,pr 248 south elie
575,WALDHEIM ELEMENTARY,K-12,0,1,1,1,1,PRAIRIE ROSE SCHOOL DIVISION,BOX 56 #3 PR 248 SOUTH ELIE R0H 0H0 MB,BOX 56,ELIE,R0H 0H0,MB,Province of Manitoba,#3 pr 248 south elie r0h 0h0 mb,#3,pr 248 south elie
576,BALDUR SCHOOL,K-12,0,1,1,1,1,PRAIRIE SPIRIT SCHOOL DIVISION,BOX 340 BALDUR R0K 0B0 MB,BOX 340,BALDUR,R0K 0B0,MB,Province of Manitoba,baldur r0k 0b0 mb,,
577,BOYNE VALLEY SCHOOL,K-12,0,1,1,1,1,PRAIRIE SPIRIT SCHOOL DIVISION,OAK RIDGE COLONY BOX 279 HOLLAND R0G 0X0 MB,OAK RIDGE COLONY,HOLLAND,R0G 0X0,MB,Province of Manitoba,oak ridge colony holland r0g 0x0 mb,,oak ridge colony holland
578,CARTWRIGHT SCHOOL,K-11,0,1,1,1,1,PRAIRIE SPIRIT SCHOOL DIVISION,GENERAL DELIVERY CARTWRIGHT R0K 0L0 MB,GENERAL DELIVERY,CARTWRIGHT,R0K 0L0,MB,Province of Manitoba,general delivery cartwright r0k 0l0 mb,,general delivery cartwright
579,CRYSTAL CITY EARLY YEARS SCHOOL,K-4,0,1,1,0,0,PRAIRIE SPIRIT SCHOOL DIVISION,BOX 220 CRYSTAL CITY R0K 0N0 MB,BOX 220,CRYSTAL CITY,R0K 0N0,MB,Province of Manitoba,crystal city r0k 0n0 mb,,
580,EVERGREEN COLONY SCHOOL,K-12,0,1,1,1,1,PRAIRIE SPIRIT SCHOOL DIVISION,EVERGREEN COLONY BOX 297 SOMERSET R0G 2L0 MB,EVERGREEN COLONY,SOMERSET,R0G 2L0,MB,Province of Manitoba,evergreen colony somerset r0g 2l0 mb,,evergreen colony somerset
581,FAIRHOLME COLONY SCHOOL,K-12,0,1,1,1,1,PRAIRIE SPIRIT SCHOOL DIVISION,FAIRHOLME COLONY BOX 550 PORTAGE LA PRAIRIE R1N 3B9 MB,FAIRHOLME COLONY,PORTAGE LA PRAIRIE,R1N 3B9,MB,Province of Manitoba,fairholme colony portage la prairie r1n 3b9 mb,,fairholme colony
582,GLENBORO SCHOOL,K-12,0,1,1,1,1,PRAIRIE SPIRIT SCHOOL DIVISION,BOX 550 GLENBORO R0K 0X0 MB,BOX 550,GLENBORO,R0K 0X0,MB,Province of Manitoba,glenboro r0k 0x0 mb,,
583,HARMONY COLONY SCHOOL,K-12,0,1,1,1,1,PRAIRIE SPIRIT SCHOOL DIVISION,BOX 171 RATHWELL R0G 1S0 MB,BOX 171,RATHWELL,R0G 1S0,MB,Province of Manitoba,rathwell r0g 1s0 mb,,
584,HOLLAND ELEMENTARY,K-8,0,1,1,1,0,PRAIRIE SPIRIT SCHOOL DIVISION,BOX 10 HOLLAND R0G 0X0 MB,BOX 10,HOLLAND,R0G 0X0,MB,Province of Manitoba,holland r0g 0x0 mb,,
585,KAMSLEY SCHOOL,K-12,0,1,1,1,1,PRAIRIE SPIRIT SCHOOL DIVISION,BOX 403 N.-D.-DE-LOURDES R0G 1M0 MB,BOX 403,N.-D.-DE-LOURDES,R0G 1M0,MB,Province of Manitoba,n d de lourdes r0g 1m0 mb,,
586,MANITOU ELEMENTARY,K-6,0,1,1,0,0,PRAIRIE SPIRIT SCHOOL DIVISION,BOX 66 MANITOU R0G 1G0 MB,BOX 66,MANITOU,R0G 1G0,MB,Province of Manitoba,manitou r0g 1g0 mb,,
587,NELLIE MCCLUNG COLLEGIATE,7-12,0,0,0,1,1,PRAIRIE SPIRIT SCHOOL DIVISION,BOX 339 MANITOU R0G 1G0 MB,BOX 339,MANITOU,R0G 1G0,MB,Province of Manitoba,manitou r0g 1g0 mb,,
588,NEW ROSEDALE SCHOOL,K-12,0,1,1,1,1,PRAIRIE SPIRIT SCHOOL DIVISION,NEW ROSEDALE COLONY BOX 460 PORTAGE LA PRAIRIE R1N 3B7 MB,NEW ROSEDALE COLONY,PORTAGE LA PRAIRIE,R1N 3B7,MB,Province of Manitoba,new rosedale colony portage la prairie r1n 3b7 mb,,new rosedale colony
589,PILOT MOUND SCHOOL,9-12,0,0,0,1,1,PRAIRIE SPIRIT SCHOOL DIVISION,BOX 299 PILOT MOUND R0G 1P0 MB,BOX 299,PILOT MOUND,R0G 1P0,MB,Province of Manitoba,pilot mound r0g 1p0 mb,,
590,PRAIRIE MOUNTAIN ELEMENTARY SCHOOL,K-8,0,1,1,1,0,PRAIRIE SPIRIT SCHOOL DIVISION,BOX 340 SWAN LAKE R0G 2S0 MB,BOX 340,SWAN LAKE,R0G 2S0,MB,Province of Manitoba,swan lake r0g 2s0 mb,,
591,PRAIRIE MOUNTAIN HIGH SCHOOL,9-12,0,0,0,1,1,PRAIRIE SPIRIT SCHOOL DIVISION,BOX 250 SOMERSET R0G 2L0 MB,BOX 250,SOMERSET,R0G 2L0,MB,Province of Manitoba,somerset r0g 2l0 mb,,
592,SANDY BANK SCHOOL,K-12,0,1,1,1,1,PRAIRIE SPIRIT SCHOOL DIVISION,GENERAL DELIVERY CYPRESS RIVER COLONY CYPRESS RIVER R0K 0P0 MB,GENERAL DELIVERY,CYPRESS RIVER,R0K 0P0,MB,Province of Manitoba,general delivery cypress river colony cypress river r0k 0p0 mb,,general delivery cypress river colony cypress river
593,SHADY LANE SCHOOL,K-12,0,1,1,1,1,PRAIRIE SPIRIT SCHOOL DIVISION,BOX 26 TREHERNE R0G 2V0 MB,BOX 26,TREHERNE,R0G 2V0,MB,Province of Manitoba,treherne r0g 2v0 mb,,
594,SHAMROCK SCHOOL,K-12,0,1,1,1,1,PRAIRIE SPIRIT SCHOOL DIVISION,BOX 212 BALDUR R0K 0B0 MB,BOX 212,BALDUR,R0K 0B0,MB,Province of Manitoba,baldur r0k 0b0 mb,,
595,ST. CLAUDE SCHOOL COMPLEX,K-12,0,1,1,1,1,PRAIRIE SPIRIT SCHOOL DIVISION,BOX 250 ST. CLAUDE R0G 1Z0 MB,BOX 250,ST. CLAUDE,R0G 1Z0,MB,Province of Manitoba,st claude r0g 1z0 mb,,
596,STE. MARIE SCHOOL,K-8,0,1,1,1,0,PRAIRIE SPIRIT SCHOOL DIVISION,GENERAL DELIVERY BRUXELLES R0G 0G0 MB,GENERAL DELIVERY,BRUXELLES,R0G 0G0,MB,Province of Manitoba,general delivery bruxelles r0g 0g0 mb,,
597,THOMAS GREENWAY MIDDLE YEARS SCHOOL,5-8,0,0,1,1,0,PRAIRIE SPIRIT SCHOOL DIVISION,BOX 280 CRYSTAL CITY R0K 0N0 MB,BOX 280,CRYSTAL CITY,R0K 0N0,MB,Province of Manitoba,crystal city r0k 0n0 mb,,
598,TREHERNE COLLEGIATE,9-12,0,0,0,1,1,PRAIRIE SPIRIT SCHOOL DIVISION,BOX 269 TREHERNE R0G 2V0 MB,BOX 269,TREHERNE,R0G 2V0,MB,Province of Manitoba,treherne r0g 2v0 mb,,
599,TREHERNE ELEMENTARY,K-8,0,1,1,1,0,PRAIRIE SPIRIT SCHOOL DIVISION,BOX 110 TREHERNE R0G 2V0 MB,BOX 110,TREHERNE,R0G 2V0,MB,Province of Manitoba,treherne r0g 2v0 mb,,
600,VALLEYVIEW SCHOOL,K-12,0,1,1,1,1,PRAIRIE SPIRIT SCHOOL DIVISION,VALLEYVIEW COLONY BOX 119 SWAN LAKE R0G 2S0 MB,VALLEYVIEW COLONY,SWAN LAKE,R0G 2S0,MB,Province of Manitoba,valleyview colony swan lake r0g 2s0 mb,,valleyview colony
601,WEST VALLEY SCHOOL,K-12,0,1,1,1,1,PRAIRIE SPIRIT SCHOOL DIVISION,PEMBINA COLONY BOX 38 DARLINGFORD R0G 0L0 MB,PEMBINA COLONY,DARLINGFORD,R0G 0L0,MB,Province of Manitoba,pembina colony darlingford r0g 0l0 mb,,pembina colony darlingford
602,WHISTLING WIND SCHOOL,K-12,0,1,1,1,1,PRAIRIE SPIRIT SCHOOL DIVISION,BOX 249 GLENBORO R0K 0X0 MB,BOX 249,GLENBORO,R0K 0X0,MB,Province of Manitoba,glenboro r0k 0x0 mb,,
603,WILLOW CREEK COLONY SCHOOL,K-12,0,1,1,1,1,PRAIRIE SPIRIT SCHOOL DIVISION,BOX 307 WILLOW CREEK COLONY CARTWRIGHT R0K 0L0 MB,BOX 307,CARTWRIGHT,R0K 0L0,MB,Province of Manitoba,willow creek colony cartwright r0k 0l0 mb,,willow creek colony cartwright
604,WINDY BAY SCHOOL,K-12,0,1,1,1,1,PRAIRIE SPIRIT SCHOOL DIVISION,BOX 60 PILOT MOUND R0G 1P0 MB,BOX 60,PILOT MOUND,R0G 1P0,MB,Province of Manitoba,pilot mound r0g 1p0 mb,,
605,ALBRIGHT SCHOOL,K-12,0,1,1,1,1,RED RIVER VALLEY SCHOOL DIVISION,OAK BLUFF COLONY BOX 819 MORRIS R0G 1K0 MB,OAK BLUFF COLONY,MORRIS,R0G 1K0,MB,Province of Manitoba,oak bluff colony morris r0g 1k0 mb,,oak bluff colony morris
606,DOMAIN ELEMENTARY,K-8,0,1,1,1,0,RED RIVER VALLEY SCHOOL DIVISION,BOX 54 DOMAIN R0G 0M0 MB,BOX 54,DOMAIN,R0G 0M0,MB,Province of Manitoba,domain r0g 0m0 mb,,
607,ÉCOLE HÉRITAGE IMMERSION,M-8,0,1,1,1,0,RED RIVER VALLEY SCHOOL DIVISION,CASE POSTALE 489 ST. PIERRE-JOLYS R0A 1V0 MB,CASE POSTALE 489,ST. PIERRE-JOLYS,R0A 1V0,MB,Province of Manitoba,case postale 489 st pierre jolys r0a 1v0 mb,,
608,ÉCOLE SAINT-MALO SCHOOL,K-8,0,1,1,1,0,RED RIVER VALLEY SCHOOL DIVISION,P.O. BOX 190 ST. MALO R0A 1T0 MB,P.O. BOX 190,ST. MALO,R0A 1T0,MB,Province of Manitoba,st malo r0a 1t0 mb,,
609,INST. COLL. SAINT-PIERRE,9-12,0,0,0,1,1,RED RIVER VALLEY SCHOOL DIVISION,CASE POSTALE 188 ST. PIERRE-JOLYS R0A 1V0 MB,CASE POSTALE 188,ST. PIERRE-JOLYS,R0A 1V0,MB,Province of Manitoba,case postale 188 st pierre jolys r0a 1v0 mb,,
610,J. A. CUDDY ELEMENTARY,K-8,0,1,1,1,0,RED RIVER VALLEY SCHOOL DIVISION,BOX 148 SANFORD R0G 2J0 MB,BOX 148,SANFORD,R0G 2J0,MB,Province of Manitoba,sanford r0g 2j0 mb,,
611,LOWE FARM SCHOOL,K-8,0,1,1,1,0,RED RIVER VALLEY SCHOOL DIVISION,BOX 250 LOWE FARM R0G 1E0 MB,BOX 250,LOWE FARM,R0G 1E0,MB,Province of Manitoba,lowe farm r0g 1e0 mb,,
612,MORRIS SCHOOL,K-12,0,1,1,1,1,RED RIVER VALLEY SCHOOL DIVISION,BOX 548 MORRIS R0G 1K0 MB,BOX 548,MORRIS,R0G 1K0,MB,Province of Manitoba,morris r0g 1k0 mb,,
613,OAK BLUFF COMMUNITY SCHOOL,K-8,0,1,1,1,0,RED RIVER VALLEY SCHOOL DIVISION,155 AGRI PARK ROAD OAK BLUFF R4G 0A5 MB,155 AGRI PARK ROAD,OAK BLUFF,R4G 0A5,MB,Province of Manitoba,155 agri park road oak bluff r4g 0a5 mb,155,agri park road oak bluff r4g
614,PEACE VALLEY SCHOOL,K-12,0,1,1,1,1,RED RIVER VALLEY SCHOOL DIVISION,HOMEWOOD COLONY STARBUCK R0G 2P0 MB,HOMEWOOD COLONY,STARBUCK,R0G 2P0,MB,Province of Manitoba,homewood colony starbuck r0g 2p0 mb,,homewood colony starbuck
615,ROSENORT SCHOOL,K-12,0,1,1,1,1,RED RIVER VALLEY SCHOOL DIVISION,BOX 70 ROSENORT R0G 1W0 MB,BOX 70,ROSENORT,R0G 1W0,MB,Province of Manitoba,rosenort r0g 1w0 mb,,
616,SANFORD COLLEGIATE,9-12,0,0,0,1,1,RED RIVER VALLEY SCHOOL DIVISION,BOX 70 130 BLYTHEFIELD ROAD SANFORD R0G 2J0 MB,BOX 70,SANFORD,R0G 2J0,MB,Province of Manitoba,130 blythefield road sanford r0g 2j0 mb,130,blythefield road
617,STARBUCK SCHOOL,K-8,0,1,1,1,0,RED RIVER VALLEY SCHOOL DIVISION,BOX 10 STARBUCK R0G 2P0 MB,BOX 10,STARBUCK,R0G 2P0,MB,Province of Manitoba,starbuck r0g 2p0 mb,,starbuck
618,SUNCREST COLONY SCHOOL,K-12,0,1,1,1,1,RED RIVER VALLEY SCHOOL DIVISION,BOX 4 TOUROND R0A 2G0 MB,BOX 4,TOUROND,R0A 2G0,MB,Province of Manitoba,tourond r0a 2g0 mb,,
619,VERMILLION COLONY SCHOOL,K-12,0,1,1,1,1,RED RIVER VALLEY SCHOOL DIVISION,VERMILLION COLONY BOX 238 SANFORD R0G 2J0 MB,VERMILLION COLONY,SANFORD,R0G 2J0,MB,Province of Manitoba,vermillion colony sanford r0g 2j0 mb,,vermillion colony
620,ANGUS MCKAY SCHOOL,K-5,0,1,1,0,0,RIVER EAST TRANSCONA SCHOOL DIVISION,850 WOODVALE STREET WINNIPEG R2K 2G8 MB,850 WOODVALE STREET,WINNIPEG,R2K 2G8,MB,Province of Manitoba,850 woodvale street winnipeg r2k 2g8 mb,850,woodvale street
621,ARTHUR DAY MIDDLE SCHOOL,6-8,0,0,1,1,0,RIVER EAST TRANSCONA SCHOOL DIVISION,43 WHITEHALL BOULEVARD WINNIPEG R2C 0Y3 MB,43 WHITEHALL BOULEVARD,WINNIPEG,R2C 0Y3,MB,Province of Manitoba,43 whitehall boulevard winnipeg r2c 0y3 mb,43,whitehall boulevard
622,BERNIE WOLFE COMMUNITY SCHOOL,K-8,0,1,1,1,0,RIVER EAST TRANSCONA SCHOOL DIVISION,95 BOURNAIS DRIVE WINNIPEG R2C 3Z2 MB,95 BOURNAIS DRIVE,WINNIPEG,R2C 3Z2,MB,Province of Manitoba,95 bournais drive winnipeg r2c 3z2 mb,95,bournais drive
623,BERTRUN E. GLAVIN ELEMENTARY,K-5,0,1,1,0,0,RIVER EAST TRANSCONA SCHOOL DIVISION,166 ANTRIM ROAD WINNIPEG R2K 3L2 MB,166 ANTRIM ROAD,WINNIPEG,R2K 3L2,MB,Province of Manitoba,166 antrim road winnipeg r2k 3l2 mb,166,antrim road
624,BIRD'S HILL SCHOOL,K-5,0,1,1,0,0,RIVER EAST TRANSCONA SCHOOL DIVISION,3950 RALEIGH STREET EAST ST. PAUL R2E 0G9 MB,3950 RALEIGH STREET,EAST ST. PAUL,R2E 0G9,MB,Province of Manitoba,3950 raleigh street east st paul r2e 0g9 mb,3950,raleigh street east
625,CHIEF PEGUIS JUNIOR HIGH,6-8,0,0,1,1,0,RIVER EAST TRANSCONA SCHOOL DIVISION,1400 ROTHESAY STREET WINNIPEG R2G 1V2 MB,1400 ROTHESAY STREET,WINNIPEG,R2G 1V2,MB,Province of Manitoba,1400 rothesay street winnipeg r2g 1v2 mb,1400,rothesay street
626,COLLÈGE PIERRE-ELLIOTT-TRUDEAU,9-12,0,0,0,1,1,RIVER EAST TRANSCONA SCHOOL DIVISION,216 RUE REDONDA WINNIPEG R2C 1L6 MB,216 RUE REDONDA,WINNIPEG,R2C 1L6,MB,Province of Manitoba,216 rue redonda winnipeg r2c 1l6 mb,216,rue redonda
627,DONWOOD SCHOOL,K-5,0,1,1,0,0,RIVER EAST TRANSCONA SCHOOL DIVISION,400 DONWOOD DRIVE WINNIPEG R2G 0X4 MB,400 DONWOOD DRIVE,WINNIPEG,R2G 0X4,MB,Province of Manitoba,400 donwood drive winnipeg r2g 0x4 mb,400,donwood drive
628,DR. F.W.L. HAMILTON SCHOOL,K-5,0,1,1,0,0,RIVER EAST TRANSCONA SCHOOL DIVISION,3225 HENDERSON HWY EAST ST. PAUL R2E 0J2 MB,3225 HENDERSON HWY,EAST ST. PAUL,R2E 0J2,MB,Province of Manitoba,3225 henderson hwy east st paul r2e 0j2 mb,3225,henderson hwy east
629,ÉCOLE CENTRALE,M-4,0,1,1,0,0,RIVER EAST TRANSCONA SCHOOL DIVISION,604 RUE DAY WINNIPEG R2C 1B6 MB,604 RUE DAY,WINNIPEG,R2C 1B6,MB,Province of Manitoba,604 rue day winnipeg r2c 1b6 mb,604,rue day
630,ÉCOLE MARGARET-UNDERHILL,M-4,0,1,1,0,0,RIVER EAST TRANSCONA SCHOOL DIVISION,25 PLACE REGINA WINNIPEG R2C 0S5 MB,25 PLACE REGINA,WINNIPEG,R2C 0S5,MB,Province of Manitoba,25 place regina winnipeg r2c 0s5 mb,25,place regina
631,ÉCOLE REGENT PARK,5-8,0,0,1,1,0,RIVER EAST TRANSCONA SCHOOL DIVISION,411 RUE MOROZ WINNIPEG R2C 2X4 MB,411 RUE MOROZ,WINNIPEG,R2C 2X4,MB,Province of Manitoba,411 rue moroz winnipeg r2c 2x4 mb,411,rue moroz
632,EMERSON ELEMENTARY,K-5,0,1,1,0,0,RIVER EAST TRANSCONA SCHOOL DIVISION,323 EMERSON STREET WINNIPEG R2G 1G3 MB,323 EMERSON STREET,WINNIPEG,R2G 1G3,MB,Province of Manitoba,323 emerson street winnipeg r2g 1g3 mb,323,emerson street
633,HAMPSTEAD SCHOOL,K-5,0,1,1,0,0,RIVER EAST TRANSCONA SCHOOL DIVISION,920 HAMPSTEAD AVENUE WINNIPEG R2K 2A3 MB,920 HAMPSTEAD AVENUE,WINNIPEG,R2K 2A3,MB,Province of Manitoba,920 hampstead avenue winnipeg r2k 2a3 mb,920,hampstead avenue
634,HAROLD HATCHER SCHOOL,K-5,0,1,1,0,0,RIVER EAST TRANSCONA SCHOOL DIVISION,500 REDONDA STREET WINNIPEG R2C 3T7 MB,500 REDONDA STREET,WINNIPEG,R2C 3T7,MB,Province of Manitoba,500 redonda street winnipeg r2c 3t7 mb,500,redonda street
635,JOHN DE GRAFF SCHOOL,K-5,0,1,1,0,0,RIVER EAST TRANSCONA SCHOOL DIVISION,1020 LOUELDA STREET WINNIPEG R2K 3Z4 MB,1020 LOUELDA STREET,WINNIPEG,R2K 3Z4,MB,Province of Manitoba,1020 louelda street winnipeg r2k 3z4 mb,1020,louelda street
636,JOHN G. STEWART SCHOOL,5-12,0,0,1,1,1,RIVER EAST TRANSCONA SCHOOL DIVISION,2069 HENDERSON HIGHWAY WINNIPEG R2G 1P7 MB,2069 HENDERSON HIGHWAY,WINNIPEG,R2G 1P7,MB,Province of Manitoba,2069 henderson highway winnipeg r2g 1p7 mb,2069,henderson highway
637,JOHN HENDERSON JUNIOR HIGH SCHOOL,6-8,0,0,1,1,0,RIVER EAST TRANSCONA SCHOOL DIVISION,930 BRAZIER STREET WINNIPEG R2K 2P3 MB,930 BRAZIER STREET,WINNIPEG,R2K 2P3,MB,Province of Manitoba,930 brazier street winnipeg r2k 2p3 mb,930,brazier street
638,JOHN PRITCHARD SCHOOL,K-8,0,1,1,1,0,RIVER EAST TRANSCONA SCHOOL DIVISION,1490 HENDERSON HIGHWAY WINNIPEG R2G 1N5 MB,1490 HENDERSON HIGHWAY,WINNIPEG,R2G 1N5,MB,Province of Manitoba,1490 henderson highway winnipeg r2g 1n5 mb,1490,henderson highway
639,JOHN W. GUNN MIDDLE SCHOOL,6-8,0,0,1,1,0,RIVER EAST TRANSCONA SCHOOL DIVISION,351 HAROLD AVENUE WEST WINNIPEG R2C 2C9 MB,351 HAROLD AVENUE WEST,WINNIPEG,R2C 2C9,MB,Province of Manitoba,351 harold avenue west winnipeg r2c 2c9 mb,351,harold avenue west
640,JOSEPH TERES SCHOOL,K-5,0,1,1,0,0,RIVER EAST TRANSCONA SCHOOL DIVISION,131 SANFORD FLEMING DRIVE WINNIPEG R2C 5B8 MB,131 SANFORD FLEMING DRIVE,WINNIPEG,R2C 5B8,MB,Province of Manitoba,131 sanford fleming drive winnipeg r2c 5b8 mb,131,sanford fleming drive
641,KILDONAN-EAST COLLEGIATE,9-12,0,0,0,1,1,RIVER EAST TRANSCONA SCHOOL DIVISION,845 CONCORDIA AVENUE WINNIPEG R2K 2M6 MB,845 CONCORDIA AVENUE,WINNIPEG,R2K 2M6,MB,Province of Manitoba,845 concordia avenue winnipeg r2k 2m6 mb,845,concordia avenue
642,LORD WOLSELEY SCHOOL,K-5,0,1,1,0,0,RIVER EAST TRANSCONA SCHOOL DIVISION,939 HENDERSON HWY WINNIPEG R2K 2M2 MB,939 HENDERSON HWY,WINNIPEG,R2K 2M2,MB,Province of Manitoba,939 henderson hwy winnipeg r2k 2m2 mb,939,henderson hwy
643,MAPLE LEAF SCHOOL,K-5,0,1,1,0,0,RIVER EAST TRANSCONA SCHOOL DIVISION,251 MCIVOR AVENUE WINNIPEG R2G 0Z7 MB,251 MCIVOR AVENUE,WINNIPEG,R2G 0Z7,MB,Province of Manitoba,251 mcivor avenue winnipeg r2g 0z7 mb,251,mcivor avenue
644,MILES MACDONELL COLLEGIATE,9-12,0,0,0,1,1,RIVER EAST TRANSCONA SCHOOL DIVISION,757 ROCH STREET WINNIPEG R2K 2R1 MB,757 ROCH STREET,WINNIPEG,R2K 2R1,MB,Province of Manitoba,757 roch street winnipeg r2k 2r1 mb,757,roch street
645,MUNROE JUNIOR HIGH SCHOOL,6-8,0,0,1,1,0,RIVER EAST TRANSCONA SCHOOL DIVISION,405 MUNROE AVENUE WINNIPEG R2K 1H5 MB,405 MUNROE AVENUE,WINNIPEG,R2K 1H5,MB,Province of Manitoba,405 munroe avenue winnipeg r2k 1h5 mb,405,munroe avenue
646,MURDOCH MACKAY COLLEGIATE,9-12,0,0,0,1,1,RIVER EAST TRANSCONA SCHOOL DIVISION,260 REDONDA STREET WINNIPEG R2C 1L6 MB,260 REDONDA STREET,WINNIPEG,R2C 1L6,MB,Province of Manitoba,260 redonda street winnipeg r2c 1l6 mb,260,redonda street
647,NEIL CAMPBELL SCHOOL,K-5,0,1,1,0,0,RIVER EAST TRANSCONA SCHOOL DIVISION,845 GOLSPIE STREET WINNIPEG R2K 2V5 MB,845 GOLSPIE STREET,WINNIPEG,R2K 2V5,MB,Province of Manitoba,845 golspie street winnipeg r2k 2v5 mb,845,golspie street
648,POLSON SCHOOL,K-5,0,1,1,0,0,RIVER EAST TRANSCONA SCHOOL DIVISION,491 MUNROE AVENUE WINNIPEG R2K 1H5 MB,491 MUNROE AVENUE,WINNIPEG,R2K 1H5,MB,Province of Manitoba,491 munroe avenue winnipeg r2k 1h5 mb,491,munroe avenue
649,PRINCE EDWARD SCHOOL,K-5,0,1,1,0,0,RIVER EAST TRANSCONA SCHOOL DIVISION,649 BRAZIER STREET WINNIPEG R2K 2N4 MB,649 BRAZIER STREET,WINNIPEG,R2K 2N4,MB,Province of Manitoba,649 brazier street winnipeg r2k 2n4 mb,649,brazier street
650,PRINCESS MARGARET SCHOOL,K-5,0,1,1,0,0,RIVER EAST TRANSCONA SCHOOL DIVISION,367 HAWTHORNE AVENUE WINNIPEG R2G 0H6 MB,367 HAWTHORNE AVENUE,WINNIPEG,R2G 0H6,MB,Province of Manitoba,367 hawthorne avenue winnipeg r2g 0h6 mb,367,hawthorne avenue
651,RADISSON SCHOOL,K-5,0,1,1,0,0,RIVER EAST TRANSCONA SCHOOL DIVISION,1105 WINONA STREET WINNIPEG R2C 2P9 MB,1105 WINONA STREET,WINNIPEG,R2C 2P9,MB,Province of Manitoba,1105 winona street winnipeg r2c 2p9 mb,1105,winona street
652,RIVER EAST COLLEGIATE,9-12,0,0,0,1,1,RIVER EAST TRANSCONA SCHOOL DIVISION,295 SUTTON AVENUE WINNIPEG R2G 0T1 MB,295 SUTTON AVENUE,WINNIPEG,R2G 0T1,MB,Province of Manitoba,295 sutton avenue winnipeg r2g 0t1 mb,295,sutton avenue
653,ROBERT ANDREWS SCHOOL,6-8,0,0,1,1,0,RIVER EAST TRANSCONA SCHOOL DIVISION,3230 MANLIUS STREET EAST ST. PAUL R2E 0H7 MB,3230 MANLIUS STREET,EAST ST. PAUL,R2E 0H7,MB,Province of Manitoba,3230 manlius street east st paul r2e 0h7 mb,3230,manlius street east
654,SALISBURY MORSE PLACE SCHOOL,K-8,0,1,1,1,0,RIVER EAST TRANSCONA SCHOOL DIVISION,795 PRINCE RUPERT AVENUE WINNIPEG R2K 1W6 MB,795 PRINCE RUPERT AVENUE,WINNIPEG,R2K 1W6,MB,Province of Manitoba,795 prince rupert avenue winnipeg r2k 1w6 mb,795,prince rupert avenue
655,SHERWOOD SCHOOL,K-5,0,1,1,0,0,RIVER EAST TRANSCONA SCHOOL DIVISION,509 GREY STREET WINNIPEG R2K 2Z1 MB,509 GREY STREET,WINNIPEG,R2K 2Z1,MB,Province of Manitoba,509 grey street winnipeg r2k 2z1 mb,509,grey street
656,SPRINGFIELD HEIGHTS SCHOOL,K-5,0,1,1,0,0,RIVER EAST TRANSCONA SCHOOL DIVISION,505 SHARRON BAY WINNIPEG R2G 0H8 MB,505 SHARRON BAY,WINNIPEG,R2G 0H8,MB,Province of Manitoba,505 sharron bay winnipeg r2g 0h8 mb,505,sharron bay
657,SUN VALLEY SCHOOL,K-5,0,1,1,0,0,RIVER EAST TRANSCONA SCHOOL DIVISION,125 SUN VALLEY DRIVE WINNIPEG R2G 2W4 MB,125 SUN VALLEY DRIVE,WINNIPEG,R2G 2W4,MB,Province of Manitoba,125 sun valley drive winnipeg r2g 2w4 mb,125,sun valley drive
658,TRANSCONA COLLEGIATE,9-12,0,0,0,1,1,RIVER EAST TRANSCONA SCHOOL DIVISION,1305 WINONA STREET WINNIPEG R2C 2P9 MB,1305 WINONA STREET,WINNIPEG,R2C 2P9,MB,Province of Manitoba,1305 winona street winnipeg r2c 2p9 mb,1305,winona street
659,VALLEY GARDENS JUNIOR HIGH,6-8,0,0,1,1,0,RIVER EAST TRANSCONA SCHOOL DIVISION,220 ANTRIM ROAD WINNIPEG R2K 3L2 MB,220 ANTRIM ROAD,WINNIPEG,R2K 3L2,MB,Province of Manitoba,220 antrim road winnipeg r2k 3l2 mb,220,antrim road
660,WAYOATA SCHOOL,K-5,0,1,1,0,0,RIVER EAST TRANSCONA SCHOOL DIVISION,605 WAYOATA STREET WINNIPEG R2C 1J8 MB,605 WAYOATA STREET,WINNIPEG,R2C 1J8,MB,Province of Manitoba,605 wayoata street winnipeg r2c 1j8 mb,605,wayoata street
661,WESTVIEW SCHOOL,K-5,0,1,1,0,0,RIVER EAST TRANSCONA SCHOOL DIVISION,600 HOKA STREET WINNIPEG R2C 2V1 MB,600 HOKA STREET,WINNIPEG,R2C 2V1,MB,Province of Manitoba,600 hoka street winnipeg r2c 2v1 mb,600,hoka street
662,COOL SPRING COLONY SCHOOL,K-12,0,1,1,1,1,ROLLING RIVER SCHOOL DIVISION,COOL SPRING COLONY BOX 1015 MINNEDOSA R0J 1E0 MB,COOL SPRING COLONY,MINNEDOSA,R0J 1E0,MB,Province of Manitoba,cool spring colony minnedosa r0j 1e0 mb,,cool spring colony
663,DEERBOINE COLONY SCHOOL,K-12,0,1,1,1,1,ROLLING RIVER SCHOOL DIVISION,DEERBOINE COLONY R. R. #1 ALEXANDER R0K 0A0 MB,DEERBOINE COLONY,ALEXANDER,R0K 0A0,MB,Province of Manitoba,deerboine colony r r #1 alexander r0k 0a0 mb,#1,alexander
664,DOUGLAS ELEMENTARY,K-8,0,1,1,1,0,ROLLING RIVER SCHOOL DIVISION,BOX 197 DOUGLAS R0K 0R0 MB,BOX 197,DOUGLAS,R0K 0R0,MB,Province of Manitoba,douglas r0k 0r0 mb,,
665,ELTON COLLEGIATE,9-12,0,0,0,1,1,ROLLING RIVER SCHOOL DIVISION,205 HILLMAN AVENUE FORREST R0K 0W0 MB,205 HILLMAN AVENUE,FORREST,R0K 0W0,MB,Province of Manitoba,205 hillman avenue forrest r0k 0w0 mb,205,hillman avenue forrest
666,ERICKSON COLLEGIATE INSTITUTE,7-12,0,0,0,1,1,ROLLING RIVER SCHOOL DIVISION,BOX 370 ERICKSON R0J 0P0 MB,BOX 370,ERICKSON,R0J 0P0,MB,Province of Manitoba,erickson r0j 0p0 mb,,erickson
667,ERICKSON ELEMENTARY,K-6,0,1,1,0,0,ROLLING RIVER SCHOOL DIVISION,GENERAL DELIVERY ERICKSON R0J 0P0 MB,GENERAL DELIVERY,ERICKSON,R0J 0P0,MB,Province of Manitoba,general delivery erickson r0j 0p0 mb,,general delivery erickson
668,FORREST ELEMENTARY,K-8,0,1,1,1,0,ROLLING RIVER SCHOOL DIVISION,GENERAL DELIVERY FORREST R0K 0W0 MB,GENERAL DELIVERY,FORREST,R0K 0W0,MB,Province of Manitoba,general delivery forrest r0k 0w0 mb,,general delivery forrest
669,GLENDALE SCHOOL,K-12,0,1,1,1,1,ROLLING RIVER SCHOOL DIVISION,HILLSIDE COLONY GENERAL DELIVERY JUSTICE R0K 1C0 MB,HILLSIDE COLONY,JUSTICE,R0K 1C0,MB,Province of Manitoba,hillside colony general delivery justice r0k 1c0 mb,,
670,MINNEDOSA COLLEGIATE,9-12,0,0,0,1,1,ROLLING RIVER SCHOOL DIVISION,BOX 1230 MINNEDOSA R0J 1E0 MB,BOX 1230,MINNEDOSA,R0J 1E0,MB,Province of Manitoba,minnedosa r0j 1e0 mb,,
671,OAK RIVER COLONY SCHOOL,K-12,0,1,1,1,1,ROLLING RIVER SCHOOL DIVISION,BOX 38 OAK RIVER R0K 1T0 MB,BOX 38,OAK RIVER,R0K 1T0,MB,Province of Manitoba,oak river r0k 1t0 mb,,
672,OAK RIVER ELEMENTARY,K-6,0,1,1,0,0,ROLLING RIVER SCHOOL DIVISION,BOX 89 OAK RIVER R0K 1T0 MB,BOX 89,OAK RIVER,R0K 1T0,MB,Province of Manitoba,oak river r0k 1t0 mb,,
673,ONANOLE ELEMENTARY,K-8,0,1,1,1,0,ROLLING RIVER SCHOOL DIVISION,BOX 8 ONANOLE R0J 1N0 MB,BOX 8,ONANOLE,R0J 1N0,MB,Province of Manitoba,onanole r0j 1n0 mb,,
674,RAPID CITY SCHOOL,K-8,0,1,1,1,0,ROLLING RIVER SCHOOL DIVISION,BOX 100 RAPID CITY R0K 1W0 MB,BOX 100,RAPID CITY,R0K 1W0,MB,Province of Manitoba,rapid city r0k 1w0 mb,,
675,RIVERS COLLEGIATE,7-12,0,0,0,1,1,ROLLING RIVER SCHOOL DIVISION,BOX 519 RIVERS R0K 1X0 MB,BOX 519,RIVERS,R0K 1X0,MB,Province of Manitoba,rivers r0k 1x0 mb,,
676,RIVERS ELEMENTARY,K-6,0,1,1,0,0,ROLLING RIVER SCHOOL DIVISION,BOX 610 RIVERS R0K 1X0 MB,BOX 610,RIVERS,R0K 1X0,MB,Province of Manitoba,rivers r0k 1x0 mb,,
677,TANNER'S CROSSING SCHOOL,K-8,0,1,1,1,0,ROLLING RIVER SCHOOL DIVISION,BOX 1110 MINNEDOSA R0J 1E0 MB,BOX 1110,MINNEDOSA,R0J 1E0,MB,Province of Manitoba,minnedosa r0j 1e0 mb,,
678,WESTVIEW COLONY SCHOOL,K-12,0,1,1,1,1,ROLLING RIVER SCHOOL DIVISION,BOX 250 NEWDALE R0J 1J0 MB,BOX 250,NEWDALE,R0J 1J0,MB,Province of Manitoba,newdale r0j 1j0 mb,,
679,ARBORGATE SCHOOL,K-8,0,1,1,1,0,SEINE RIVER SCHOOL DIVISION,71 NORMANDEAU BAY LA BROQUERIE R0A 0W0 MB,71 NORMANDEAU BAY,LA BROQUERIE,R0A 0W0,MB,Province of Manitoba,71 normandeau bay la broquerie r0a 0w0 mb,71,normandeau bay
680,COLLÈGE LORETTE COLLEGIATE,9-12,0,0,0,1,1,SEINE RIVER SCHOOL DIVISION,1082 DAWSON ROAD LORETTE R0A 0Y0 MB,1082 DAWSON ROAD,LORETTE,R0A 0Y0,MB,Province of Manitoba,1082 dawson road lorette r0a 0y0 mb,1082,dawson road
681,COLLÈGE SAINT-NORBERT COLLEGIATE,9-12,0,0,0,1,1,SEINE RIVER SCHOOL DIVISION,870 STE. THERESE AVENUE ST. NORBERT R3V 1H8 MB,870 STE. THERESE AVENUE,ST. NORBERT,R3V 1H8,MB,Province of Manitoba,870 ste therese avenue st norbert r3v 1h8 mb,870,ste therese avenue
682,DAWSON TRAIL SCHOOL,K-8,0,1,1,1,0,SEINE RIVER SCHOOL DIVISION,P.O. BOX 70 425 SENEZ STREET LORETTE R0A 0Y0 MB,P.O. BOX 70,LORETTE,R0A 0Y0,MB,Province of Manitoba,425 senez street lorette r0a 0y0 mb,425,senez street
683,ÉCOLE ÎLE-DES-CHÊNES SCHOOL,K-8,0,1,1,1,0,SEINE RIVER SCHOOL DIVISION,BOX 520 455 D'AUTEUIL STREET ILE DES CHENES R0A 0T0 MB,BOX 520,ILE DES CHENES,R0A 0T0,MB,Province of Manitoba,455 d'auteuil street ile des chenes r0a 0t0 mb,455,d'auteuil street
684,ÉCOLE LORETTE IMMERSION,M-8,0,1,1,1,0,SEINE RIVER SCHOOL DIVISION,475 RUE SENEZ LORETTE R0A 0Y0 MB,475 RUE SENEZ,LORETTE,R0A 0Y0,MB,Province of Manitoba,475 rue senez lorette r0a 0y0 mb,475,rue senez
685,ÉCOLE SAINT-NORBERT IMMERSION,M-8,0,1,1,1,0,SEINE RIVER SCHOOL DIVISION,900 AVENUE SAINTE-THÉRÈSE ST. NORBERT R3V 1H8 MB,900 AVENUE SAINTE-THÉRÈSE,ST. NORBERT,R3V 1H8,MB,Province of Manitoba,900 avenue sainte thérèse st norbert r3v 1h8 mb,900,avenue sainte
686,ÉCOLE SAINTE-ANNE IMMERSION,M-8,0,1,1,1,0,SEINE RIVER SCHOOL DIVISION,167 AVENUE ST-ALPHONSE STE. ANNE R5H 1G3 MB,167 AVENUE ST-ALPHONSE,STE. ANNE,R5H 1G3,MB,Province of Manitoba,167 avenue st alphonse ste anne r5h 1g3 mb,167,avenue st
687,ÉCOLE ST. ADOLPHE SCHOOL,K-8,0,1,1,1,0,SEINE RIVER SCHOOL DIVISION,444 LA SEINE STREET ST. ADOLPHE R5A 1C2 MB,444 LA SEINE STREET,ST. ADOLPHE,R5A 1C2,MB,Province of Manitoba,444 la seine street st adolphe r5a 1c2 mb,444,la seine street
688,LA BARRIERE CROSSINGS SCHOOL,5-8,0,0,1,1,0,SEINE RIVER SCHOOL DIVISION,245 LEMAIRE STREET ST. NORBERT R3V 1M2 MB,245 LEMAIRE STREET,ST. NORBERT,R3V 1M2,MB,Province of Manitoba,245 lemaire street st norbert r3v 1m2 mb,245,lemaire street
689,LA SALLE SCHOOL,K-8,0,1,1,1,0,SEINE RIVER SCHOOL DIVISION,43 BEAUDRY STREET LA SALLE R0G 0A1 MB,43 BEAUDRY STREET,LA SALLE,R0G 0A1,MB,Province of Manitoba,43 beaudry street la salle r0g 0a1 mb,43,beaudry street
690,PARC LA SALLE SCHOOL,K-4,0,1,1,0,0,SEINE RIVER SCHOOL DIVISION,190 HOUDE DRIVE ST. NORBERT R3V 1C5 MB,190 HOUDE DRIVE,ST. NORBERT,R3V 1C5,MB,Province of Manitoba,190 houde drive st norbert r3v 1c5 mb,190,houde drive
691,RICHER SCHOOL,K-8,0,1,1,1,0,SEINE RIVER SCHOOL DIVISION,BOX 9 DAWSON ROAD RICHER R0E 1S0 MB,BOX 9,RICHER,R0E 1S0,MB,Province of Manitoba,dawson road richer r0e 1s0 mb,,dawson road richer
692,STE. ANNE COLLEGIATE,9-12,0,0,0,1,1,SEINE RIVER SCHOOL DIVISION,197 ST. ALPHONSE AVENUE STE ANNE R5H 1G3 MB,197 ST. ALPHONSE AVENUE,STE ANNE,R5H 1G3,MB,Province of Manitoba,197 st alphonse avenue ste anne r5h 1g3 mb,197,st alphonse avenue
693,STE. ANNE ELEMENTARY SCHOOL,K-8,0,1,1,1,0,SEINE RIVER SCHOOL DIVISION,177 ST. ALPHONSE AVENUE STE. ANNE R5H 1G3 MB,177 ST. ALPHONSE AVENUE,STE. ANNE,R5H 1G3,MB,Province of Manitoba,177 st alphonse avenue ste anne r5h 1g3 mb,177,st alphonse avenue
694,AMBER TRAILS COMMUNITY SCHOOL,K-8,0,1,1,1,0,SEVEN OAKS SCHOOL DIVISION,1575 TEMPLETON AVENUE WINNIPEG R2P 2T5 MB,1575 TEMPLETON AVENUE,WINNIPEG,R2P 2T5,MB,Province of Manitoba,1575 templeton avenue winnipeg r2p 2t5 mb,1575,templeton avenue
695,ARTHUR E. WRIGHT COMMUNITY SCHOOL,K-8,0,1,1,1,0,SEVEN OAKS SCHOOL DIVISION,1520 JEFFERSON AVENUE WINNIPEG R2P 1K1 MB,1520 JEFFERSON AVENUE,WINNIPEG,R2P 1K1,MB,Province of Manitoba,1520 jefferson avenue winnipeg r2p 1k1 mb,1520,jefferson avenue
696,COLLÈGE GARDEN CITY COLLEGIATE,9-12,0,0,0,1,1,SEVEN OAKS SCHOOL DIVISION,711 JEFFERSON AVENUE WINNIPEG R2V 0P7 MB,711 JEFFERSON AVENUE,WINNIPEG,R2V 0P7,MB,Province of Manitoba,711 jefferson avenue winnipeg r2v 0p7 mb,711,jefferson avenue
697,COLLICUTT SCHOOL,K-5,0,1,1,0,0,SEVEN OAKS SCHOOL DIVISION,75 COTTINGHAM STREET WINNIPEG R2V 3B5 MB,75 COTTINGHAM STREET,WINNIPEG,R2V 3B5,MB,Province of Manitoba,75 cottingham street winnipeg r2v 3b5 mb,75,cottingham street
698,ÉCOLE BELMONT,M-5,0,1,1,0,0,SEVEN OAKS SCHOOL DIVISION,525 AVENUE BELMONT WINNIPEG R2V 0Z6 MB,525 AVENUE BELMONT,WINNIPEG,R2V 0Z6,MB,Province of Manitoba,525 avenue belmont winnipeg r2v 0z6 mb,525,avenue
699,ÉCOLE CONSTABLE EDWARD FINNEY SCHOOL,K-5,0,1,1,0,0,SEVEN OAKS SCHOOL DIVISION,25 ANGLIA AVENUE WINNIPEG R2P 2R1 MB,25 ANGLIA AVENUE,WINNIPEG,R2P 2R1,MB,Province of Manitoba,25 anglia avenue winnipeg r2p 2r1 mb,25,anglia avenue
700,ÉCOLE JAMES NISBET COMMUNITY SCHOOL,K-5,0,1,1,0,0,SEVEN OAKS SCHOOL DIVISION,70 DOUBLEDAY DRIVE WINNIPEG R2P 0P4 MB,70 DOUBLEDAY DRIVE,WINNIPEG,R2P 0P4,MB,Province of Manitoba,70 doubleday drive winnipeg r2p 0p4 mb,70,doubleday drive
701,ÉCOLE LEILA NORTH COMMUNITY SCHOOL,6-8,0,0,1,1,0,SEVEN OAKS SCHOOL DIVISION,20 ALLAN BLYE DRIVE WINNIPEG R2P 2S5 MB,20 ALLAN BLYE DRIVE,WINNIPEG,R2P 2S5,MB,Province of Manitoba,20 allan blye drive winnipeg r2p 2s5 mb,20,allan blye drive
702,ÉCOLE RIVIERE ROUGE,K-5,0,1,1,0,0,SEVEN OAKS SCHOOL DIVISION,55 SWINFORD WAY WINNIPEG R2V 4X2 MB,55 SWINFORD WAY,WINNIPEG,R2V 4X2,MB,Province of Manitoba,55 swinford way winnipeg r2v 4x2 mb,55,swinford way
703,ÉCOLE SEVEN OAKS MIDDLE SCHOOL,6-8,0,0,1,1,0,SEVEN OAKS SCHOOL DIVISION,800 SALTER STREET WINNIPEG R2V 2E6 MB,800 SALTER STREET,WINNIPEG,R2V 2E6,MB,Province of Manitoba,800 salter street winnipeg r2v 2e6 mb,800,salter street
704,EDMUND PARTRIDGE COMMUNITY SCHOOL,6-8,0,0,1,1,0,SEVEN OAKS SCHOOL DIVISION,1874 MAIN STREET WINNIPEG R2V 2A6 MB,1874 MAIN STREET,WINNIPEG,R2V 2A6,MB,Province of Manitoba,1874 main street winnipeg r2v 2a6 mb,1874,main street
705,ELWICK COMMUNITY SCHOOL,K-8,0,1,1,1,0,SEVEN OAKS SCHOOL DIVISION,30 MABERLEY ROAD WINNIPEG R2P 0B2 MB,30 MABERLEY ROAD,WINNIPEG,R2P 0B2,MB,Province of Manitoba,30 maberley road winnipeg r2p 0b2 mb,30,maberley road
706,FOREST PARK SCHOOL,K-5,0,1,1,0,0,SEVEN OAKS SCHOOL DIVISION,130 FOREST PARK DRIVE WINNIPEG R2V 2R8 MB,130 FOREST PARK DRIVE,WINNIPEG,R2V 2R8,MB,Province of Manitoba,130 forest park drive winnipeg r2v 2r8 mb,130,forest park drive
707,GOVERNOR SEMPLE SCHOOL,K-5,0,1,1,0,0,SEVEN OAKS SCHOOL DIVISION,150 HARTFORD AVENUE WINNIPEG R2V 0V7 MB,150 HARTFORD AVENUE,WINNIPEG,R2V 0V7,MB,Province of Manitoba,150 hartford avenue winnipeg r2v 0v7 mb,150,hartford avenue
708,H. C. AVERY MIDDLE SCHOOL,6-8,0,0,1,1,0,SEVEN OAKS SCHOOL DIVISION,10 MARIGOLD BAY WINNIPEG R2V 2M1 MB,10 MARIGOLD BAY,WINNIPEG,R2V 2M1,MB,Province of Manitoba,10 marigold bay winnipeg r2v 2m1 mb,10,marigold bay
709,MAPLES COLLEGIATE,9-12,0,0,0,1,1,SEVEN OAKS SCHOOL DIVISION,1330 JEFFERSON AVENUE WINNIPEG R2P 1L3 MB,1330 JEFFERSON AVENUE,WINNIPEG,R2P 1L3,MB,Province of Manitoba,1330 jefferson avenue winnipeg r2p 1l3 mb,1330,jefferson avenue
710,MAPLES MET SCHOOL,9-12,0,0,0,1,1,SEVEN OAKS SCHOOL DIVISION,1330 JEFFERSON AVENUE WINNIPEG R2P 1L3 MB,1330 JEFFERSON AVENUE,WINNIPEG,R2P 1L3,MB,Province of Manitoba,1330 jefferson avenue winnipeg r2p 1l3 mb,1330,jefferson avenue
711,MARGARET PARK SCHOOL,K-6,0,1,1,0,0,SEVEN OAKS SCHOOL DIVISION,385 CORK AVENUE WINNIPEG R2V 1R6 MB,385 CORK AVENUE,WINNIPEG,R2V 1R6,MB,Province of Manitoba,385 cork avenue winnipeg r2v 1r6 mb,385,cork avenue
712,MET SCHOOL,9-12,0,0,0,1,1,SEVEN OAKS SCHOOL DIVISION,640 JEFFERSON AVENUE WINNIPEG R2V 0P7 MB,640 JEFFERSON AVENUE,WINNIPEG,R2V 0P7,MB,Province of Manitoba,640 jefferson avenue winnipeg r2v 0p7 mb,640,jefferson avenue
713,O. V. JEWITT ELEMENTARY,K-8,0,1,1,1,0,SEVEN OAKS SCHOOL DIVISION,66 NEVILLE STREET WINNIPEG R2P 1W3 MB,66 NEVILLE STREET,WINNIPEG,R2P 1W3,MB,Province of Manitoba,66 neville street winnipeg r2p 1w3 mb,66,neville street
714,RIVERBEND COMMUNITY SCHOOL,K-5,0,1,1,0,0,SEVEN OAKS SCHOOL DIVISION,123 RED RIVER BOULEVARD WEST WINNIPEG R2V 3X9 MB,123 RED RIVER BOULEVARD WEST,WINNIPEG,R2V 3X9,MB,Province of Manitoba,123 red river boulevard west winnipeg r2v 3x9 mb,123,red river boulevard west
715,SHKOLA R.F. MORRISON SCHOOL,K-6,0,1,1,0,0,SEVEN OAKS SCHOOL DIVISION,25 MORRISON STREET WINNIPEG R2V 3B3 MB,25 MORRISON STREET,WINNIPEG,R2V 3B3,MB,Province of Manitoba,25 morrison street winnipeg r2v 3b3 mb,25,morrison street
716,VICTORY SCHOOL,K-5,0,1,1,0,0,SEVEN OAKS SCHOOL DIVISION,395 JEFFERSON AVENUE WINNIPEG R2V 0N3 MB,395 JEFFERSON AVENUE,WINNIPEG,R2V 0N3,MB,Province of Manitoba,395 jefferson avenue winnipeg r2v 0n3 mb,395,jefferson avenue
717,WEST KILDONAN COLLEGIATE,9-12,0,0,0,1,1,SEVEN OAKS SCHOOL DIVISION,101 RIDGECREST AVENUE WINNIPEG R2V 4T6 MB,101 RIDGECREST AVENUE,WINNIPEG,R2V 4T6,MB,Province of Manitoba,101 ridgecrest avenue winnipeg r2v 4t6 mb,101,ridgecrest avenue
718,WEST ST. PAUL SCHOOL,K-8,0,1,1,1,0,SEVEN OAKS SCHOOL DIVISION,3740 MAIN STREET WEST ST. PAUL R4A 1A4 MB,3740 MAIN STREET,WEST ST. PAUL,R4A 1A4,MB,Province of Manitoba,3740 main street west st paul r4a 1a4 mb,3740,main street west
719,DELORAINE SCHOOL,K-12,0,1,1,1,1,SOUTHWEST HORIZON SCHOOL DIVISION,BOX 448 DELORAINE R0M 0M0 MB,BOX 448,DELORAINE,R0M 0M0,MB,Province of Manitoba,deloraine r0m 0m0 mb,,
720,GREEN ACRES COLONY SCHOOL,K-8,0,1,1,1,0,SOUTHWEST HORIZON SCHOOL DIVISION,BOX 190 WAWANESA R0K 2G0 MB,BOX 190,WAWANESA,R0K 2G0,MB,Province of Manitoba,wawanesa r0k 2g0 mb,,
721,HARTNEY SCHOOL,K-12,0,1,1,1,1,SOUTHWEST HORIZON SCHOOL DIVISION,BOX 130 HARTNEY R0M 0X0 MB,BOX 130,HARTNEY,R0M 0X0,MB,Province of Manitoba,hartney r0m 0x0 mb,,
722,MAPLE GROVE COLONY SCHOOL,K-12,0,1,1,1,1,SOUTHWEST HORIZON SCHOOL DIVISION,BOX 40 LAUDER R0M 1C0 MB,BOX 40,LAUDER,R0M 1C0,MB,Province of Manitoba,lauder r0m 1c0 mb,,
723,MELITA SCHOOL,K-12,0,1,1,1,1,SOUTHWEST HORIZON SCHOOL DIVISION,BOX 579 MELITA R0M 1L0 MB,BOX 579,MELITA,R0M 1L0,MB,Province of Manitoba,melita r0m 1l0 mb,,melita
724,NATURE VALLEY COLONY SCHOOL,K-12,0,1,1,1,1,SOUTHWEST HORIZON SCHOOL DIVISION,BOX 308 WAWANESA R0K 2G0 MB,BOX 308,WAWANESA,R0K 2G0,MB,Province of Manitoba,wawanesa r0k 2g0 mb,,
725,NEWDALE COLONY SCHOOL,K-12,0,1,1,1,1,SOUTHWEST HORIZON SCHOOL DIVISION,BOX 396 SOURIS R0K 2C0 MB,BOX 396,SOURIS,R0K 2C0,MB,Province of Manitoba,souris r0k 2c0 mb,,souris
726,OAKLAND SCHOOL,K-12,0,1,1,1,1,SOUTHWEST HORIZON SCHOOL DIVISION,BOX 24 CARROLL R0K 0K0 MB,BOX 24,CARROLL,R0K 0K0,MB,Province of Manitoba,carroll r0k 0k0 mb,,
727,PIERSON SCHOOL,K-12,0,1,1,1,1,SOUTHWEST HORIZON SCHOOL DIVISION,BOX 250 PIERSON R0M 1S0 MB,BOX 250,PIERSON,R0M 1S0,MB,Province of Manitoba,pierson r0m 1s0 mb,,
728,SOURIS RIVER COLONY SCHOOL,K-12,0,1,1,1,1,SOUTHWEST HORIZON SCHOOL DIVISION,BOX 178 SOURIS R0K 2C0 MB,BOX 178,SOURIS,R0K 2C0,MB,Province of Manitoba,souris r0k 2c0 mb,,souris
729,SOURIS SCHOOL,K-12,0,1,1,1,1,SOUTHWEST HORIZON SCHOOL DIVISION,BOX 639 SOURIS R0K 2C0 MB,BOX 639,SOURIS,R0K 2C0,MB,Province of Manitoba,souris r0k 2c0 mb,,souris
730,WASKADA SCHOOL,K-12,0,1,1,1,1,SOUTHWEST HORIZON SCHOOL DIVISION,BOX 190 WASKADA R0M 2E0 MB,BOX 190,WASKADA,R0M 2E0,MB,Province of Manitoba,waskada r0m 2e0 mb,,
731,WAWANESA SCHOOL,K-12,0,1,1,1,1,SOUTHWEST HORIZON SCHOOL DIVISION,BOX 310 WAWANESA R0K 2G0 MB,BOX 310,WAWANESA,R0K 2G0,MB,Province of Manitoba,wawanesa r0k 2g0 mb,,
732,ATHLONE SCHOOL,K-5,0,1,1,0,0,ST. JAMES-ASSINIBOIA SCHOOL DIVISION,110 ATHLONE DRIVE WINNIPEG R3J 3L4 MB,110 ATHLONE DRIVE,WINNIPEG,R3J 3L4,MB,Province of Manitoba,110 athlone drive winnipeg r3j 3l4 mb,110,athlone drive
733,BROOKLANDS SCHOOL,K-5,0,1,1,0,0,ST. JAMES-ASSINIBOIA SCHOOL DIVISION,1950 PACIFIC AVENUE W WINNIPEG R2R 0G4 MB,1950 PACIFIC AVENUE W,WINNIPEG,R2R 0G4,MB,Province of Manitoba,1950 pacific avenue w winnipeg r2r 0g4 mb,1950,pacific avenue w
734,BRUCE MIDDLE SCHOOL,6-8,0,0,1,1,0,ST. JAMES-ASSINIBOIA SCHOOL DIVISION,333 BOOTH DRIVE WINNIPEG R3J 3M8 MB,333 BOOTH DRIVE,WINNIPEG,R3J 3M8,MB,Province of Manitoba,333 booth drive winnipeg r3j 3m8 mb,333,booth drive
735,BUCHANAN SCHOOL,K-5,0,1,1,0,0,ST. JAMES-ASSINIBOIA SCHOOL DIVISION,815 BUCHANAN BOULEVARD WINNIPEG R2Y 1N1 MB,815 BUCHANAN BOULEVARD,WINNIPEG,R2Y 1N1,MB,Province of Manitoba,815 buchanan boulevard winnipeg r2y 1n1 mb,815,buchanan boulevard
736,COLLÈGE STURGEON HEIGHTS COLLEGIATE,9-12,0,0,0,1,1,ST. JAMES-ASSINIBOIA SCHOOL DIVISION,2665 NESS AVENUE WINNIPEG R3J 1A5 MB,2665 NESS AVENUE,WINNIPEG,R3J 1A5,MB,Province of Manitoba,2665 ness avenue winnipeg r3j 1a5 mb,2665,ness avenue
737,CRESTVIEW SCHOOL,K-5,0,1,1,0,0,ST. JAMES-ASSINIBOIA SCHOOL DIVISION,333 MORGAN CRESCENT WINNIPEG R2Y 0C9 MB,333 MORGAN CRESCENT,WINNIPEG,R2Y 0C9,MB,Province of Manitoba,333 morgan crescent winnipeg r2y 0c9 mb,333,morgan crescent
738,ÉCOLE ASSINIBOINE,M-5,0,1,1,0,0,ST. JAMES-ASSINIBOIA SCHOOL DIVISION,175 CHEMIN WINSTON WINNIPEG R3J 1N1 MB,175 CHEMIN WINSTON,WINNIPEG,R3J 1N1,MB,Province of Manitoba,175 chemin winston winnipeg r3j 1n1 mb,175,chemin winston
739,ÉCOLE BANNATYNE,M-5,0,1,1,0,0,ST. JAMES-ASSINIBOIA SCHOOL DIVISION,363 PROMENADE THOMPSON WINNIPEG R3J 3E5 MB,363 PROMENADE THOMPSON,WINNIPEG,R3J 3E5,MB,Province of Manitoba,363 promenade thompson winnipeg r3j 3e5 mb,363,promenade thompson
740,ÉCOLE NESS,6-8,0,0,1,1,0,ST. JAMES-ASSINIBOIA SCHOOL DIVISION,3300 NESS AVENUE WINNIPEG R2Y 0G6 MB,3300 NESS AVENUE,WINNIPEG,R2Y 0G6,MB,Province of Manitoba,3300 ness avenue winnipeg r2y 0g6 mb,3300,ness avenue
741,ÉCOLE ROBERT-BROWNING,M-5,0,1,1,0,0,ST. JAMES-ASSINIBOIA SCHOOL DIVISION,130 BOULEVARD BROWNING WINNIPEG R3K 0L8 MB,130 BOULEVARD BROWNING,WINNIPEG,R3K 0L8,MB,Province of Manitoba,130 boulevard browning winnipeg r3k 0l8 mb,130,boulevard
742,EDUCATIONAL SUPPORT SERVICES,K-12,0,1,1,1,1,ST. JAMES-ASSINIBOIA SCHOOL DIVISION,1 BRAINTREE CRESCENT WINNIPEG R3J 1C7 MB,1 BRAINTREE CRESCENT,WINNIPEG,R3J 1C7,MB,Province of Manitoba,1 braintree crescent winnipeg r3j 1c7 mb,1,braintree crescent
743,GEORGE WATERS MIDDLE SCHOOL,6-8,0,0,1,1,0,ST. JAMES-ASSINIBOIA SCHOOL DIVISION,190 FERRY ROAD WINNIPEG R3J 1V7 MB,190 FERRY ROAD,WINNIPEG,R3J 1V7,MB,Province of Manitoba,190 ferry road winnipeg r3j 1v7 mb,190,ferry road
744,GOLDEN GATE MIDDLE SCHOOL,6-8,0,0,1,1,0,ST. JAMES-ASSINIBOIA SCHOOL DIVISION,330 BRUCE AVENUE WINNIPEG R3J 0V8 MB,330 BRUCE AVENUE,WINNIPEG,R3J 0V8,MB,Province of Manitoba,330 bruce avenue winnipeg r3j 0v8 mb,330,bruce avenue
745,HEDGES MIDDLE SCHOOL,6-8,0,0,1,1,0,ST. JAMES-ASSINIBOIA SCHOOL DIVISION,369 FAIRLANE AVENUE WINNIPEG R2Y 0B6 MB,369 FAIRLANE AVENUE,WINNIPEG,R2Y 0B6,MB,Province of Manitoba,369 fairlane avenue winnipeg r2y 0b6 mb,369,fairlane avenue
746,HERITAGE SCHOOL,K-5,0,1,1,0,0,ST. JAMES-ASSINIBOIA SCHOOL DIVISION,47 HERITAGE BOULEVARD WINNIPEG R2Y 0N9 MB,47 HERITAGE BOULEVARD,WINNIPEG,R2Y 0N9,MB,Province of Manitoba,47 heritage boulevard winnipeg r2y 0n9 mb,47,heritage boulevard
747,JAMESWOOD ALTERNATIVE SCHOOL,9-12,0,0,0,1,1,ST. JAMES-ASSINIBOIA SCHOOL DIVISION,1 BRAINTREE CRESCENT WINNIPEG R3J 1C7 MB,1 BRAINTREE CRESCENT,WINNIPEG,R3J 1C7,MB,Province of Manitoba,1 braintree crescent winnipeg r3j 1c7 mb,1,braintree crescent
748,JOHN TAYLOR COLLEGIATE,9-12,0,0,0,1,1,ST. JAMES-ASSINIBOIA SCHOOL DIVISION,470 HAMILTON AVENUE WINNIPEG R2Y 0H4 MB,470 HAMILTON AVENUE,WINNIPEG,R2Y 0H4,MB,Province of Manitoba,470 hamilton avenue winnipeg r2y 0h4 mb,470,hamilton avenue
749,LAKEWOOD SCHOOL,K-5,0,1,1,0,0,ST. JAMES-ASSINIBOIA SCHOOL DIVISION,55 KAY CRESCENT WINNIPEG R2Y 1L1 MB,55 KAY CRESCENT,WINNIPEG,R2Y 1L1,MB,Province of Manitoba,55 kay crescent winnipeg r2y 1l1 mb,55,kay crescent
750,LINCOLN MIDDLE SCHOOL,6-8,0,0,1,1,0,ST. JAMES-ASSINIBOIA SCHOOL DIVISION,3180 MCBEY AVENUE WINNIPEG R3K 0T7 MB,3180 MCBEY AVENUE,WINNIPEG,R3K 0T7,MB,Province of Manitoba,3180 mcbey avenue winnipeg r3k 0t7 mb,3180,mcbey avenue
751,LINWOOD SCHOOL,K-5,0,1,1,0,0,ST. JAMES-ASSINIBOIA SCHOOL DIVISION,266 LINWOOD STREET WINNIPEG R3J 2C6 MB,266 LINWOOD STREET,WINNIPEG,R3J 2C6,MB,Province of Manitoba,266 linwood street winnipeg r3j 2c6 mb,266,linwood street
752,PHOENIX SCHOOL,K-5,0,1,1,0,0,ST. JAMES-ASSINIBOIA SCHOOL DIVISION,111 ALBORO STREET HEADINGLEY R4J 1A3 MB,111 ALBORO STREET,HEADINGLEY,R4J 1A3,MB,Province of Manitoba,111 alboro street headingley r4j 1a3 mb,111,alboro street
753,SANSOME SCHOOL,K-5,0,1,1,0,0,ST. JAMES-ASSINIBOIA SCHOOL DIVISION,181 SANSOME AVENUE WINNIPEG R3K 0N8 MB,181 SANSOME AVENUE,WINNIPEG,R3K 0N8,MB,Province of Manitoba,181 sansome avenue winnipeg r3k 0n8 mb,181,sansome avenue
754,ST. JAMES COLLEGIATE,9-12,0,0,0,1,1,ST. JAMES-ASSINIBOIA SCHOOL DIVISION,1900 PORTAGE AVENUE WINNIPEG R3J 0J1 MB,1900 PORTAGE AVENUE,WINNIPEG,R3J 0J1,MB,Province of Manitoba,1900 portage avenue winnipeg r3j 0j1 mb,1900,portage avenue
755,STEVENSON SCHOOL,K-5,0,1,1,0,0,ST. JAMES-ASSINIBOIA SCHOOL DIVISION,1777 SILVER AVENUE WINNIPEG R3J 1B1 MB,1777 SILVER AVENUE,WINNIPEG,R3J 1B1,MB,Province of Manitoba,1777 silver avenue winnipeg r3j 1b1 mb,1777,silver avenue
756,STRATHMILLAN SCHOOL,K-5,0,1,1,0,0,ST. JAMES-ASSINIBOIA SCHOOL DIVISION,339 STRATHMILLAN ROAD WINNIPEG R3J 2V6 MB,339 STRATHMILLAN ROAD,WINNIPEG,R3J 2V6,MB,Province of Manitoba,339 strathmillan road winnipeg r3j 2v6 mb,339,strathmillan road
757,VOYAGEUR SCHOOL,K-5,0,1,1,0,0,ST. JAMES-ASSINIBOIA SCHOOL DIVISION,37 VOYAGEUR AVENUE WINNIPEG R2Y 0H7 MB,37 VOYAGEUR AVENUE,WINNIPEG,R2Y 0H7,MB,Province of Manitoba,37 voyageur avenue winnipeg r2y 0h7 mb,37,voyageur avenue
758,WESTWOOD COLLEGIATE,9-12,0,0,0,1,1,ST. JAMES-ASSINIBOIA SCHOOL DIVISION,360 ROUGE ROAD WINNIPEG R3K 1K3 MB,360 ROUGE ROAD,WINNIPEG,R3K 1K3,MB,Province of Manitoba,360 rouge road winnipeg r3k 1k3 mb,360,rouge road
759,ANOLA SCHOOL,K-8,0,1,1,1,0,SUNRISE SCHOOL DIVISION,30 ACADEMY STREET ANOLA R0E 0A0 MB,30 ACADEMY STREET,ANOLA,R0E 0A0,MB,Province of Manitoba,30 academy street anola r0e 0a0 mb,30,academy street anola
760,CENTENNIAL SCHOOL,K-6,0,1,1,0,0,SUNRISE SCHOOL DIVISION,BOX 219 LAC DU BONNET R0E 1A0 MB,BOX 219,LAC DU BONNET,R0E 1A0,MB,Province of Manitoba,lac du bonnet r0e 1a0 mb,,
761,ÉCOLE BEAUSÉJOUR EARLY YEARS,K-5,0,1,1,0,0,SUNRISE SCHOOL DIVISION,BOX 869 BEAUSEJOUR R0E 0C0 MB,BOX 869,BEAUSEJOUR,R0E 0C0,MB,Province of Manitoba,beausejour r0e 0c0 mb,,
762,ÉCOLE DUGALD SCHOOL,K-8,0,1,1,1,0,SUNRISE SCHOOL DIVISION,543 HOLLAND STREET DUGALD R0E 0K0 MB,543 HOLLAND STREET,DUGALD,R0E 0K0,MB,Province of Manitoba,543 holland street dugald r0e 0k0 mb,543,holland street dugald
763,ÉCOLE EDWARD-SCHREYER SCHOOL,6-12,0,0,1,1,1,SUNRISE SCHOOL DIVISION,BOX 20 BEAUSEJOUR R0E 0C0 MB,BOX 20,BEAUSEJOUR,R0E 0C0,MB,Province of Manitoba,beausejour r0e 0c0 mb,,
764,ÉCOLE POWERVIEW SCHOOL,K-12,0,1,1,1,1,SUNRISE SCHOOL DIVISION,P.O. BOX 157 POWERVIEW R0E 1P0 MB,P.O. BOX 157,POWERVIEW,R0E 1P0,MB,Province of Manitoba,powerview r0e 1p0 mb,,
765,GILLIS SCHOOL,K-6,0,1,1,0,0,SUNRISE SCHOOL DIVISION,BOX 1 TYNDALL R0E 2B0 MB,BOX 1,TYNDALL,R0E 2B0,MB,Province of Manitoba,tyndall r0e 2b0 mb,,tyndall
766,GRAFTON SCHOOL,K-12,0,1,1,1,1,SUNRISE SCHOOL DIVISION,BOX 708 R.R. #1 ANOLA R0E 0A0 MB,BOX 708,ANOLA,R0E 0A0,MB,Province of Manitoba,rr #1 anola r0e 0a0 mb,,rr #1 anola
767,GROSS COLONY SCHOOL,K-12,0,1,1,1,1,SUNRISE SCHOOL DIVISION,WHITESHELL COLONY BOX 65 RIVER HILLS R0E 1T0 MB,WHITESHELL COLONY,RIVER HILLS,R0E 1T0,MB,Province of Manitoba,whiteshell colony river hills r0e 1t0 mb,,whiteshell colony river hills
768,HAZELRIDGE SCHOOL,K-5,0,1,1,0,0,SUNRISE SCHOOL DIVISION,38 MYRTLE STREET HAZELRIDGE R0E 0Y0 MB,38 MYRTLE STREET,HAZELRIDGE,R0E 0Y0,MB,Province of Manitoba,38 myrtle street hazelridge r0e 0y0 mb,38,myrtle street hazelridge
769,HEARTLAND COLONY SCHOOL,K-12,0,1,1,1,1,SUNRISE SCHOOL DIVISION,BOX 61 HAZELRIDGE R0E 0Y0 MB,BOX 61,HAZELRIDGE,R0E 0Y0,MB,Province of Manitoba,hazelridge r0e 0y0 mb,,hazelridge
770,HOFER SCHOOL,K-12,0,1,1,1,1,SUNRISE SCHOOL DIVISION,BOX 3140 R. R. #3 BEAUSEJOUR R0E 0C0 MB,BOX 3140,BEAUSEJOUR,R0E 0C0,MB,Province of Manitoba,r r #3 beausejour r0e 0c0 mb,#3,beausejour
771,LAC DU BONNET SENIOR,7-12,0,0,0,1,1,SUNRISE SCHOOL DIVISION,BOX 908 LAC DU BONNET R0E 1A0 MB,BOX 908,LAC DU BONNET,R0E 1A0,MB,Province of Manitoba,lac du bonnet r0e 1a0 mb,,
772,OAK BANK ELEMENTARY,K-5,0,1,1,0,0,SUNRISE SCHOOL DIVISION,826 CEDAR AVENUE OAKBANK R0E 1J0 MB,826 CEDAR AVENUE,OAKBANK,R0E 1J0,MB,Province of Manitoba,826 cedar avenue oakbank r0e 1j0 mb,826,cedar avenue oakbank
773,RICHLAND SCHOOL,K-12,0,1,1,1,1,SUNRISE SCHOOL DIVISION,"RIDGELAND COLONY R. R. #1, BOX 508 DUGALD R0E 0K0 MB",RIDGELAND COLONY,DUGALD,R0E 0K0,MB,Province of Manitoba,ridgeland colony r r #1 dugald r0e 0k0 mb,#1,dugald
774,SPRINGFIELD COLLEGIATE,9-12,0,0,0,1,1,SUNRISE SCHOOL DIVISION,841 CEDAR AVENUE OAKBANK R0E 1J1 MB,841 CEDAR AVENUE,OAKBANK,R0E 1J1,MB,Province of Manitoba,841 cedar avenue oakbank r0e 1j1 mb,841,cedar avenue oakbank
775,SPRINGFIELD MIDDLE SCHOOL,6-8,0,0,1,1,0,SUNRISE SCHOOL DIVISION,860 CEDAR AVENUE OAKBANK R0E 1J0 MB,860 CEDAR AVENUE,OAKBANK,R0E 1J0,MB,Province of Manitoba,860 cedar avenue oakbank r0e 1j0 mb,860,cedar avenue oakbank
776,SPRINGWELL SCHOOL,K-12,0,1,1,1,1,SUNRISE SCHOOL DIVISION,"BRIGHTSTONE COLONY BOX 880, RR1 LAC DU BONNET R0E 1A0 MB",BRIGHTSTONE COLONY,LAC DU BONNET,R0E 1A0,MB,Province of Manitoba,brightstone colony rr1 lac du bonnet r0e 1a0 mb,,brightstone colony rr1
777,WHITEMOUTH SCHOOL,K-12,0,1,1,1,1,SUNRISE SCHOOL DIVISION,BOX 187 WHITEMOUTH R0E 2G0 MB,BOX 187,WHITEMOUTH,R0E 2G0,MB,Province of Manitoba,whitemouth r0e 2g0 mb,,
778,BENITO SCHOOL,K-8,0,1,1,1,0,SWAN VALLEY SCHOOL DIVISION,BOX 430 BENITO R0L 0C0 MB,BOX 430,BENITO,R0L 0C0,MB,Province of Manitoba,benito r0l 0c0 mb,,benito
779,BIRCH RIVER SCHOOL,K-6,0,1,1,0,0,SWAN VALLEY SCHOOL DIVISION,BOX 310 BIRCH RIVER R0L 0E0 MB,BOX 310,BIRCH RIVER,R0L 0E0,MB,Province of Manitoba,birch river r0l 0e0 mb,,
780,BOWSMAN SCHOOL,K-8,0,1,1,1,0,SWAN VALLEY SCHOOL DIVISION,BOX 248 BOWSMAN R0L 0H0 MB,BOX 248,BOWSMAN,R0L 0H0,MB,Province of Manitoba,bowsman r0l 0h0 mb,,
781,ÉCOLE SWAN RIVER SOUTH SCHOOL,K-8,0,1,1,1,0,SWAN VALLEY SCHOOL DIVISION,BOX 1059 SWAN RIVER R0L 1Z0 MB,BOX 1059,SWAN RIVER,R0L 1Z0,MB,Province of Manitoba,swan river r0l 1z0 mb,,
782,HEYES ELEMENTARY,K-6,0,1,1,0,0,SWAN VALLEY SCHOOL DIVISION,BOX 1000 SWAN RIVER R0L 1Z0 MB,BOX 1000,SWAN RIVER,R0L 1Z0,MB,Province of Manitoba,swan river r0l 1z0 mb,,
783,MINITONAS SCHOOL,K-8,0,1,1,1,0,SWAN VALLEY SCHOOL DIVISION,BOX 160 MINITONAS R0L 1G0 MB,BOX 160,MINITONAS,R0L 1G0,MB,Province of Manitoba,minitonas r0l 1g0 mb,,
784,SWAN VALLEY REGIONAL SECONDARY SCHOOL,9-12,0,0,0,1,1,SWAN VALLEY SCHOOL DIVISION,BOX 5000 SWAN RIVER R0L 1Z0 MB,BOX 5000,SWAN RIVER,R0L 1Z0,MB,Province of Manitoba,swan river r0l 1z0 mb,,
785,TAYLOR ELEMENTARY,K-5,0,1,1,0,0,SWAN VALLEY SCHOOL DIVISION,BOX 1269 SWAN RIVER R0L 1Z0 MB,BOX 1269,SWAN RIVER,R0L 1Z0,MB,Province of Manitoba,swan river r0l 1z0 mb,,
786,BOISSEVAIN SCHOOL,K-12,0,1,1,1,1,TURTLE MOUNTAIN SCHOOL DIVISION,BOX 1030 BOISSEVAIN R0K 0E0 MB,BOX 1030,BOISSEVAIN,R0K 0E0,MB,Province of Manitoba,boissevain r0k 0e0 mb,,
787,CAN AM COLONY SCHOOL,K-12,0,1,1,1,1,TURTLE MOUNTAIN SCHOOL DIVISION,BOX 69 MARGARET R0K 1J0 MB,BOX 69,MARGARET,R0K 1J0,MB,Province of Manitoba,margaret r0k 1j0 mb,,margaret
788,HOLMFIELD COLONY SCHOOL,K-12,0,1,1,1,1,TURTLE MOUNTAIN SCHOOL DIVISION,HOLMFIELD COLONY BOX 927 KILLARNEY R0K 1G0 MB,HOLMFIELD COLONY,KILLARNEY,R0K 1G0,MB,Province of Manitoba,holmfield colony killarney r0k 1g0 mb,,holmfield colony killarney
789,KILLARNEY SCHOOL,K-12,0,1,1,1,1,TURTLE MOUNTAIN SCHOOL DIVISION,GENERAL DELIVERY KILLARNEY R0K 1G0 MB,GENERAL DELIVERY,KILLARNEY,R0K 1G0,MB,Province of Manitoba,general delivery killarney r0k 1g0 mb,,general delivery killarney
790,MAYFAIR COLONY SCHOOL,K-12,0,1,1,1,1,TURTLE MOUNTAIN SCHOOL DIVISION,MAYFAIR COLONY BOX 1438 KILLARNEY R0K 1G0 MB,MAYFAIR COLONY,KILLARNEY,R0K 1G0,MB,Province of Manitoba,mayfair colony killarney r0k 1g0 mb,,mayfair colony killarney
791,MINTO SCHOOL,K-8,0,1,1,1,0,TURTLE MOUNTAIN SCHOOL DIVISION,BOX 174 MINTO R0K 1M0 MB,BOX 174,MINTO,R0K 1M0,MB,Province of Manitoba,minto r0k 1m0 mb,,
792,WELLWOOD SCHOOL,K-12,0,1,1,1,1,TURTLE MOUNTAIN SCHOOL DIVISION,WELLWOOD COLONY BOX 603 KILLARNEY R0K 1G0 MB,WELLWOOD COLONY,KILLARNEY,R0K 1G0,MB,Province of Manitoba,wellwood colony killarney r0k 1g0 mb,,wellwood colony killarney
793,ALONSA SCHOOL,K-12,0,1,1,1,1,TURTLE RIVER SCHOOL DIVISION,BOX 6 ALONSA R0H 0A0 MB,BOX 6,ALONSA,R0H 0A0,MB,Province of Manitoba,alonsa r0h 0a0 mb,,
794,ÉCOLE LAURIER,M-8,0,1,1,1,0,TURTLE RIVER SCHOOL DIVISION,CASE POSTALE 100 LAURIER R0J 1A0 MB,CASE POSTALE 100,LAURIER,R0J 1A0,MB,Province of Manitoba,case postale 100 laurier r0j 1a0 mb,,
795,GLENELLA SCHOOL,K-12,0,1,1,1,1,TURTLE RIVER SCHOOL DIVISION,BOX 59 GLENELLA R0J 0V0 MB,BOX 59,GLENELLA,R0J 0V0,MB,Province of Manitoba,glenella r0j 0v0 mb,,
796,GRASS RIVER SCHOOL,K-12,0,1,1,1,1,TURTLE RIVER SCHOOL DIVISION,GRASS RIVER COLONY BOX 160 GLENELLA R0J 0V0 MB,GRASS RIVER COLONY,GLENELLA,R0J 0V0,MB,Province of Manitoba,grass river colony glenella r0j 0v0 mb,,
797,MCCREARY SCHOOL,K-12,0,1,1,1,1,TURTLE RIVER SCHOOL DIVISION,BOX 220 MCCREARY R0J 1B0 MB,BOX 220,MCCREARY,R0J 1B0,MB,Province of Manitoba,mccreary r0j 1b0 mb,,
798,PARKVIEW SCHOOL,K-12,0,1,1,1,1,TURTLE RIVER SCHOOL DIVISION,PARKVIEW COLONY BOX 60 RIDING MOUNTAIN R0J 1T0 MB,PARKVIEW COLONY,RIDING MOUNTAIN,R0J 1T0,MB,Province of Manitoba,parkview colony riding mountain r0j 1t0 mb,,parkview colony
799,STE. ROSE SCHOOL,K-12,0,1,1,1,1,TURTLE RIVER SCHOOL DIVISION,BOX 129 STE ROSE DU LAC R0L 1S0 MB,BOX 129,STE ROSE DU LAC,R0L 1S0,MB,Province of Manitoba,ste rose du lac r0l 1s0 mb,,
800,MAPLE LEAF ELEMENTARY SCHOOL,K-4,0,1,1,0,0,WESTERN SCHOOL DIVISION,225 - 12TH STREET MORDEN R6M 1Z3 MB,225 - 12TH STREET,MORDEN,R6M 1Z3,MB,Province of Manitoba,225 12th street morden r6m 1z3 mb,225,12th street
801,MINNEWASTA SCHOOL,K-4,0,1,1,0,0,WESTERN SCHOOL DIVISION,1 ACADEMY DRIVE MORDEN R6M 1Z4 MB,1 ACADEMY DRIVE,MORDEN,R6M 1Z4,MB,Province of Manitoba,1 academy drive morden r6m 1z4 mb,1,academy drive
802,MORDEN COLLEGIATE,9-12,0,0,0,1,1,WESTERN SCHOOL DIVISION,345 - 5TH STREET MORDEN R6M 1Z1 MB,345 - 5TH STREET,MORDEN,R6M 1Z1,MB,Province of Manitoba,345 5th street morden r6m 1z1 mb,345,5th street
803,MORDEN MIDDLE SCHOOL,5-8,0,0,1,1,0,WESTERN SCHOOL DIVISION,150 WARDROP STREET MORDEN R6M 1Z2 MB,150 WARDROP STREET,MORDEN,R6M 1Z2,MB,Province of Manitoba,150 wardrop street morden r6m 1z2 mb,150,wardrop street
804,F. W. GILBERT SCHOOL,K-6,0,1,1,0,0,WHITESHELL SCHOOL DISTRICT,BOX 160 PINAWA R0E 1L0 MB,BOX 160,PINAWA,R0E 1L0,MB,Province of Manitoba,pinawa r0e 1l0 mb,,pinawa
805,PINAWA SECONDARY SCHOOL,7-12,0,0,0,1,1,WHITESHELL SCHOOL DISTRICT,BOX 580 PINAWA R0E 1L0 MB,BOX 580,PINAWA,R0E 1L0,MB,Province of Manitoba,pinawa r0e 1l0 mb,,pinawa
806,GRAY ACADEMY OF JEWISH EDUCATION,N-12,1,1,1,1,1,WINNIPEG BOARD OF JEWISH ED.,100 - 123 DONCASTER STREET WINNIPEG R3N 2B4 MB,100 - 123 DONCASTER STREET,WINNIPEG,R3N 2B4,MB,Province of Manitoba,100 123 doncaster street winnipeg r3n 2b4 mb,100 123,doncaster street
807,ANDREW MYNARSKI V.C. SCHOOL,7-9,0,0,0,1,0,WINNIPEG SCHOOL DIVISION,1111 MACHRAY AVENUE WINNIPEG R2X 1H6 MB,1111 MACHRAY AVENUE,WINNIPEG,R2X 1H6,MB,Province of Manitoba,1111 machray avenue winnipeg r2x 1h6 mb,1111,machray avenue
808,ARGYLE ALTERNATIVE HIGH SCHOOL,10-12,0,0,0,0,1,WINNIPEG SCHOOL DIVISION,30 ARGYLE STREET WINNIPEG R3B 0H4 MB,30 ARGYLE STREET,WINNIPEG,R3B 0H4,MB,Province of Manitoba,30 argyle street winnipeg r3b 0h4 mb,30,argyle street
809,BROCK-CORYDON SCHOOL,N-6,1,1,1,0,0,WINNIPEG SCHOOL DIVISION,1510 CORYDON AVENUE WINNIPEG R3N 0J6 MB,1510 CORYDON AVENUE,WINNIPEG,R3N 0J6,MB,Province of Manitoba,1510 corydon avenue winnipeg r3n 0j6 mb,1510,corydon avenue
810,CARPATHIA SCHOOL,N-6,1,1,1,0,0,WINNIPEG SCHOOL DIVISION,300 CARPATHIA ROAD WINNIPEG R3N 1T3 MB,300 CARPATHIA ROAD,WINNIPEG,R3N 1T3,MB,Province of Manitoba,300 carpathia road winnipeg r3n 1t3 mb,300,carpathia road
811,CECIL RHODES SCHOOL,N-9,1,1,1,1,0,WINNIPEG SCHOOL DIVISION,1570 ELGIN AVENUE WEST WINNIPEG R3E 1C2 MB,1570 ELGIN AVENUE WEST,WINNIPEG,R3E 1C2,MB,Province of Manitoba,1570 elgin avenue west winnipeg r3e 1c2 mb,1570,elgin avenue west
812,CHAMPLAIN SCHOOL,N-6,1,1,1,0,0,WINNIPEG SCHOOL DIVISION,275 CHURCH AVENUE WINNIPEG R2W 1B7 MB,275 CHURCH AVENUE,WINNIPEG,R2W 1B7,MB,Province of Manitoba,275 church avenue winnipeg r2w 1b7 mb,275,church avenue
813,CHILDREN OF THE EARTH HIGH SCHOOL,9-12,0,0,0,1,1,WINNIPEG SCHOOL DIVISION,100 SALTER STREET WINNIPEG R2W 4J6 MB,100 SALTER STREET,WINNIPEG,R2W 4J6,MB,Province of Manitoba,100 salter street winnipeg r2w 4j6 mb,100,salter street
814,CHURCHILL HIGH SCHOOL,7-12,0,0,0,1,1,WINNIPEG SCHOOL DIVISION,510 HAY STREET WINNIPEG R3L 2L6 MB,510 HAY STREET,WINNIPEG,R3L 2L6,MB,Province of Manitoba,510 hay street winnipeg r3l 2l6 mb,510,hay street
815,CLIFTON SCHOOL,N-6,1,1,1,0,0,WINNIPEG SCHOOL DIVISION,1070 CLIFTON STREET WINNIPEG R3E 2T7 MB,1070 CLIFTON STREET,WINNIPEG,R3E 2T7,MB,Province of Manitoba,1070 clifton street winnipeg r3e 2t7 mb,1070,clifton street
816,CLINICAL SUPPORT SERVICES,K-12,0,1,1,1,1,WINNIPEG SCHOOL DIVISION,1075 WELLINGTON AVENUE WINNIPEG R3E 0J7 MB,1075 WELLINGTON AVENUE,WINNIPEG,R3E 0J7,MB,Province of Manitoba,1075 wellington avenue winnipeg r3e 0j7 mb,1075,wellington avenue
817,COLLÈGE CHURCHILL,7-12,0,0,0,1,1,WINNIPEG SCHOOL DIVISION,510 RUE HAY WINNIPEG R3L 2L6 MB,510 RUE HAY,WINNIPEG,R3L 2L6,MB,Province of Manitoba,510 rue hay winnipeg r3l 2l6 mb,510,rue hay
818,DANIEL MCINTYRE COLLEGIATE INSTITUTE,9-12,0,0,0,1,1,WINNIPEG SCHOOL DIVISION,720 ALVERSTONE STREET WINNIPEG R3E 2H1 MB,720 ALVERSTONE STREET,WINNIPEG,R3E 2H1,MB,Province of Manitoba,720 alverstone street winnipeg r3e 2h1 mb,720,alverstone street
819,DAVID LIVINGSTONE SCHOOL,N-8,1,1,1,1,0,WINNIPEG SCHOOL DIVISION,270 FLORA AVENUE WINNIPEG R2W 2P9 MB,270 FLORA AVENUE,WINNIPEG,R2W 2P9,MB,Province of Manitoba,270 flora avenue winnipeg r2w 2p9 mb,270,flora avenue
820,DIAGNOSTIC LEARNING CENTRE,K-6,0,1,1,0,0,WINNIPEG SCHOOL DIVISION,C/O ASHLAND SCHOOL 170 ASHLAND AVE WINNIPEG R3L 1L1 MB,C/O ASHLAND SCHOOL,WINNIPEG,R3L 1L1,MB,Province of Manitoba,c/o ashland school 170 ashland ave winnipeg r3l 1l1 mb,170,ashland ave
821,DUFFERIN SCHOOL,N-6,1,1,1,0,0,WINNIPEG SCHOOL DIVISION,545 ALEXANDER AVENUE WINNIPEG R3A 0P1 MB,545 ALEXANDER AVENUE,WINNIPEG,R3A 0P1,MB,Province of Manitoba,545 alexander avenue winnipeg r3a 0p1 mb,545,alexander avenue
822,EARL GREY SCHOOL,N-8,1,1,1,1,0,WINNIPEG SCHOOL DIVISION,340 COCKBURN STREET NORTH WINNIPEG R3M 2P5 MB,340 COCKBURN STREET NORTH,WINNIPEG,R3M 2P5,MB,Province of Manitoba,340 cockburn street north winnipeg r3m 2p5 mb,340,cockburn street north
823,ÉCOLE LA VÉRENDRYE,N-6,1,1,1,0,0,WINNIPEG SCHOOL DIVISION,290 RUE LILAC WINNIPEG R3M 2T5 MB,290 RUE LILAC,WINNIPEG,R3M 2T5,MB,Province of Manitoba,290 rue lilac winnipeg r3m 2t5 mb,290,rue lilac
824,ÉCOLE LANSDOWNE,N-8,1,1,1,1,0,WINNIPEG SCHOOL DIVISION,715 RUE WIGINTON WINNIPEG R2X 2G2 MB,715 RUE WIGINTON,WINNIPEG,R2X 2G2,MB,Province of Manitoba,715 rue wiginton winnipeg r2x 2g2 mb,715,rue wiginton
825,ÉCOLE SACRÉ-COEUR,N-8,1,1,1,1,0,WINNIPEG SCHOOL DIVISION,809 RUE FURBY WINNIPEG R3A 1T2 MB,809 RUE FURBY,WINNIPEG,R3A 1T2,MB,Province of Manitoba,809 rue furby winnipeg r3a 1t2 mb,809,rue furby
826,ÉCOLE SEC. KELVIN HIGH SCHOOL,9-12,0,0,0,1,1,WINNIPEG SCHOOL DIVISION,155 KINGSWAY AVENUE WINNIPEG R3M 0G3 MB,155 KINGSWAY AVENUE,WINNIPEG,R3M 0G3,MB,Province of Manitoba,155 kingsway avenue winnipeg r3m 0g3 mb,155,kingsway avenue
827,ÉCOLE SIR WILLIAM OSLER,N-4,1,1,1,0,0,WINNIPEG SCHOOL DIVISION,1600 GRANT AVENUE WINNIPEG R3N 0M5 MB,1600 GRANT AVENUE,WINNIPEG,R3N 0M5,MB,Province of Manitoba,1600 grant avenue winnipeg r3n 0m5 mb,1600,grant avenue
828,ELMWOOD HIGH,7-12,0,0,0,1,1,WINNIPEG SCHOOL DIVISION,505 CHALMERS AVENUE WINNIPEG R2L 0G4 MB,505 CHALMERS AVENUE,WINNIPEG,R2L 0G4,MB,Province of Manitoba,505 chalmers avenue winnipeg r2l 0g4 mb,505,chalmers avenue
829,FARADAY SCHOOL,N-6,1,1,1,0,0,WINNIPEG SCHOOL DIVISION,405 PARR STREET WINNIPEG R2W 5G1 MB,405 PARR STREET,WINNIPEG,R2W 5G1,MB,Province of Manitoba,405 parr street winnipeg r2w 5g1 mb,405,parr street
830,FORT ROUGE SCHOOL,N-6,1,1,1,0,0,WINNIPEG SCHOOL DIVISION,115 RIVER AVENUE WINNIPEG R3L 0A8 MB,115 RIVER AVENUE,WINNIPEG,R3L 0A8,MB,Province of Manitoba,115 river avenue winnipeg r3l 0a8 mb,115,river avenue
831,GARDEN GROVE SCHOOL,N-6,1,1,1,0,0,WINNIPEG SCHOOL DIVISION,2340 BURROWS AVENUE WINNIPEG R2R 1W1 MB,2340 BURROWS AVENUE,WINNIPEG,R2R 1W1,MB,Province of Manitoba,2340 burrows avenue winnipeg r2r 1w1 mb,2340,burrows avenue
832,GENERAL WOLFE SCHOOL,7-9,0,0,0,1,0,WINNIPEG SCHOOL DIVISION,661 BANNING STREET WINNIPEG R3G 2G3 MB,661 BANNING STREET,WINNIPEG,R3G 2G3,MB,Province of Manitoba,661 banning street winnipeg r3g 2g3 mb,661,banning street
833,GEORGE V SCHOOL,N-8,1,1,1,1,0,WINNIPEG SCHOOL DIVISION,265 GREY STREET WINNIPEG R2L 1V6 MB,265 GREY STREET,WINNIPEG,R2L 1V6,MB,Province of Manitoba,265 grey street winnipeg r2l 1v6 mb,265,grey street
834,GLADSTONE SCHOOL,N-6,1,1,1,0,0,WINNIPEG SCHOOL DIVISION,500 GERTRUDE AVENUE WINNIPEG R3L 0M8 MB,500 GERTRUDE AVENUE,WINNIPEG,R3L 0M8,MB,Province of Manitoba,500 gertrude avenue winnipeg r3l 0m8 mb,500,gertrude avenue
835,GLENELM SCHOOL,N-6,1,1,1,0,0,WINNIPEG SCHOOL DIVISION,96 CARMEN AVENUE WINNIPEG R2L 0E6 MB,96 CARMEN AVENUE,WINNIPEG,R2L 0E6,MB,Province of Manitoba,96 carmen avenue winnipeg r2l 0e6 mb,96,carmen avenue
836,GORDON BELL HIGH SCHOOL,7-12,0,0,0,1,1,WINNIPEG SCHOOL DIVISION,3 BORROWMAN PLACE WINNIPEG R3G 1M6 MB,3 BORROWMAN PLACE,WINNIPEG,R3G 1M6,MB,Province of Manitoba,3 borrowman place winnipeg r3g 1m6 mb,3,borrowman place
837,GRANT PARK HIGH SCHOOL,7-12,0,0,0,1,1,WINNIPEG SCHOOL DIVISION,450 NATHANIEL STREET WINNIPEG R3M 3E3 MB,450 NATHANIEL STREET,WINNIPEG,R3M 3E3,MB,Province of Manitoba,450 nathaniel street winnipeg r3m 3e3 mb,450,nathaniel street
838,GREENWAY SCHOOL,N-6,1,1,1,0,0,WINNIPEG SCHOOL DIVISION,390 BURNELL STREET WINNIPEG R3G 2A8 MB,390 BURNELL STREET,WINNIPEG,R3G 2A8,MB,Province of Manitoba,390 burnell street winnipeg r3g 2a8 mb,390,burnell street
839,GROSVENOR SCHOOL,N-6,1,1,1,0,0,WINNIPEG SCHOOL DIVISION,1045 GROSVENOR AVENUE WINNIPEG R3M 0M8 MB,1045 GROSVENOR AVENUE,WINNIPEG,R3M 0M8,MB,Province of Manitoba,1045 grosvenor avenue winnipeg r3m 0m8 mb,1045,grosvenor avenue
840,HARROW SCHOOL,N-6,1,1,1,0,0,WINNIPEG SCHOOL DIVISION,550 HARROW STREET WINNIPEG R3M 3A2 MB,550 HARROW STREET,WINNIPEG,R3M 3A2,MB,Province of Manitoba,550 harrow street winnipeg r3m 3a2 mb,550,harrow street
841,HUGH JOHN MACDONALD SCHOOL,7-9,0,0,0,1,0,WINNIPEG SCHOOL DIVISION,567 BANNATYNE AVENUE WINNIPEG R3A 0G8 MB,567 BANNATYNE AVENUE,WINNIPEG,R3A 0G8,MB,Province of Manitoba,567 bannatyne avenue winnipeg r3a 0g8 mb,567,bannatyne avenue
842,INKSTER SCHOOL,N-6,1,1,1,0,0,WINNIPEG SCHOOL DIVISION,633 INKSTER BOULEVARD WINNIPEG R2W 0L3 MB,633 INKSTER BOULEVARD,WINNIPEG,R2W 0L3,MB,Province of Manitoba,633 inkster boulevard winnipeg r2w 0l3 mb,633,inkster boulevard
843,INTERDIVISIONAL STUDENT SERVICES,1-12,0,0,1,1,1,WINNIPEG SCHOOL DIVISION,1075 WELLINGTON AVENUE WINNIPEG R3E 0J7 MB,1075 WELLINGTON AVENUE,WINNIPEG,R3E 0J7,MB,Province of Manitoba,1075 wellington avenue winnipeg r3e 0j7 mb,1075,wellington avenue
844,ISAAC BROCK SCHOOL,N-9,1,1,1,1,0,WINNIPEG SCHOOL DIVISION,1265 BARRATT AVENUE WINNIPEG R3G 0L9 MB,1265 BARRATT AVENUE,WINNIPEG,R3G 0L9,MB,Province of Manitoba,1265 barratt avenue winnipeg r3g 0l9 mb,1265,barratt avenue
845,ISAAC NEWTON SCHOOL,7-9,0,0,0,1,0,WINNIPEG SCHOOL DIVISION,730 ABERDEEN AVENUE WINNIPEG R2W 1W9 MB,730 ABERDEEN AVENUE,WINNIPEG,R2W 1W9,MB,Province of Manitoba,730 aberdeen avenue winnipeg r2w 1w9 mb,730,aberdeen avenue
846,J. B. MITCHELL SCHOOL,N-6,1,1,1,0,0,WINNIPEG SCHOOL DIVISION,1720 JOHN BREBEUF PLACE WINNIPEG R3N 0M1 MB,1720 JOHN BREBEUF PLACE,WINNIPEG,R3N 0M1,MB,Province of Manitoba,1720 john brebeuf place winnipeg r3n 0m1 mb,1720,john brebeuf place
847,JOHN M. KING SCHOOL,N-6,1,1,1,0,0,WINNIPEG SCHOOL DIVISION,525 AGNES STREET WINNIPEG R3G 1N7 MB,525 AGNES STREET,WINNIPEG,R3G 1N7,MB,Province of Manitoba,525 agnes street winnipeg r3g 1n7 mb,525,agnes street
848,KENT ROAD SCHOOL,N-6,1,1,1,0,0,WINNIPEG SCHOOL DIVISION,361 KENT ROAD WINNIPEG R2L 1X9 MB,361 KENT ROAD,WINNIPEG,R2L 1X9,MB,Province of Manitoba,361 kent road winnipeg r2l 1x9 mb,361,kent road
849,KING EDWARD COMMUNITY SCHOOL,N-6,1,1,1,0,0,WINNIPEG SCHOOL DIVISION,825 SELKIRK AVENUE WINNIPEG R2X 2Y6 MB,825 SELKIRK AVENUE,WINNIPEG,R2X 2Y6,MB,Province of Manitoba,825 selkirk avenue winnipeg r2x 2y6 mb,825,selkirk avenue
850,LAURA SECORD SCHOOL,N-6,1,1,1,0,0,WINNIPEG SCHOOL DIVISION,960 WOLSELEY AVENUE WINNIPEG R3G 1E7 MB,960 WOLSELEY AVENUE,WINNIPEG,R3G 1E7,MB,Province of Manitoba,960 wolseley avenue winnipeg r3g 1e7 mb,960,wolseley avenue
851,LORD NELSON SCHOOL,N-6,1,1,1,0,0,WINNIPEG SCHOOL DIVISION,820 MCPHILLIPS STREET WINNIPEG R2X 2J7 MB,820 MCPHILLIPS STREET,WINNIPEG,R2X 2J7,MB,Province of Manitoba,820 mcphillips street winnipeg r2x 2j7 mb,820,mcphillips street
852,LORD ROBERTS COMMUNITY SCHOOL,N-6,1,1,1,0,0,WINNIPEG SCHOOL DIVISION,665 BERESFORD AVENUE WINNIPEG R3L 1J9 MB,665 BERESFORD AVENUE,WINNIPEG,R3L 1J9,MB,Province of Manitoba,665 beresford avenue winnipeg r3l 1j9 mb,665,beresford avenue
853,LORD SELKIRK SCHOOL,N-6,1,1,1,0,0,WINNIPEG SCHOOL DIVISION,170 POPLAR AVENUE WINNIPEG R2L 2B6 MB,170 POPLAR AVENUE,WINNIPEG,R2L 2B6,MB,Province of Manitoba,170 poplar avenue winnipeg r2l 2b6 mb,170,poplar avenue
854,LUXTON SCHOOL,N-6,1,1,1,0,0,WINNIPEG SCHOOL DIVISION,111 POLSON AVENUE WINNIPEG R2W 0M5 MB,111 POLSON AVENUE,WINNIPEG,R2W 0M5,MB,Province of Manitoba,111 polson avenue winnipeg r2w 0m5 mb,111,polson avenue
855,MACHRAY SCHOOL,N-6,1,1,1,0,0,WINNIPEG SCHOOL DIVISION,320 MOUNTAIN AVENUE WINNIPEG R2W 1K1 MB,320 MOUNTAIN AVENUE,WINNIPEG,R2W 1K1,MB,Province of Manitoba,320 mountain avenue winnipeg r2w 1k1 mb,320,mountain avenue
856,MEADOWS WEST SCHOOL,N-8,1,1,1,1,0,WINNIPEG SCHOOL DIVISION,150 INKSTER GARDEN DRIVE WINNIPEG R2R 2R8 MB,150 INKSTER GARDEN DRIVE,WINNIPEG,R2R 2R8,MB,Province of Manitoba,150 inkster garden drive winnipeg r2r 2r8 mb,150,inkster garden drive
857,MONTCALM SCHOOL,7-12,0,0,0,1,1,WINNIPEG SCHOOL DIVISION,(MAN. ADOL. TREATMENT CENTRE) 120 TECUMSEH STREET WINNIPEG R3E 2A9 MB,(MAN. ADOL. TREATMENT CENTRE),WINNIPEG,R3E 2A9,MB,Province of Manitoba,120 tecumseh street winnipeg r3e 2a9 mb,120,tecumseh street
858,MONTROSE SCHOOL,N-6,1,1,1,0,0,WINNIPEG SCHOOL DIVISION,691 MONTROSE STREET WINNIPEG R3M 3M4 MB,691 MONTROSE STREET,WINNIPEG,R3M 3M4,MB,Province of Manitoba,691 montrose street winnipeg r3m 3m4 mb,691,montrose street
859,MULVEY SCHOOL,N-6,1,1,1,0,0,WINNIPEG SCHOOL DIVISION,750 WOLSELEY AVENUE WINNIPEG R3G 1C6 MB,750 WOLSELEY AVENUE,WINNIPEG,R3G 1C6,MB,Province of Manitoba,750 wolseley avenue winnipeg r3g 1c6 mb,750,wolseley avenue
860,NIJI MAHKWA SCHOOL,N-12,1,1,1,1,1,WINNIPEG SCHOOL DIVISION,450 FLORA AVENUE WINNIPEG R2W 2R8 MB,450 FLORA AVENUE,WINNIPEG,R2W 2R8,MB,Province of Manitoba,450 flora avenue winnipeg r2w 2r8 mb,450,flora avenue
861,NORQUAY SCHOOL,N-6,1,1,1,0,0,WINNIPEG SCHOOL DIVISION,132 LUSTED AVENUE WINNIPEG R2W 2P2 MB,132 LUSTED AVENUE,WINNIPEG,R2W 2P2,MB,Province of Manitoba,132 lusted avenue winnipeg r2w 2p2 mb,132,lusted avenue
862,PINKHAM SCHOOL,N-6,1,1,1,0,0,WINNIPEG SCHOOL DIVISION,765 PACIFIC AVENUE WINNIPEG R3E 1G1 MB,765 PACIFIC AVENUE,WINNIPEG,R3E 1G1,MB,Province of Manitoba,765 pacific avenue winnipeg r3e 1g1 mb,765,pacific avenue
863,PRAIRIE ROSE ELEMENTARY SCHOOL,N-6,1,1,1,0,0,WINNIPEG SCHOOL DIVISION,105 LUCAS AVENUE WINNIPEG R2R 2S8 MB,105 LUCAS AVENUE,WINNIPEG,R2R 2S8,MB,Province of Manitoba,105 lucas avenue winnipeg r2r 2s8 mb,105,lucas avenue
864,PRINCE CHARLES EDU. RESOURCE CENTRE,K-12,0,1,1,1,1,WINNIPEG SCHOOL DIVISION,1075 WELLINGTON AVENUE WINNIPEG R3E 0J7 MB,1075 WELLINGTON AVENUE,WINNIPEG,R3E 0J7,MB,Province of Manitoba,1075 wellington avenue winnipeg r3e 0j7 mb,1075,wellington avenue
865,PRINCIPAL SPARLING SCHOOL,N-6,1,1,1,0,0,WINNIPEG SCHOOL DIVISION,1150 SHERBURN STREET WINNIPEG R3E 2N4 MB,1150 SHERBURN STREET,WINNIPEG,R3E 2N4,MB,Province of Manitoba,1150 sherburn street winnipeg r3e 2n4 mb,1150,sherburn street
866,QUEENSTON SCHOOL,N-6,1,1,1,0,0,WINNIPEG SCHOOL DIVISION,245 QUEENSTON STREET WINNIPEG R3N 0W6 MB,245 QUEENSTON STREET,WINNIPEG,R3N 0W6,MB,Province of Manitoba,245 queenston street winnipeg r3n 0w6 mb,245,queenston street
867,R.B. RUSSELL VOCATIONAL SCHOOL,9-12,0,0,0,1,1,WINNIPEG SCHOOL DIVISION,364 DUFFERIN AVENUE WINNIPEG R2W 2Y3 MB,364 DUFFERIN AVENUE,WINNIPEG,R2W 2Y3,MB,Province of Manitoba,364 dufferin avenue winnipeg r2w 2y3 mb,364,dufferin avenue
868,RALPH BROWN SCHOOL,N-8,1,1,1,1,0,WINNIPEG SCHOOL DIVISION,460 ANDREWS STREET WINNIPEG R2W 4Y1 MB,460 ANDREWS STREET,WINNIPEG,R2W 4Y1,MB,Province of Manitoba,460 andrews street winnipeg r2w 4y1 mb,460,andrews street
869,RIVER ELM SCHOOL,N-6,1,1,1,0,0,WINNIPEG SCHOOL DIVISION,500 RIVERTON AVENUE WINNIPEG R2L 0N9 MB,500 RIVERTON AVENUE,WINNIPEG,R2L 0N9,MB,Province of Manitoba,500 riverton avenue winnipeg r2l 0n9 mb,500,riverton avenue
870,RIVER HEIGHTS SCHOOL,7-8,0,0,0,1,0,WINNIPEG SCHOOL DIVISION,1350 GROSVENOR AVENUE WINNIPEG R3M 0P2 MB,1350 GROSVENOR AVENUE,WINNIPEG,R3M 0P2,MB,Province of Manitoba,1350 grosvenor avenue winnipeg r3m 0p2 mb,1350,grosvenor avenue
871,RIVERVIEW SCHOOL,N-6,1,1,1,0,0,WINNIPEG SCHOOL DIVISION,253 MAPLEWOOD AVENUE WINNIPEG R3L 2L4 MB,253 MAPLEWOOD AVENUE,WINNIPEG,R3L 2L4,MB,Province of Manitoba,253 maplewood avenue winnipeg r3l 2l4 mb,253,maplewood avenue
872,ROBERT H. SMITH SCHOOL,N-6,1,1,1,0,0,WINNIPEG SCHOOL DIVISION,315 OAK STREET WINNIPEG R3M 3P8 MB,315 OAK STREET,WINNIPEG,R3M 3P8,MB,Province of Manitoba,315 oak street winnipeg r3m 3p8 mb,315,oak street
873,ROBERTSON SCHOOL,N-6,1,1,1,0,0,WINNIPEG SCHOOL DIVISION,550 ROBERTSON STREET WINNIPEG R2X 2C4 MB,550 ROBERTSON STREET,WINNIPEG,R2X 2C4,MB,Province of Manitoba,550 robertson street winnipeg r2x 2c4 mb,550,robertson street
874,ROCKWOOD SCHOOL,N-6,1,1,1,0,0,WINNIPEG SCHOOL DIVISION,350 ROCKWOOD STREET WINNIPEG R3M 3C5 MB,350 ROCKWOOD STREET,WINNIPEG,R3M 3C5,MB,Province of Manitoba,350 rockwood street winnipeg r3m 3c5 mb,350,rockwood street
875,SARGENT PARK SCHOOL,N-9,1,1,1,1,0,WINNIPEG SCHOOL DIVISION,1070 DOMINION STREET WINNIPEG R3E 2P4 MB,1070 DOMINION STREET,WINNIPEG,R3E 2P4,MB,Province of Manitoba,1070 dominion street winnipeg r3e 2p4 mb,1070,dominion street
876,SHAUGHNESSY PARK SCHOOL,N-8,1,1,1,1,0,WINNIPEG SCHOOL DIVISION,1641 MANITOBA AVENUE WINNIPEG R2X 0M3 MB,1641 MANITOBA AVENUE,WINNIPEG,R2X 0M3,MB,Province of Manitoba,1641 manitoba avenue winnipeg r2x 0m3 mb,1641,manitoba avenue
877,SISLER HIGH SCHOOL,9-12,0,0,0,1,1,WINNIPEG SCHOOL DIVISION,1360 REDWOOD AVENUE WINNIPEG R2X 0Z1 MB,1360 REDWOOD AVENUE,WINNIPEG,R2X 0Z1,MB,Province of Manitoba,1360 redwood avenue winnipeg r2x 0z1 mb,1360,redwood avenue
878,SISTER MACNAMARA SCHOOL,N-6,1,1,1,0,0,WINNIPEG SCHOOL DIVISION,460 SARGENT AVENUE WINNIPEG R3B 1V5 MB,460 SARGENT AVENUE,WINNIPEG,R3B 1V5,MB,Province of Manitoba,460 sargent avenue winnipeg r3b 1v5 mb,460,sargent avenue
879,ST. JOHN'S HIGH SCHOOL,7-12,0,0,0,1,1,WINNIPEG SCHOOL DIVISION,401 CHURCH AVENUE WINNIPEG R2W 1C4 MB,401 CHURCH AVENUE,WINNIPEG,R2W 1C4,MB,Province of Manitoba,401 church avenue winnipeg r2w 1c4 mb,401,church avenue
880,STANLEY KNOWLES SCHOOL,N-8,1,1,1,1,0,WINNIPEG SCHOOL DIVISION,2424 KING EDWARD STREET WINNIPEG R2R 2R2 MB,2424 KING EDWARD STREET,WINNIPEG,R2R 2R2,MB,Province of Manitoba,2424 king edward street winnipeg r2r 2r2 mb,2424,king edward street
881,STRATHCONA SCHOOL,N-6,1,1,1,0,0,WINNIPEG SCHOOL DIVISION,233 MCKENZIE STREET WINNIPEG R2W 4Z2 MB,233 MCKENZIE STREET,WINNIPEG,R2W 4Z2,MB,Province of Manitoba,233 mckenzie street winnipeg r2w 4z2 mb,233,mckenzie street
882,TECH-VOCATIONAL HIGH SCHOOL,9-12,0,0,0,1,1,WINNIPEG SCHOOL DIVISION,1555 WALL STREET WINNIPEG R3E 2S2 MB,1555 WALL STREET,WINNIPEG,R3E 2S2,MB,Province of Manitoba,1555 wall street winnipeg r3e 2s2 mb,1555,wall street
883,TYNDALL PARK COMMUNITY SCHOOL,N-6,1,1,1,0,0,WINNIPEG SCHOOL DIVISION,2221 KING EDWARD STREET WINNIPEG R2R 1M5 MB,2221 KING EDWARD STREET,WINNIPEG,R2R 1M5,MB,Province of Manitoba,2221 king edward street winnipeg r2r 1m5 mb,2221,king edward street
884,VICTORIA-ALBERT SCHOOL,N-6,1,1,1,0,0,WINNIPEG SCHOOL DIVISION,110 ELLEN STREET WINNIPEG R3A 1A1 MB,110 ELLEN STREET,WINNIPEG,R3A 1A1,MB,Province of Manitoba,110 ellen street winnipeg r3a 1a1 mb,110,ellen street
885,WELLINGTON SCHOOL,N-6,1,1,1,0,0,WINNIPEG SCHOOL DIVISION,690 BEVERLEY STREET WINNIPEG R3E 2A5 MB,690 BEVERLEY STREET,WINNIPEG,R3E 2A5,MB,Province of Manitoba,690 beverley street winnipeg r3e 2a5 mb,690,beverley street
886,WESTON SCHOOL,N-6,1,1,1,0,0,WINNIPEG SCHOOL DIVISION,1410 LOGAN AVENUE WINNIPEG R3E 1R9 MB,1410 LOGAN AVENUE,WINNIPEG,R3E 1R9,MB,Province of Manitoba,1410 logan avenue winnipeg r3e 1r9 mb,1410,logan avenue
887,WILLIAM WHYTE SCHOOL,N-8,1,1,1,1,0,WINNIPEG SCHOOL DIVISION,200 POWERS STREET WINNIPEG R2W 4P3 MB,200 POWERS STREET,WINNIPEG,R2W 4P3,MB,Province of Manitoba,200 powers street winnipeg r2w 4p3 mb,200,powers street
888,WINNIPEG ADULT EDUCATION CENTRE,10-12,0,0,0,0,1,WINNIPEG SCHOOL DIVISION,310 VAUGHAN STREET WINNIPEG R3B 2N8 MB,310 VAUGHAN STREET,WINNIPEG,R3B 2N8,MB,Province of Manitoba,310 vaughan street winnipeg r3b 2n8 mb,310,vaughan street
889,WOLSELEY SCHOOL,N-6,1,1,1,0,0,WINNIPEG SCHOOL DIVISION,511 CLIFTON STREET WINNIPEG R3G 2X3 MB,511 CLIFTON STREET,WINNIPEG,R3G 2X3,MB,Province of Manitoba,511 clifton street winnipeg r3g 2x3 mb,511,clifton street
