idx,facility_name,source_id,ISCED020,ISCED1,ISCED2,ISCED3,authority_type,grade_range,address_str,city,province,postal_code,latitude,longitude,provider,address_str_clean,street_no,street_name
0,École Mont Carmel,1228.0,1.0,1.0,1.0,0.0,Public,"Maternelle, 1-8","1545, Route 525 Sainte-Marie-de-Kent E4S 2H2 NB",Sainte-Marie-de-Kent,NB,E4S 2H2,46.41469453495976,-64.82560578300239,Province of New Brunswick,1545 route 525 sainte marie de kent e4s 2h2 nb,1545,route 525
1,Harcourt School,4010.0,1.0,1.0,0.0,0.0,Public,"Kindergarten, 1-5",155 West Side Harcourt Rd. Harcourt E4T 2Y3 NB,Harcourt,NB,E4T 2Y3,46.47267762887244,-65.24954791807662,Province of New Brunswick,155 west side harcourt rd harcourt e4t 2y3 nb,155,west side harcourt rd
2,École Clément-Cormier,1226.0,,0.0,1.0,1.0,Public,9-12,"37, avenue Richard Bouctouche E4S 3T5 NB",Bouctouche,NB,E4S 3T5,46.475551609887546,-64.72410658939373,Province of New Brunswick,37 avenue richard bouctouche e4s 3t5 nb,37,avenue richard
3,École Dr-Marguerite-Michaud,1202.0,1.0,1.0,1.0,0.0,Public,"Maternelle, 1-8","42, avenue Richard Bouctouche E4S 3N1 NB",Bouctouche,NB,E4S 3N1,46.47376375117349,-64.72257481833978,Province of New Brunswick,42 avenue richard bouctouche e4s 3n1 nb,42,avenue richard
4,École Blanche-Bourgeois,1206.0,1.0,1.0,1.0,0.0,Public,"Maternelle, 1-8","29, chemin Cocagne Cross Cocagne E4R 2J1 NB",Cocagne,NB,E4R 2J1,46.34761686064437,-64.61581399365811,Province of New Brunswick,29 chemin cocagne cross cocagne e4r 2j1 nb,29,chemin cocagne cross cocagne
5,École Camille-Vautour,1227.0,1.0,1.0,1.0,0.0,Public,"Maternelle, 1-8","7, avenue Clément Saint-Antoine E4V 1E2 NB",Saint-Antoine,NB,E4V 1E2,46.35959504914758,-64.75362401081814,Province of New Brunswick,7 avenue clément saint antoine e4v 1e2 nb,7,avenue clément
6,École Notre-Dame,1213.0,1.0,1.0,1.0,0.0,Public,"Maternelle, 1-8","3860, Route 115 Notre-Dame E4V 2J2 NB",Notre-Dame,NB,E4V 2J2,46.30704659495783,-64.73485047297989,Province of New Brunswick,3860 route 115 notre dame e4v 2j2 nb,3860,route 115 notre dame
7,Polyvalente Louis-J.-Robichaud,1331.0,,0.0,1.0,1.0,Public,9-12,"435, rue Main Shediac E4P 0S6 NB",Shediac,NB,E4P 0S6,46.21863169265833,-64.53157539399479,Province of New Brunswick,435 rue main shediac e4p 0s6 nb,435,rue main
8,École Mgr-François-Bourgeois,1315.0,1.0,1.0,1.0,0.0,Public,"Maternelle, 1-8","294, avenue Belliveau Shediac E4P 1H6 NB",Shediac,NB,E4P 1H6,46.22255028119081,-64.53770118191564,Province of New Brunswick,294 avenue belliveau shediac e4p 1h6 nb,294,avenue belliveau
9,École Père-Edgar-T.-LeBlanc,1317.0,1.0,1.0,1.0,0.0,Public,"Maternelle, 1-8","1351, Route 133 Grand-Barachois E4P 8C8 NB",Grand-Barachois,NB,E4P 8C8,46.22391606987121,-64.42154211837928,Province of New Brunswick,1351 route 133 grand barachois e4p 8c8 nb,1351,route 133
10,École Donat-Robichaud,1356.0,1.0,1.0,1.0,0.0,Public,"Maternelle, 1-8","2632, chemin Acadie Cap-Pelé E4N 1E3 NB",Cap-Pelé,NB,E4N 1E3,46.217735231060686,-64.27354422903296,Province of New Brunswick,2632 chemin acadie cap pelé e4n 1e3 nb,2632,chemin acadie
11,Tantramar Regional High School,1411.0,,0.0,1.0,1.0,Public,9-12,223 Main Street Sackville E4L 3A7 NB,Sackville,NB,E4L 3A7,45.91008019578281,-64.36943260790596,Province of New Brunswick,223 main street sackville e4l 3a7 nb,223,main street
12,Marshview Middle School,1402.0,,1.0,1.0,0.0,Public,5-8,19 Queen's Road Sackville E4L 4G4 NB,Sackville,NB,E4L 4G4,45.891822200079936,-64.36988197221605,Province of New Brunswick,19 queen's road sackville e4l 4g4 nb,19,queen's road
13,Salem Elementary School,1417.0,1.0,1.0,0.0,0.0,Public,"Kindergarten, 1-4",70 Queen's Road Sackville E4L 4G9 NB,Sackville,NB,E4L 4G9,45.888997087613056,-64.3758457273735,Province of New Brunswick,70 queen's road sackville e4l 4g9 nb,70,queen's road
14,Dorchester Consolidated School,1401.0,1.0,1.0,1.0,0.0,Public,"Kindergarten, 1-8",18 Harrop Avenue Dorchester E4K 2X9 NB,Dorchester,NB,E4K 2X9,45.895318499863386,-64.51616808471053,Province of New Brunswick,18 harrop avenue dorchester e4k 2x9 nb,18,harrop avenue
15,Port Elgin Regional School,1416.0,1.0,1.0,1.0,0.0,Public,"Kindergarten, 1-8",33 Moore Road Port Elgin E4M 2E6 NB,Port Elgin,NB,E4M 2E6,46.04881224189057,-64.094881317241,Province of New Brunswick,33 moore road port elgin e4m 2e6 nb,33,moore road
16,École Abbey-Landry,1340.0,1.0,1.0,1.0,0.0,Public,"Maternelle, 1-8","432, rue Centrale Memramcook E4K 3S5 NB",Memramcook,NB,E4K 3S5,45.98085631823603,-64.56767943005048,Province of New Brunswick,432 rue centrale memramcook e4k 3s5 nb,432,rue centrale
17,Arnold H. McLeod School,1572.0,1.0,1.0,0.0,0.0,Public,"Kindergarten, 1-5",280 Storey Road East Moncton E1A 5Z3 NB,Moncton,NB,E1A 5Z3,46.10991901561904,-64.75444017042408,Province of New Brunswick,280 storey road east moncton e1a 5z3 nb,280,storey road east
18,Lewisville Middle School,1571.0,,1.0,1.0,0.0,Public,6-8,45 McAuley Drive Moncton E1A 5R8 NB,Moncton,NB,E1A 5R8,46.10708117855407,-64.7413812008663,Province of New Brunswick,45 mcauley drive moncton e1a 5r8 nb,45,mcauley drive
19,Mountain View School,1541.0,1.0,1.0,0.0,0.0,Public,"Kindergarten, 1-5",2586 Route 115 Irishtown E1H 2M4 NB,Irishtown,NB,E1H 2M4,46.20959853601594,-64.80408583386655,Province of New Brunswick,2586 route 115 irishtown e1h 2m4 nb,2586,route 115
20,Moncton High School,1539.0,,0.0,1.0,1.0,Public,9-12,140 Longfellow Drive Moncton E1H 0G4 NB,Moncton,NB,E1H 0G4,46.164367866401854,-64.79104984305297,Province of New Brunswick,140 longfellow drive moncton e1h 0g4 nb,140,longfellow drive
21,Sunny Brae Middle School,1559.0,,1.0,1.0,0.0,Public,5-8,170 Curry Street Moncton E1A 3W1 NB,Moncton,NB,E1A 3W1,46.107297118277295,-64.77748076771071,Province of New Brunswick,170 curry street moncton e1a 3w1 nb,170,curry street
22,Forest Glen School,1514.0,1.0,1.0,0.0,0.0,Public,"Kindergarten, 1-4",43 Keenan Drive Moncton E1A 3P8 NB,Moncton,NB,E1A 3P8,46.1216235684354,-64.77337878130321,Province of New Brunswick,43 keenan drive moncton e1a 3p8 nb,43,keenan drive
23,École L'Odyssée,1360.0,,0.0,1.0,1.0,Public,9-12,"60, promenade Léopold F. Belliveau Moncton E1A 8V4 NB",Moncton,NB,E1A 8V4,46.118981607492934,-64.79111841411007,Province of New Brunswick,60 promenade léopold f belliveau moncton e1a 8v4 nb,60,promenade léopold f belliveau
24,École Le Mascaret,1359.0,,1.0,1.0,0.0,Public,6-8,"50, promenade Léopold F. Belliveau Moncton E1A 8V3 NB",Moncton,NB,E1A 8V3,46.11940580956607,-64.79134318628124,Province of New Brunswick,50 promenade léopold f belliveau moncton e1a 8v3 nb,50,promenade léopold f belliveau
25,École Saint-Henri,1350.0,1.0,1.0,0.0,0.0,Public,"Maternelle, 1-5","101, avenue Gross Moncton E1C 7H3 NB",Moncton,NB,E1C 7H3,46.104728978163,-64.81003495561478,Province of New Brunswick,101 avenue gross moncton e1c 7h3 nb,101,avenue gross
26,Queen Elizabeth School,1547.0,1.0,1.0,1.0,0.0,Public,"Kindergarten, 1-8",31 Lynch Street Moncton E1C 3L5 NB,Moncton,NB,E1C 3L5,46.10105687116394,-64.80361288275923,Province of New Brunswick,31 lynch street moncton e1c 3l5 nb,31,lynch street
27,École Sainte-Bernadette,1349.0,1.0,1.0,0.0,0.0,Public,"Maternelle, 1-5","46, rue Upton Moncton E1E 3Z1 NB",Moncton,NB,E1E 3Z1,46.07845818591827,-64.80042564178996,Province of New Brunswick,46 rue upton moncton e1e 3z1 nb,46,rue upton
28,Harrison Trimble High School,1517.0,,0.0,1.0,1.0,Public,9-12,80 Echo Drive Moncton E1C 3H8 NB,Moncton,NB,E1C 3H8,46.09899292814722,-64.810474179462,Province of New Brunswick,80 echo drive moncton e1c 3h8 nb,80,echo drive
29,Edith Cavell School,1573.0,1.0,1.0,1.0,0.0,Public,"Kindergarten, 1-8",125 Park Street Moncton E1C 2B4 NB,Moncton,NB,E1C 2B4,46.09186978869407,-64.7875493610487,Province of New Brunswick,125 park street moncton e1c 2b4 nb,125,park street
30,Bernice MacNaughton High School,1569.0,,0.0,1.0,1.0,Public,9-12,999 St. George Blvd. Moncton E1E 2C9 NB,Moncton,NB,E1E 2C9,46.086572146746036,-64.82865484269111,Province of New Brunswick,999 st george blvd moncton e1e 2c9 nb,999,st george blvd
31,Bessborough School,1504.0,1.0,1.0,1.0,0.0,Public,"Kindergarten, 1-8",93 Bessborough Avenue Moncton E1E 1P6 NB,Moncton,NB,E1E 1P6,46.07997708748428,-64.80909283865445,Province of New Brunswick,93 bessborough avenue moncton e1e 1p6 nb,93,bessborough avenue
32,Hillcrest School,1519.0,1.0,1.0,1.0,0.0,Public,"Kindergarten, 1-8",60 Parlee Drive Moncton E1E 3B3 NB,Moncton,NB,E1E 3B3,46.0856665778747,-64.80531527990055,Province of New Brunswick,60 parlee drive moncton e1e 3b3 nb,60,parlee drive
33,Evergreen Park School,1576.0,1.0,1.0,0.0,0.0,Public,"Kindergarten, 1-5",333 Evergreen Drive Moncton E1G 2J2 NB,Moncton,NB,E1G 2J2,46.11316145394313,-64.86097425291061,Province of New Brunswick,333 evergreen drive moncton e1g 2j2 nb,333,evergreen drive
34,Riverview High School,1570.0,,0.0,1.0,1.0,Public,9-12,400 Whitepine Road Riverview E1B 4H8 NB,Riverview,NB,E1B 4H8,46.05669024150285,-64.80136957691843,Province of New Brunswick,400 whitepine road riverview e1b 4h8 nb,400,whitepine road
35,West Riverview School,1551.0,1.0,1.0,0.0,0.0,Public,"Kindergarten, 1-5",684 Coverdale Road Riverview E1B 3K6 NB,Riverview,NB,E1B 3K6,46.06196904633904,-64.81124320287182,Province of New Brunswick,684 coverdale road riverview e1b 3k6 nb,684,coverdale road
36,Claude D. Taylor School,1567.0,1.0,1.0,0.0,0.0,Public,"Kindergarten, 1-5",200 Whitepine Road Riverview E1B 3L7 NB,Riverview,NB,E1B 3L7,46.049947280809405,-64.81724177292966,Province of New Brunswick,200 whitepine road riverview e1b 3l7 nb,200,whitepine road
37,Riverview Middle School,1549.0,,1.0,1.0,0.0,Public,6-8,45 Devere Road Riverview E1B 2M4 NB,Riverview,NB,E1B 2M4,46.062601228387116,-64.79590379831784,Province of New Brunswick,45 devere road riverview e1b 2m4 nb,45,devere road
38,Frank L. Bowser School,1550.0,1.0,1.0,0.0,0.0,Public,"Kindergarten, 1-5",424 Cleveland Avenue Riverview E1B 1Y2 NB,Riverview,NB,E1B 1Y2,46.060922157301476,-64.79524727372342,Province of New Brunswick,424 cleveland avenue riverview e1b 1y2 nb,424,cleveland avenue
39,Riverview East School,1578.0,1.0,1.0,1.0,0.0,Public,"Kindergarten, 1-8",49 Chambers Road Riverview E1B 0P5 NB,Riverview,NB,E1B 0P5,46.06777573866547,-64.77831991220411,Province of New Brunswick,49 chambers road riverview e1b 0p5 nb,49,chambers road
40,Quispamsis Elementary School,1932.0,1.0,1.0,0.0,0.0,Public,"Kindergarten, 1-5",290 Hampton Road Quispamsis E2E 4N1 NB,Quispamsis,NB,E2E 4N1,45.412877246086644,-65.95751218764413,Province of New Brunswick,290 hampton road quispamsis e2e 4n1 nb,290,hampton road
41,Kennebecasis Valley High School,1941.0,,0.0,1.0,1.0,Public,9-12,398 Hampton Road Quispamsis E2E 4V5 NB,Quispamsis,NB,E2E 4V5,45.42407087602024,-65.94743502322046,Province of New Brunswick,398 hampton road quispamsis e2e 4v5 nb,398,hampton road
42,Quispamsis Middle School,1946.0,,1.0,1.0,0.0,Public,6-8,189 Pettingill Road Quispamsis E2E 3S8 NB,Quispamsis,NB,E2E 3S8,45.4266111295795,-65.96772499444914,Province of New Brunswick,189 pettingill road quispamsis e2e 3s8 nb,189,pettingill road
43,Lakefield Elementary School,1943.0,1.0,1.0,0.0,0.0,Public,"Kindergarten, 1-5",9 Kensington Avenue Quispamsis E2E 2T8 NB,Quispamsis,NB,E2E 2T8,45.41818604271602,-65.97551763552818,Province of New Brunswick,9 kensington avenue quispamsis e2e 2t8 nb,9,kensington avenue
44,Glen Falls School,2014.0,1.0,1.0,0.0,0.0,Public,"Kindergarten, 1-5",10 Princess Court Saint John E2H 1X9 NB,Saint John,NB,E2H 1X9,45.31676400196875,-66.02434479708909,Province of New Brunswick,10 princess court saint john e2h 1x9 nb,10,princess court
45,Fairvale Elementary School,1930.0,1.0,1.0,0.0,0.0,Public,"Kindergarten, 1-5",11 School Avenue Rothesay E2E 1Z9 NB,Rothesay,NB,E2E 1Z9,45.41095572726138,-65.99046515077242,Province of New Brunswick,11 school avenue rothesay e2e 1z9 nb,11,school avenue
46,Rothesay High School,1928.0,,0.0,1.0,1.0,Public,9-12,61 Hampton Road Rothesay E2E 5L6 NB,Rothesay,NB,E2E 5L6,45.39401359934927,-65.98845724936844,Province of New Brunswick,61 hampton road rothesay e2e 5l6 nb,61,hampton road
47,Harry Miller Middle School,1929.0,,1.0,1.0,0.0,Public,6-8,63 Hampton Road Rothesay E2E 5L6 NB,Rothesay,NB,E2E 5L6,45.395750467478045,-65.9906184016068,Province of New Brunswick,63 hampton road rothesay e2e 5l6 nb,63,hampton road
48,Rothesay Elementary School,1927.0,1.0,1.0,0.0,0.0,Public,"Kindergarten, 1-5",230 Eriskay Drive Rothesay E2E 5G7 NB,Rothesay,NB,E2E 5G7,45.38899877662056,-65.98562628592794,Province of New Brunswick,230 eriskay drive rothesay e2e 5g7 nb,230,eriskay drive
49,Rothesay Park School,1942.0,,1.0,1.0,0.0,Public,6-8,7 Hampton Road Rothesay E2E 5K8 NB,Rothesay,NB,E2E 5K8,45.38786659306058,-65.99657608430452,Province of New Brunswick,7 hampton road rothesay e2e 5k8 nb,7,hampton road
50,Kennebecasis Park Elementary School,1931.0,1.0,1.0,0.0,0.0,Public,"Kindergarten, 1-5",10 Broadway Street Rothesay E2H 1B2 NB,Rothesay,NB,E2H 1B2,45.34933505213313,-66.02603755188446,Province of New Brunswick,10 broadway street rothesay e2h 1b2 nb,10,broadway street
51,Lakewood Heights School,2028.0,1.0,1.0,0.0,0.0,Public,"Kindergarten, 1-5",56 Lensdale Crescent Saint John E2J 3P3 NB,Saint John,NB,E2J 3P3,45.3142808902539,-65.98012258935147,Province of New Brunswick,56 lensdale crescent saint john e2j 3p3 nb,56,lensdale crescent
52,Loch Lomond School,2030.0,1.0,1.0,0.0,0.0,Public,"Kindergarten, 1-5",25 Evergreen Avenue Saint John E2N 1H3 NB,Saint John,NB,E2N 1H3,45.33365500213171,-65.90076327758587,Province of New Brunswick,25 evergreen avenue saint john e2n 1h3 nb,25,evergreen avenue
53,Bayside Middle School,2066.0,,1.0,1.0,0.0,Public,6-8,75 Bayside Drive Saint John E2J 1A1 NB,Saint John,NB,E2J 1A1,45.285087951884286,-66.03931968214093,Province of New Brunswick,75 bayside drive saint john e2j 1a1 nb,75,bayside drive
54,Champlain Heights School,2008.0,1.0,1.0,0.0,0.0,Public,"Kindergarten, 1-5",111 Champlain Drive Saint John E2J 3E4 NB,Saint John,NB,E2J 3E4,45.29101037537275,-66.00194666980444,Province of New Brunswick,111 champlain drive saint john e2j 3e4 nb,111,champlain drive
55,Simonds High School,2047.0,,0.0,1.0,1.0,Public,9-12,1490 Hickey Road Saint John E2J 4E7 NB,Saint John,NB,E2J 4E7,45.29775317054136,-65.99246857207879,Province of New Brunswick,1490 hickey road saint john e2j 4e7 nb,1490,hickey road
56,Bayview School,2004.0,1.0,1.0,0.0,0.0,Public,"Kindergarten, 1-5",184 Loch Lomond Road Saint John E2J 1Y1 NB,Saint John,NB,E2J 1Y1,45.289071640296534,-66.03200183915689,Province of New Brunswick,184 loch lomond road saint john e2j 1y1 nb,184,loch lomond road
57,Forest Hills School,2013.0,1.0,1.0,1.0,0.0,Public,"Kindergarten, 1-8",15 Glengarry Drive Saint John E2J 2X9 NB,Saint John,NB,E2J 2X9,45.314841976409646,-66.00651941517998,Province of New Brunswick,15 glengarry drive saint john e2j 2x9 nb,15,glengarry drive
58,Princess Elizabeth School,2041.0,1.0,1.0,1.0,0.0,Public,"Kindergarten, 1-8",20 Sixth Street Saint John E2K 3M1 NB,Saint John,NB,E2K 3M1,45.28313137574938,-66.06877832302598,Province of New Brunswick,20 sixth street saint john e2k 3m1 nb,20,sixth street
59,Saint John High School,2043.0,,0.0,1.0,1.0,Public,9-12,170-200 Prince William Street Saint John E2L 2B7 NB,Saint John,NB,E2L 2B7,45.26929953949266,-66.0608183632421,Province of New Brunswick,170 200 prince william street saint john e2l 2b7 nb,170 200,prince william street
60,St. John the Baptist/King Edward School,2067.0,1.0,1.0,1.0,0.0,Public,"Kindergarten, 1-8",223 St. James Street Saint John E2L 1W3 NB,Saint John,NB,E2L 1W3,45.26896746225797,-66.0511136338382,Province of New Brunswick,223 st james street saint john e2l 1w3 nb,223,st james street
61,St. Malachy's Memorial High School,2051.0,,0.0,1.0,1.0,Public,9-12,2-20 Leinster Street Saint John E2L 1H8 NB,Saint John,NB,E2L 1H8,45.272932987306355,-66.05573402038337,Province of New Brunswick,2 20 leinster street saint john e2l 1h8 nb,2 20,leinster street
62,Prince Charles School,2039.0,1.0,1.0,1.0,0.0,Public,"Kindergarten, 1-8",317-319 Union Street Saint John E2L 1B3 NB,Saint John,NB,E2L 1B3,45.27650836972286,-66.0527752954537,Province of New Brunswick,317 319 union street saint john e2l 1b3 nb,317 319,union street
63,Harbour View High School,2060.0,,0.0,1.0,1.0,Public,9-12,305 Douglas Avenue Saint John E2K 1E5 NB,Saint John,NB,E2K 1E5,45.2658738570498,-66.08406348837715,Province of New Brunswick,305 douglas avenue saint john e2k 1e5 nb,305,douglas avenue
64,Fredericton High School,2635.0,,0.0,1.0,1.0,Public,9-12,300 Priestman Street Fredericton E3B 6J8 NB,Fredericton,NB,E3B 6J8,45.94187978733941,-66.66285011947495,Province of New Brunswick,300 priestman street fredericton e3b 6j8 nb,300,priestman street
65,Connaught Street School,2604.0,1.0,1.0,0.0,0.0,Public,"Kindergarten, 1-5",184 Connaught Street Fredericton E3B 2A9 NB,Fredericton,NB,E3B 2A9,45.95554460281079,-66.65664963777989,Province of New Brunswick,184 connaught street fredericton e3b 2a9 nb,184,connaught street
66,George Street Middle School,2619.0,,1.0,1.0,0.0,Public,6-8,575 George Street Fredericton E3B 1K2 NB,Fredericton,NB,E3B 1K2,45.95871190897816,-66.64147596729458,Province of New Brunswick,575 george street fredericton e3b 1k2 nb,575,george street
67,Priestman Street Elementary School,2624.0,1.0,1.0,0.0,0.0,Public,"Kindergarten, 1-5",363 Priestman Street Fredericton E3B 3B5 NB,Fredericton,NB,E3B 3B5,45.94363874253247,-66.66114318976265,Province of New Brunswick,363 priestman street fredericton e3b 3b5 nb,363,priestman street
68,Forest Hill Elementary School,2608.0,1.0,1.0,0.0,0.0,Public,"Kindergarten, 1",548 Forest Hill Road Fredericton E3B 4K6 NB,Fredericton,NB,E3B 4K6,45.93613818359723,-66.63289390952077,Province of New Brunswick,548 forest hill road fredericton e3b 4k6 nb,548,forest hill road
69,Liverpool Street Elementary School,2634.0,,1.0,0.0,0.0,Public,2-5,50 Liverpool Street Fredericton E3B 4V4 NB,Fredericton,NB,E3B 4V4,45.93209738971913,-66.6413488393829,Province of New Brunswick,50 liverpool street fredericton e3b 4v4 nb,50,liverpool street
70,Montgomery Street Elementary School,2633.0,1.0,1.0,0.0,0.0,Public,"Kindergarten, 1-5",692 Montgomery Street Fredericton E3B 2X8 NB,Fredericton,NB,E3B 2X8,45.94364259961587,-66.65071469945383,Province of New Brunswick,692 montgomery street fredericton e3b 2x8 nb,692,montgomery street
71,École Sainte-Anne,5137.0,,1.0,1.0,1.0,Public,6-12,"715, rue Priestman Fredericton E3B 5W7 NB",Fredericton,NB,E3B 5W7,45.94194448152452,-66.652929567066,Province of New Brunswick,715 rue priestman fredericton e3b 5w7 nb,715,rue priestman
72,École des Bâtisseurs,5138.0,1.0,1.0,0.0,0.0,Public,"Maternelle, 1-5","715, rue Priestman Fredericton E3B 5W7 NB",Fredericton,NB,E3B 5W7,45.94187972011297,-66.65185040475681,Province of New Brunswick,715 rue priestman fredericton e3b 5w7 nb,715,rue priestman
73,Bliss Carman Middle School,2641.0,,1.0,1.0,0.0,Public,6-8,615 Kimble Drive Fredericton E3B 0N4 NB,Fredericton,NB,E3B 0N4,45.93047862329411,-66.63375602415948,Province of New Brunswick,615 kimble drive fredericton e3b 0n4 nb,615,kimble drive
74,École communautaire Ernest-Lang,3326.0,1.0,1.0,1.0,0.0,Public,"Maternelle, 1-8","13, rue Bellevue Saint-François-de-Madawaska E7A 1A4 NB",Saint-François-de-Madawaska,NB,E7A 1A4,47.2417990185561,-68.70524738393917,Province of New Brunswick,13 rue bellevue saint françois de madawaska e7a 1a4 nb,13,rue bellevue
75,Centre d'apprentissage du Haut-Madawaska,3327.0,1.0,1.0,1.0,0.0,Public,"Maternelle, 1-8","323, boulevard Long Clair E7A 2C5 NB",Clair,NB,E7A 2C5,47.256692830455606,-68.60631266220577,Province of New Brunswick,323 boulevard long clair e7a 2c5 nb,323,boulevard long clair
76,École Saint-Jacques,3314.0,1.0,1.0,1.0,0.0,Public,"Maternelle, 1-8","10, rue de l'École Saint-Jacques E7B 1E7 NB",Saint-Jacques,NB,E7B 1E7,47.429192118188105,-68.38793211863505,Province of New Brunswick,10 rue de l'école saint jacques e7b 1e7 nb,10,rue de l'école
77,École communautaire Saint-Joseph,3316.0,1.0,1.0,1.0,0.0,Public,"Maternelle, 1-8","562, chemin Toussaint Saint-Joseph-de-Madawaska E7B 2T8 NB",Saint-Joseph-de-Madawaska,NB,E7B 2T8,47.45515371164605,-68.31628770237798,Province of New Brunswick,562 chemin toussaint saint joseph de madawaska e7b 2t8 nb,562,chemin toussaint
78,Saint Mary's Academy,5401.0,1.0,1.0,1.0,1.0,Public,"Kindergarten, 1-12",52 Marmen Avenue Edmundston E3V 2H2 NB,Edmundston,NB,E3V 2H2,47.366209757810104,-68.34375814189829,Province of New Brunswick,52 marmen avenue edmundston e3v 2h2 nb,52,marmen avenue
79,Carrefour de la Jeunesse,3329.0,1.0,1.0,1.0,0.0,Public,"Maternelle, 1-8","54, 21e avenue Edmundston E3V 2B9 NB",Edmundston,NB,E3V 2B9,47.364604367979794,-68.33845921339075,Province of New Brunswick,54 21e avenue edmundston e3v 2b9 nb,54,21e avenue
80,Woodstock High School,2908.0,,0.0,1.0,1.0,Public,9-12,144 Connell Park Road Woodstock E7M 1M4 NB,Woodstock,NB,E7M 1M4,46.16145618629962,-67.59091524139002,Province of New Brunswick,144 connell park road woodstock e7m 1m4 nb,144,connell park road
81,Hartland Community School,2909.0,1.0,1.0,1.0,1.0,Public,"Kindergarten, 1-12",217 Rockland Road Hartland E7P 0A2 NB,Hartland,NB,E7P 0A2,46.30717703051086,-67.51391404160745,Province of New Brunswick,217 rockland road hartland e7p 0a2 nb,217,rockland road
82,Campobello Island Consolidated School,2301.0,1.0,1.0,1.0,1.0,Public,"Kindergarten, 1-12",1722 Route 774 Wilsons Beach E5E 1K7 NB,Wilsons Beach,NB,E5E 1K7,44.909843927072366,-66.91696016324032,Province of New Brunswick,1722 route 774 wilsons beach e5e 1k7 nb,1722,route 774 wilsons beach
83,Milltown Elementary School,2339.0,1.0,1.0,0.0,0.0,Public,"Kindergarten, 1-5",434 Milltown Blvd. St. Stephen E3L 1J8 NB,St. Stephen,NB,E3L 1J8,45.174464172654716,-67.29498652906071,Province of New Brunswick,434 milltown blvd st stephen e3l 1j8 nb,434,milltown blvd
84,St. Stephen Middle School,2337.0,,1.0,1.0,0.0,Public,6-8,11 School Street St. Stephen E3L 2N4 NB,St. Stephen,NB,E3L 2N4,45.195286360473354,-67.27951311065233,Province of New Brunswick,11 school street st stephen e3l 2n4 nb,11,school street
85,St. Stephen Elementary School,2336.0,1.0,1.0,0.0,0.0,Public,"Kindergarten, 1-5",King's Court St. Stephen E3L 3B2 NB,St. Stephen,NB,E3L 3B2,45.20056700218735,-67.27077665640225,Province of New Brunswick,king's court st stephen e3l 3b2 nb,,king's court
86,St. Stephen High School,2338.0,,0.0,1.0,1.0,Public,9-12,282 King Street St. Stephen E3L 4X7 NB,St. Stephen,NB,E3L 4X7,45.20729218318903,-67.27339175827005,Province of New Brunswick,282 king street st stephen e3l 4x7 nb,282,king street
87,Vincent Massey Elementary School,2311.0,1.0,1.0,0.0,0.0,Public,"Kindergarten, 1-5",166 Frederick Street St. Andrews E5B 1Z7 NB,St. Andrews,NB,E5B 1Z7,45.07730062591009,-67.04852492845089,Province of New Brunswick,166 frederick street st andrews e5b 1z7 nb,166,frederick street
88,Sir James Dunn Academy,2310.0,,1.0,1.0,1.0,Public,6-12,180 King Street St. Andrews E5B 1Y7 NB,St. Andrews,NB,E5B 1Y7,45.078183557484856,-67.04989784209378,Province of New Brunswick,180 king street st andrews e5b 1y7 nb,180,king street
89,Lawrence Station Elementary School,2302.0,1.0,1.0,0.0,0.0,Public,"Kindergarten, 1-5",6227 Route 3 Lawrence Station E5A 3C3 NB,Lawrence Station,NB,E5A 3C3,45.42868240910357,-67.17260916620761,Province of New Brunswick,6227 route 3 lawrence station e5a 3c3 nb,6227,route 3
90,McAdam High School,2704.0,,1.0,1.0,1.0,Public,6-12,29 Lake Road McAdam E6J 1N7 NB,McAdam,NB,E6J 1N7,45.59463800160521,-67.33010574941468,Province of New Brunswick,29 lake road mcadam e6j 1n7 nb,29,lake road
91,McAdam Elementary School,2703.0,1.0,1.0,0.0,0.0,Public,"Kindergarten, 1-5",29 Rose Street McAdam E6J 1Z1 NB,McAdam,NB,E6J 1Z1,45.596531634180145,-67.32272977505626,Province of New Brunswick,29 rose street mcadam e6j 1z1 nb,29,rose street
92,École L'Escale-des-Jeunes,513.0,1.0,1.0,1.0,0.0,Public,"Maternelle, 1-8","2930, rue Morais Bas-Caraquet E1W 6A8 NB",Bas-Caraquet,NB,E1W 6A8,47.798084313026045,-64.83114753846516,Province of New Brunswick,2930 rue morais bas caraquet e1w 6a8 nb,2930,rue morais
93,Polyvalente Louis-Mailloux,539.0,,0.0,1.0,1.0,Public,9-12,"30, rue Cormier C. P. 5751 Caraquet E1W 1B7 NB",Caraquet,NB,E1W 1B7,47.787593636414954,-64.95967434730251,Province of New Brunswick,30 rue cormier c p 5751 caraquet e1w 1b7 nb,30,rue cormier
94,École Marguerite-Bourgeoys,540.0,1.0,1.0,1.0,0.0,Public,"Maternelle, 1-8","238, rue Marguerite-Bourgeoys C. P. 5680 Caraquet E1W 1B7 NB",Caraquet,NB,E1W 1B7,47.78720405514926,-64.96533163487943,Province of New Brunswick,238 rue marguerite bourgeoys c p 5680 caraquet e1w 1b7 nb,c p 5680,caraquet
95,École Ola-Léger,504.0,1.0,1.0,1.0,0.0,Public,"Maternelle, 1-8","642, boulevard des Acadiens Bertrand E1W 1G8 NB",Bertrand,NB,E1W 1G8,47.74672019441642,-65.07782431691692,Province of New Brunswick,642 boulevard des acadiens bertrand e1w 1g8 nb,642,boulevard des acadiens bertrand
96,École Léandre-LeGresley,503.0,1.0,1.0,1.0,0.0,Public,"Maternelle, 1-8","261, rue Acadie C.P. 1003 Grande-Anse E8N 2T9 NB",Grande-Anse,NB,E8N 2T9,47.81121665081813,-65.18650816854687,Province of New Brunswick,261 rue acadie grande anse e8n 2t9 nb,261,rue acadie
97,École Terre des Jeunes,541.0,1.0,1.0,1.0,0.0,Public,"Maternelle, 1-8","1191, rue des Fondateurs Paquetville E8R 1A9 NB",Paquetville,NB,E8R 1A9,47.67064772476356,-65.10805443969731,Province of New Brunswick,1191 rue des fondateurs paquetville e8r 1a9 nb,1191,rue des fondateurs
98,Royal Road Elementary School,2638.0,1.0,1.0,0.0,0.0,Public,"Kindergarten, 1-5",340 Royal Road Fredericton E3G 6J9 NB,Fredericton,NB,E3G 6J9,45.99634464178374,-66.67061115718593,Province of New Brunswick,340 royal road fredericton e3g 6j9 nb,340,royal road
99,Nashwaak Valley School,2620.0,1.0,1.0,0.0,0.0,Public,"Kindergarten, 1-5",747 Route 628 Hwy Durham Bridge E6C 1N6 NB,Durham Bridge,NB,E6C 1N6,46.13260412555847,-66.60476312480269,Province of New Brunswick,747 route 628 hwy durham bridge e6c 1n6 nb,747,route 628 hwy
100,Stanley Consolidated School,906.0,1.0,1.0,1.0,1.0,Public,"Kindergarten, 1-12",28 Bridge Street Stanley E6B 1B2 NB,Stanley,NB,E6B 1B2,46.28168649358852,-66.73896786436876,Province of New Brunswick,28 bridge street stanley e6b 1b2 nb,28,bridge street
101,Caledonia Regional High School,1702.0,,1.0,1.0,1.0,Public,6-12,35 School Lane Hillsborough E4H 3B8 NB,Hillsborough,NB,E4H 3B8,45.92865007737134,-64.65349504168418,Province of New Brunswick,35 school lane hillsborough e4h 3b8 nb,35,school lane
102,Hillsborough Elementary School,1703.0,1.0,1.0,0.0,0.0,Public,"Kindergarten, 1-5",31 School Lane Hillsborough E4H 3B8 NB,Hillsborough,NB,E4H 3B8,45.92867433524165,-64.65270018465881,Province of New Brunswick,31 school lane hillsborough e4h 3b8 nb,31,school lane
103,Riverside Consolidated School,1704.0,1.0,1.0,0.0,0.0,Public,"Kindergarten, 1-5",90 Water Street Riverside-Albert E4H 3Z7 NB,Riverside-Albert,NB,E4H 3Z7,45.74829803872877,-64.73125175834996,Province of New Brunswick,90 water street riverside albert e4h 3z7 nb,90,water street
104,J.M.A. Armstrong/Salisbury Middle School,1610.0,,1.0,1.0,1.0,Public,5-12,55 Douglas Street Salisbury E4J 2B4 NB,Salisbury,NB,E4J 2B4,46.02457030719476,-65.04105810678912,Province of New Brunswick,55 douglas street salisbury e4j 2b4 nb,55,douglas street
105,Salisbury Elementary School,1607.0,1.0,1.0,0.0,0.0,Public,"Kindergarten, 1-4",2646 River Road Salisbury E4J 2R2 NB,Salisbury,NB,E4J 2R2,46.02471093321778,-65.03839708376981,Province of New Brunswick,2646 river road salisbury e4j 2r2 nb,2646,river road
106,Magnetic Hill School,1528.0,1.0,1.0,1.0,0.0,Public,"Kindergarten, 1-8",3346 Route 126 Lutes Mountain E1G 2X4 NB,Lutes Mountain,NB,E1G 2X4,46.13571135008314,-64.91358618982171,Province of New Brunswick,3346 route 126 lutes mountain e1g 2x4 nb,3346,route 126
107,Birchmount School,1505.0,1.0,1.0,1.0,0.0,Public,"Kindergarten, 1-8",256 Ayer Avenue Moncton E1C 8G8 NB,Moncton,NB,E1C 8G8,46.10313035422717,-64.83013956255323,Province of New Brunswick,256 ayer avenue moncton e1c 8g8 nb,256,ayer avenue
108,Beaverbrook School,1503.0,1.0,1.0,1.0,0.0,Public,"Kindergarten, 1-8",1085 Mountain Road Moncton E1C 2S9 NB,Moncton,NB,E1C 2S9,46.10550944791925,-64.82058505873607,Province of New Brunswick,1085 mountain road moncton e1c 2s9 nb,1085,mountain road
109,Northrop Frye School,1577.0,1.0,1.0,0.0,0.0,Public,"Kindergarten, 1-5",1392 Ryan Street Moncton E1G 2V3 NB,Moncton,NB,E1G 2V3,46.12354302743634,-64.88645655807147,Province of New Brunswick,1392 ryan street moncton e1g 2v3 nb,1392,ryan street
110,École Le Sommet,1362.0,1.0,1.0,1.0,0.0,Public,"Maternelle, 1-8","701, rue Ryan Moncton E1G 5R2 NB",Moncton,NB,E1G 5R2,46.1059153547129,-64.86499111283777,Province of New Brunswick,701 rue ryan moncton e1g 5r2 nb,701,rue ryan
111,Hazen-White-St. Francis School,2020.0,1.0,1.0,0.0,0.0,Public,"Kindergarten, 1-5",538 Sandy Point Road Saint John E2K 3S2 NB,Saint John,NB,E2K 3S2,45.293758416840326,-66.07309041134981,Province of New Brunswick,538 sandy point road saint john e2k 3s2 nb,538,sandy point road
112,Millidgeville North School,2065.0,,1.0,1.0,0.0,Public,3-8,500 Woodward Avenue Saint John E2K 4G7 NB,Saint John,NB,E2K 4G7,45.29702372766632,-66.11324185986179,Province of New Brunswick,500 woodward avenue saint john e2k 4g7 nb,500,woodward avenue
113,Centennial School,2007.0,1.0,1.0,0.0,0.0,Public,"Kindergarten, 1-5",10 Constance Street Saint John E2K 2P8 NB,Saint John,NB,E2K 2P8,45.28175565794509,-66.08346521437693,Province of New Brunswick,10 constance street saint john e2k 2p8 nb,10,constance street
114,M. Gerald Teed Memorial School,2059.0,1.0,1.0,0.0,0.0,Public,"Kindergarten, 1-2",151 Black Street Saint John E2K 2L6 NB,Saint John,NB,E2K 2L6,45.2971220386975,-66.10232455851542,Province of New Brunswick,151 black street saint john e2k 2l6 nb,151,black street
115,Centre scolaire Samuel-de-Champlain,5201.0,1.0,1.0,1.0,1.0,Public,"Maternelle, 1-12","67, chemin Ragged Point Saint John E2K 5C3 NB",Saint John,NB,E2K 5C3,45.294321592250434,-66.11580279926129,Province of New Brunswick,67 chemin ragged point saint john e2k 5c3 nb,67,chemin ragged point
116,Garden Creek School,2609.0,1.0,1.0,0.0,0.0,Public,"Kindergarten, 1-5",1360 Woodstock Road Fredericton E3B 9G7 NB,Fredericton,NB,E3B 9G7,45.96483844366958,-66.70355244560444,Province of New Brunswick,1360 woodstock road fredericton e3b 9g7 nb,1360,woodstock road
117,Kingsclear Consolidated School,2614.0,1.0,1.0,0.0,0.0,Public,"Kindergarten, 1-5",3188 Woodstock Road Fredericton E3C 1K9 NB,Fredericton,NB,E3C 1K9,45.965079810161036,-66.77017528385753,Province of New Brunswick,3188 woodstock road fredericton e3c 1k9 nb,3188,woodstock road
118,École La Villa des Amis,762.0,1.0,1.0,1.0,0.0,Public,"Maternelle, 1-8","6830, Route 11 Tracadie Beach E1X 4P4 NB",Tracadie Beach,NB,E1X 4P4,47.44438919144166,-64.91615300446624,Province of New Brunswick,6830 route 11 tracadie beach e1x 4p4 nb,6830,route 11 tracadie beach
119,École La Passerelle,714.0,1.0,1.0,1.0,0.0,Public,"Maternelle, 1-8","5067, Route 160 Pont-Landry E1X 2V5 NB",Pont-Landry,NB,E1X 2V5,47.574755322913674,-64.96338644440729,Province of New Brunswick,5067 route 160 pont landry e1x 2v5 nb,5067,route 160
120,Polyvalente W.-Arthur-Losier,760.0,,0.0,1.0,1.0,Public,9-12,"585, rue de l'Église C. P. 3680, Succ. Bureau Chef Tracadie-Sheila E1X 1G5 NB",Tracadie-Sheila,NB,E1X 1G5,47.51310826627425,-64.92075323363197,Province of New Brunswick,585 rue de l'église c p 3680 succ bureau chef tracadie sheila e1x 1g5 nb,585,rue de l'église
121,École La Ruche,719.0,1.0,1.0,0.0,0.0,Public,"Maternelle, 1-5","635, rue de l'Église Tracadie-Sheila E1X 1B1 NB",Tracadie-Sheila,NB,E1X 1B1,47.51263595026378,-64.9234183964801,Province of New Brunswick,635 rue de l'église tracadie sheila e1x 1b1 nb,635,rue de l'église
122,École Le Tremplin,720.0,,1.0,1.0,0.0,Public,6-8,"520, rue de l'Église Tracadie-Sheila E1X 1B1 NB",Tracadie-Sheila,NB,E1X 1B1,47.51274432084261,-64.91547701112579,Province of New Brunswick,520 rue de l'église tracadie sheila e1x 1b1 nb,520,rue de l'église
123,École La Source,725.0,1.0,1.0,1.0,0.0,Public,"Maternelle, 1-8","906, rue Louis-G.-Daigle C. P. 4059, Succ.B Tracadie-Sheila E1X 1G4 NB",Tracadie-Sheila,NB,E1X 1G4,47.47915924357184,-64.92328585736063,Province of New Brunswick,906 rue louis g daigle c p 4059 succb tracadie sheila e1x 1g4 nb,c p 4059,succb
124,Bath Community School,3001.0,1.0,1.0,1.0,0.0,Public,"Kindergarten, 1-8",118 School Street Bath E7J 1C4 NB,Bath,NB,E7J 1C4,46.506383225380716,-67.58772739878654,Province of New Brunswick,118 school street bath e7j 1c4 nb,118,school street
125,Bristol Elementary School,3004.0,1.0,1.0,0.0,0.0,Public,"Kindergarten, 1-5",9208 Main Street P.O. Box 826 Florenceville-Bristol E7L 2A9 NB,Florenceville-Bristol,NB,E7L 2A9,46.473595911975934,-67.57665794665887,Province of New Brunswick,9208 main street florenceville bristol e7l 2a9 nb,9208,main street
126,Carleton North High School,3018.0,,0.0,1.0,1.0,Public,9-12,30 School Street Florenceville-Bristol E7L 2G2 NB,Florenceville-Bristol,NB,E7L 2G2,46.46710764999881,-67.5794823715988,Province of New Brunswick,30 school street florenceville bristol e7l 2g2 nb,30,school street
127,Florenceville Elementary School,3009.0,1.0,1.0,0.0,0.0,Public,"Kindergarten, 1-5",8470 Main Street P.O. Box 431 Florenceville-Bristol E7L 4J8 NB,Florenceville-Bristol,NB,E7L 4J8,46.41872900424831,-67.61137948243835,Province of New Brunswick,8470 main street florenceville bristol e7l 4j8 nb,8470,main street
128,Florenceville Middle School,3008.0,,1.0,1.0,0.0,Public,6-8,8794 Main Street Florenceville-Bristol E7L 3G2 NB,Florenceville-Bristol,NB,E7L 3G2,46.446740176963466,-67.616008286701,Province of New Brunswick,8794 main street florenceville bristol e7l 3g2 nb,8794,main street
129,Centreville Community School,3005.0,1.0,1.0,1.0,0.0,Public,"Kindergarten, 1-8",751 Central Street Centreville E7K 2M6 NB,Centreville,NB,E7K 2M6,46.431250548877536,-67.70695791954131,Province of New Brunswick,751 central street centreville e7k 2m6 nb,751,central street
130,Andover Elementary School,3107.0,1.0,1.0,0.0,0.0,Public,"Kindergarten, 1-5",9 School Street Perth-Andover E7H 4T4 NB,Perth-Andover,NB,E7H 4T4,46.749830922738994,-67.69907169475776,Province of New Brunswick,9 school street perth andover e7h 4t4 nb,9,school street
131,Donald Fraser Memorial School,3122.0,1.0,1.0,0.0,0.0,Public,"Kindergarten, 1-5",231 Main Street Plaster Rock E7G 2G6 NB,Plaster Rock,NB,E7G 2G6,46.90665988592908,-67.39664191432499,Province of New Brunswick,231 main street plaster rock e7g 2g6 nb,231,main street
132,Perth-Andover Middle School,3105.0,,1.0,1.0,0.0,Public,6-8,20 Nissen Street Perth-Andover E7H 3G1 NB,Perth-Andover,NB,E7H 3G1,46.753952330326136,-67.70336188484004,Province of New Brunswick,20 nissen street perth andover e7h 3g1 nb,20,nissen street
133,Southern Victoria High School,3106.0,,0.0,1.0,1.0,Public,9-12,13 School Street Perth-Andover E7H 4T4 NB,Perth-Andover,NB,E7H 4T4,46.74809632360159,-67.69876701897205,Province of New Brunswick,13 school street perth andover e7h 4t4 nb,13,school street
134,Tobique Valley High School,3111.0,,1.0,1.0,1.0,Public,6-12,290 Main Street Plaster Rock E7G 2C6 NB,Plaster Rock,NB,E7G 2C6,46.913746367241316,-67.39177996421755,Province of New Brunswick,290 main street plaster rock e7g 2c6 nb,290,main street
135,Oromocto High School,2513.0,,0.0,1.0,1.0,Public,9-12,25 MacKenzie Avenue Oromocto E2V 1K4 NB,Oromocto,NB,E2V 1K4,45.84587760645197,-66.47942801401706,Province of New Brunswick,25 mackenzie avenue oromocto e2v 1k4 nb,25,mackenzie avenue
136,Ridgeview Middle School,2512.0,,1.0,1.0,0.0,Public,6-8,102 Waasis Road Oromocto E2V 1G6 NB,Oromocto,NB,E2V 1G6,45.84773105388548,-66.47306269942406,Province of New Brunswick,102 waasis road oromocto e2v 1g6 nb,102,waasis road
137,École Arc-en-ciel,5107.0,1.0,1.0,1.0,0.0,Public,"Maternelle, 1-8","95, promenade Drummond Oromocto E2V 2A6 NB",Oromocto,NB,E2V 2A6,45.84208794979347,-66.48765314000647,Province of New Brunswick,95 promenade drummond oromocto e2v 2a6 nb,95,promenade drummond
138,Summerhill Street Elementary School,2510.0,,1.0,0.0,0.0,Public,3-5,20 Summerhill Street Oromocto E2V 1V1 NB,Oromocto,NB,E2V 1V1,45.8470899938737,-66.49104605229152,Province of New Brunswick,20 summerhill street oromocto e2v 1v1 nb,20,summerhill street
139,Gesner Street Elementary School,2508.0,1.0,1.0,0.0,0.0,Public,"Kindergarten, 1-2",10 Gesner Street Oromocto E2V 1S8 NB,Oromocto,NB,E2V 1S8,45.84382792925929,-66.48416337970765,Province of New Brunswick,10 gesner street oromocto e2v 1s8 nb,10,gesner street
140,Harold Peterson Middle School,2511.0,,1.0,1.0,0.0,Public,6-8,90 St. Lawrence Avenue Oromocto E2V 1T2 NB,Oromocto,NB,E2V 1T2,45.841745383500175,-66.48187631851513,Province of New Brunswick,90 st lawrence avenue oromocto e2v 1t2 nb,90,st lawrence avenue
141,Assiniboine Avenue Elementary School,2506.0,1.0,1.0,0.0,0.0,Public,"Kindergarten, 1-2",55 Assiniboine Avenue Oromocto E2V 1Y2 NB,Oromocto,NB,E2V 1Y2,45.83791427026691,-66.47785830757874,Province of New Brunswick,55 assiniboine avenue oromocto e2v 1y2 nb,55,assiniboine avenue
142,Hubbard Avenue Elementary School,2509.0,,1.0,0.0,0.0,Public,3-5,50 Hubbard Avenue Oromocto E2V 1N9 NB,Oromocto,NB,E2V 1N9,45.84254709910796,-66.47447535765876,Province of New Brunswick,50 hubbard avenue oromocto e2v 1n9 nb,50,hubbard avenue
143,Lincoln Elementary Community School,2504.0,1.0,1.0,0.0,0.0,Public,"Kindergarten, 1-5","2475 Lincoln Road, Route 102 Hwy Lincoln E3B 7E6 NB",Lincoln,NB,E3B 7E6,45.88018899441042,-66.53873544609074,Province of New Brunswick,2475 lincoln road route 102 hwy lincoln e3b 7e6 nb,2475,lincoln road route 102 hwy
144,Académie Assomption,4109.0,1.0,1.0,0.0,0.0,Public,"Maternelle, 1-5","1255, promenade Rough Waters Bathurst E2A 1Z2 NB",Bathurst,NB,E2A 1Z2,47.61019355874213,-65.63344788766976,Province of New Brunswick,1255 promenade rough waters bathurst e2a 1z2 nb,1255,promenade rough waters
145,François-Xavier-Daigle,4143.0,1.0,1.0,1.0,0.0,Public,"Maternelle, 1-8","4572, Route 134 Allardville E8L 1E4 NB",Allardville,NB,E8L 1E4,47.475718701996676,-65.49424739887796,Province of New Brunswick,4572 route 134 allardville e8l 1e4 nb,4572,route 134
146,Janeville Elementary School,4259.0,1.0,1.0,0.0,0.0,Public,"Kindergarten, 1-5",107 Route 340 Janeville E2A 5C5 NB,Janeville,NB,E2A 5C5,47.69004945974481,-65.44061150316561,Province of New Brunswick,107 route 340 janeville e2a 5c5 nb,107,route 340
147,École La Relève-de-Saint-Isidore,702.0,1.0,1.0,1.0,0.0,Public,"Maternelle, 1-8","3953, boulevard des Fondateurs Saint-Isidore E8M 1C1 NB",Saint-Isidore,NB,E8M 1C1,47.55448217922864,-65.05172096057801,Province of New Brunswick,3953 boulevard des fondateurs saint isidore e8m 1c1 nb,3953,boulevard des fondateurs
148,Bathurst High School,4201.0,,0.0,1.0,1.0,Public,9-12,640 King Avenue Bathurst E2A 1R1 NB,Bathurst,NB,E2A 1R1,47.614865605418046,-65.65263479437063,Province of New Brunswick,640 king avenue bathurst e2a 1r1 nb,640,king avenue
149,Terry Fox Elementary School,4261.0,1.0,1.0,0.0,0.0,Public,"Kindergarten, 1-5",155 Basin Street Bathurst E2A 6N1 NB,Bathurst,NB,E2A 6N1,47.6033363405954,-65.65966201845626,Province of New Brunswick,155 basin street bathurst e2a 6n1 nb,155,basin street
150,Harvey High School,2705.0,,1.0,1.0,1.0,Public,6-12,2055 Route 3 P.O. Box 258 Harvey Station E6K 3W9 NB,Harvey Station,NB,E6K 3W9,45.72011022183129,-67.008145332773,Province of New Brunswick,2055 route 3 harvey station e6k 3w9 nb,2055,route 3
151,Harvey Elementary School,2701.0,1.0,1.0,0.0,0.0,Public,"Kindergarten, 1-5",1908 Route 3 Harvey Station E6K 2P4 NB,Harvey Station,NB,E6K 2P4,45.732396708600604,-67.00231006546618,Province of New Brunswick,1908 route 3 harvey station e6k 2p4 nb,1908,route 3
152,Keswick Ridge School,2611.0,1.0,1.0,1.0,0.0,Public,"Kindergarten, 1-8",166 McKeen Drive Keswick Ridge E6L 1N9 NB,Keswick Ridge,NB,E6L 1N9,45.966778234646775,-66.85822729598836,Province of New Brunswick,166 mckeen drive keswick ridge e6l 1n9 nb,166,mckeen drive
153,Keswick Valley Memorial School,2807.0,1.0,1.0,1.0,0.0,Public,"Kindergarten, 1-8","20, Route 617 Burtts Corner E6L 2X3 NB",Burtts Corner,NB,E6L 2X3,46.060794882429505,-66.87874261123649,Province of New Brunswick,20 route 617 burtts corner e6l 2x3 nb,20,route 617
154,Nackawic Elementary School,2802.0,1.0,1.0,0.0,0.0,Public,"Kindergarten, 1-5",110 McNair Drive Nackawic E6G 1A8 NB,Nackawic,NB,E6G 1A8,45.994756351224744,-67.24057377993331,Province of New Brunswick,110 mcnair drive nackawic e6g 1a8 nb,110,mcnair drive
155,Nackawic Middle School,2811.0,,1.0,1.0,0.0,Public,6-8,50 Landegger Drive Nackawic E6G 1E9 NB,Nackawic,NB,E6G 1E9,45.99265373421499,-67.24070378677523,Province of New Brunswick,50 landegger drive nackawic e6g 1e9 nb,50,landegger drive
156,Nackawic Senior High School,2801.0,,0.0,1.0,1.0,Public,9-12,30 Landegger Drive Nackawic E6G 1E9 NB,Nackawic,NB,E6G 1E9,45.99315988474525,-67.23802487990639,Province of New Brunswick,30 landegger drive nackawic e6g 1e9 nb,30,landegger drive
157,Canterbury High School,2803.0,1.0,1.0,1.0,1.0,Public,"Kindergarten, 1-12",80 Main Street Canterbury E6H 1L3 NB,Canterbury,NB,E6H 1L3,45.89504781874958,-67.46192556001746,Province of New Brunswick,80 main street canterbury e6h 1l3 nb,80,main street
158,Étoile de l'Acadie,3924.0,1.0,1.0,1.0,1.0,Public,"Maternelle, 1-12","50, rue de l'École Rogersville E4Y 1V7 NB",Rogersville,NB,E4Y 1V7,46.732208728851965,-65.42276439818968,Province of New Brunswick,50 rue de l'école rogersville e4y 1v7 nb,50,rue de l'école
159,École Soleil Levant,3955.0,1.0,1.0,1.0,0.0,Public,"Maternelle, 1-8","45, rue Morgan Richibucto E4W 4E8 NB",Richibucto,NB,E4W 4E8,46.69491718903514,-64.86508970671828,Province of New Brunswick,45 rue morgan richibucto e4w 4e8 nb,45,rue morgan
160,École Mgr-Marcel-François-Richard,3954.0,1.0,1.0,1.0,1.0,Public,"Maternelle, 1-12","49, rue du Collège, Unité 1 Saint-Louis-de-Kent E4X 1C2 NB",Saint-Louis-de-Kent,NB,E4X 1C2,46.740520393344326,-64.97277601207917,Province of New Brunswick,49 rue du collège unité 1 saint louis de kent e4x 1c2 nb,49,rue du collège
161,Rexton Elementary School,4017.0,1.0,1.0,0.0,0.0,Public,"Kindergarten, 1-5",19 School Street Rexton E4W 2E4 NB,Rexton,NB,E4W 2E4,46.64059709288916,-64.86929257193064,Province of New Brunswick,19 school street rexton e4w 2e4 nb,19,school street
162,Bonar Law Memorial School,4055.0,,0.0,1.0,1.0,Public,9-12,197 Main Street Rexton E4W 2A9 NB,Rexton,NB,E4W 2A9,46.64141953960778,-64.85847902753865,Province of New Brunswick,197 main street rexton e4w 2a9 nb,197,main street
163,École Calixte-F.-Savoie,1215.0,1.0,1.0,1.0,0.0,Public,"Maternelle, 1-8","20, Route 505 Sainte-Anne-de-Kent E4S 1K3 NB",Sainte-Anne-de-Kent,NB,E4S 1K3,46.55203996873261,-64.7729900503997,Province of New Brunswick,20 route 505 sainte anne de kent e4s 1k3 nb,20,route 505
164,Eleanor W. Graham Middle School,4056.0,,1.0,1.0,0.0,Public,6-8,9 California Road Rexton E4W 1W7 NB,Rexton,NB,E4W 1W7,46.63785621367075,-64.8643667539081,Province of New Brunswick,9 california road rexton e4w 1w7 nb,9,california road
165,Barnhill Memorial School,2003.0,,1.0,1.0,0.0,Public,6-8,750 Manawagonish Road Saint John E2M 3W5 NB,Saint John,NB,E2M 3W5,45.25455711509874,-66.10372144298377,Province of New Brunswick,750 manawagonish road saint john e2m 3w5 nb,750,manawagonish road
166,Beaconsfield Middle School,2005.0,,1.0,1.0,0.0,Public,6-8,630 Fundy Drive Saint John E2M 2S5 NB,Saint John,NB,E2M 2S5,45.25084760917504,-66.07796074499925,Province of New Brunswick,630 fundy drive saint john e2m 2s5 nb,630,fundy drive
167,Saint Rose School,2057.0,1.0,1.0,0.0,0.0,Public,"Kindergarten, 1-5",700 Manawagonish Road Saint John E2M 3W5 NB,Saint John,NB,E2M 3W5,45.25558379791046,-66.10286231141032,Province of New Brunswick,700 manawagonish road saint john e2m 3w5 nb,700,manawagonish road
168,Island View School,2070.0,1.0,1.0,0.0,0.0,Public,"Kindergarten, 1-5",496 Ridge Row Saint John E2M 4A1 NB,Saint John,NB,E2M 4A1,45.23657978671764,-66.1289054339031,Province of New Brunswick,496 ridge row saint john e2m 4a1 nb,496,ridge row
169,Deer Island Community School,2104.0,1.0,1.0,1.0,0.0,Public,"Kindergarten, 1-8",711 Route 772 Fairhaven E5V 1T1 NB,Fairhaven,NB,E5V 1T1,44.97917572141308,-66.98494317493304,Province of New Brunswick,711 route 772 fairhaven e5v 1t1 nb,711,route 772 fairhaven
170,White Head Elementary School,2206.0,1.0,1.0,0.0,0.0,Public,"Kindergarten, 1-4",278 White Head Road White Head Island E5G 1K6 NB,White Head Island,NB,E5G 1K6,44.63644772430659,-66.71078552615157,Province of New Brunswick,278 white head road white head island e5g 1k6 nb,278,white head road white head island
171,Grand Manan Community School,2201.0,1.0,1.0,1.0,1.0,Public,"Kindergarten, 1-12",1144 Route 776 Grand Manan E5G 4E8 NB,Grand Manan,NB,E5G 4E8,44.68769021933156,-66.76576492254023,Province of New Brunswick,1144 route 776 grand manan e5g 4e8 nb,1144,route 776
172,Back Bay Elementary School,2101.0,1.0,1.0,0.0,0.0,Public,"Kindergarten, 1-5",980 Route 172 Back Bay E5C 1Y1 NB,Back Bay,NB,E5C 1Y1,45.056347284097406,-66.87245924382303,Province of New Brunswick,980 route 172 back bay e5c 1y1 nb,980,route 172
173,Fundy Middle and High School,2111.0,,1.0,1.0,1.0,Public,6-12,44 Mount Pleasant Road St. George E5C 3K4 NB,St. George,NB,E5C 3K4,45.12519922217695,-66.80980468762559,Province of New Brunswick,44 mount pleasant road st george e5c 3k4 nb,44,mount pleasant road
174,St. George Elementary School,2110.0,1.0,1.0,0.0,0.0,Public,"Kindergarten, 1-5",118 Brunswick Street St. George E5C 1A9 NB,St. George,NB,E5C 1A9,45.128854206364316,-66.8339054634786,Province of New Brunswick,118 brunswick street st george e5c 1a9 nb,118,brunswick street
175,Blacks Harbour School,2103.0,1.0,1.0,0.0,0.0,Public,"Kindergarten, 1-5",800 Main Street Blacks Harbour E5H 1E6 NB,Blacks Harbour,NB,E5H 1E6,45.05720853705965,-66.78590669662522,Province of New Brunswick,800 main street blacks harbour e5h 1e6 nb,800,main street
176,Fundy Shores School,2074.0,1.0,1.0,0.0,0.0,Public,"Kindergarten, 1-5",1095 Route 790 Dipper Harbour E5J 1W4 NB,Dipper Harbour,NB,E5J 1W4,45.0961232262415,-66.45299029415972,Province of New Brunswick,1095 route 790 dipper harbour e5j 1w4 nb,1095,route 790 dipper harbour
177,Morna Heights School,2023.0,1.0,1.0,0.0,0.0,Public,"Kindergarten, 1-5",80 Chalmer Drive Saint John E2M 6M9 NB,Saint John,NB,E2M 6M9,45.29020369159914,-66.16829732558206,Province of New Brunswick,80 chalmer drive saint john e2m 6m9 nb,80,chalmer drive
178,St. Martins School,2052.0,1.0,1.0,0.0,0.0,Public,"Kindergarten, 1-5",69 Main Street St. Martins E5R 1B4 NB,St. Martins,NB,E5R 1B4,45.3507562341753,-65.55193721101746,Province of New Brunswick,69 main street st martins e5r 1b4 nb,69,main street
179,Apohaqui Elementary School,1801.0,1.0,1.0,0.0,0.0,Public,"Kindergarten, 1-5",23 Foster Avenue West Apohaqui E5P 3M9 NB,Apohaqui,NB,E5P 3M9,45.699069173023126,-65.60253509377512,Province of New Brunswick,23 foster avenue west apohaqui e5p 3m9 nb,23,foster avenue west
180,Sussex Elementary School,1817.0,1.0,1.0,0.0,0.0,Public,"Kindergarten, 1-5",25 Duke Street Sussex E4E 1P8 NB,Sussex,NB,E4E 1P8,45.72518651860532,-65.51688488345766,Province of New Brunswick,25 duke street sussex e4e 1p8 nb,25,duke street
181,Sussex Regional High School,1818.0,,0.0,1.0,1.0,Public,9-12,55 Leonard Drive Sussex E4E 2P8 NB,Sussex,NB,E4E 2P8,45.72541644972188,-65.4924946022842,Province of New Brunswick,55 leonard drive sussex e4e 2p8 nb,55,leonard drive sussex
182,Sussex Middle School,1820.0,,1.0,1.0,0.0,Public,6-8,49 Bryant Drive Sussex E4E 2P2 NB,Sussex,NB,E4E 2P2,45.72429640191987,-65.48649759252329,Province of New Brunswick,49 bryant drive sussex e4e 2p2 nb,49,bryant drive sussex
183,Sussex Corner Elementary School,1819.0,1.0,1.0,0.0,0.0,Public,"Kindergarten, 1-5",12 Dutch Valley Road Sussex Corner E4E 2Y1 NB,Sussex Corner,NB,E4E 2Y1,45.70558863560776,-65.47688980960417,Province of New Brunswick,12 dutch valley road sussex corner e4e 2y1 nb,12,dutch valley road
184,New Maryland Elementary School,2639.0,1.0,1.0,0.0,0.0,Public,"Kindergarten, 1-5",75 Clover Street New Maryland E3C 1C5 NB,New Maryland,NB,E3C 1C5,45.89659150656926,-66.69274437363859,Province of New Brunswick,75 clover street new maryland e3c 1c5 nb,75,clover street
185,Sunbury West School,2505.0,1.0,1.0,1.0,0.0,Public,"Kindergarten, 1-8",5 Pride's Landing Road Fredericton Junction E5L 1Y1 NB,Fredericton Junction,NB,E5L 1Y1,45.65856226151551,-66.60595653350849,Province of New Brunswick,5 pride's landing road fredericton junction e5l 1y1 nb,5,pride's landing road
186,Geary Elementary Community School,2503.0,1.0,1.0,0.0,0.0,Public,"Kindergarten, 1-5",16 Lauvina Bye Road Geary E2V 3Y1 NB,Geary,NB,E2V 3Y1,45.76843146260085,-66.47442407553473,Province of New Brunswick,16 lauvina bye road geary e2v 3y1 nb,16,lauvina bye road
187,Sugarloaf Senior High School,3823.0,,0.0,1.0,1.0,Public,9-12,201 Dover Street Campbellton E3N 1R3 NB,Campbellton,NB,E3N 1R3,47.99867401616906,-66.67590162402952,Province of New Brunswick,201 dover street campbellton e3n 1r3 nb,201,dover street
188,Lord Beaverbrook School,3803.0,1.0,1.0,0.0,0.0,Public,"Kindergarten, 1-4",113 Arran Street Campbellton E3N 1M1 NB,Campbellton,NB,E3N 1M1,48.0003933882365,-66.68000588935381,Province of New Brunswick,113 arran street campbellton e3n 1m1 nb,113,arran street
189,Campbellton Middle School,3806.0,,1.0,1.0,0.0,Public,5-8,80 Arran Street Campbellton E3N 1L7 NB,Campbellton,NB,E3N 1L7,48.00115645998979,-66.67230102005739,Province of New Brunswick,80 arran street campbellton e3n 1l7 nb,80,arran street
190,Polyvalente Roland-Pépin,3722.0,,0.0,1.0,1.0,Public,9-12,"45A, rue du Village C.P. 220 Campbellton E3N 3G4 NB",Campbellton,NB,E3N 3G4,47.99729597571201,-66.6629749683332,Province of New Brunswick,45a rue du village campbellton e3n 3g4 nb,45a,rue du village
191,Académie Notre-Dame,3511.0,1.0,1.0,1.0,0.0,Public,"Maternelle, 1-8","357, rue Grey Dalhousie E8C 1W6 NB",Dalhousie,NB,E8C 1W6,48.06265439722133,-66.36932307559088,Province of New Brunswick,357 rue grey dalhousie e8c 1w6 nb,357,rue grey
192,Aux quatre vents,3516.0,,0.0,1.0,1.0,Public,9-12,"499, promenade Les Jeux du Canada Dalhousie E8C 1V6 NB",Dalhousie,NB,E8C 1V6,48.05870573368553,-66.3960937249324,Province of New Brunswick,499 promenade les jeux du canada dalhousie e8c 1v6 nb,499,promenade les jeux du canada
193,Dalhousie Regional High School,3615.0,,1.0,1.0,1.0,Public,6-12,500 Canada Games Drive Dalhousie E8C 2P5 NB,Dalhousie,NB,E8C 2P5,48.05906139926475,-66.38229682049949,Province of New Brunswick,500 canada games drive dalhousie e8c 2p5 nb,500,canada games drive
194,L.E. Reinsborough School,3613.0,1.0,1.0,0.0,0.0,Public,"Kindergarten, 1-5",390 Adelaide Street Dalhousie E8C 3C4 NB,Dalhousie,NB,E8C 3C4,48.06462859650721,-66.37367303962215,Province of New Brunswick,390 adelaide street dalhousie e8c 3c4 nb,390,adelaide street
195,La Mosaïque du Nord,3517.0,1.0,1.0,1.0,0.0,Public,"Maternelle, 1-8","385, avenue des Pionniers Balmoral E8E 1B2 NB",Balmoral,NB,E8E 1B2,47.99773676733515,-66.43313202344541,Province of New Brunswick,385 avenue des pionniers balmoral e8e 1b2 nb,385,avenue des pionniers
196,La Croisée,4125.0,1.0,1.0,1.0,0.0,Public,"Maternelle, 1-8","1341, chemin Robertville Robertville E8K 2V9 NB",Robertville,NB,E8K 2V9,47.696188514124024,-65.77202488880758,Province of New Brunswick,1341 chemin robertville robertville e8k 2v9 nb,1341,chemin robertville
197,Le Tournesol,4114.0,1.0,1.0,0.0,0.0,Public,"Maternelle, 1-3","63, rue LaPlante est Petit-Rocher E8J 1H4 NB",Petit-Rocher,NB,E8J 1H4,47.78205155815643,-65.71595169480273,Province of New Brunswick,63 rue laplante est petit rocher e8j 1h4 nb,63,rue laplante est
198,Le Domaine Étudiant,4158.0,,1.0,1.0,0.0,Public,4-8,"636, rue Principale Petit-Rocher E8J 1T7 NB",Petit-Rocher,NB,E8J 1T7,47.77962169822769,-65.72039911527719,Province of New Brunswick,636 rue principale petit rocher e8j 1t7 nb,636,rue principale
199,Jacquet River School,3601.0,1.0,1.0,1.0,0.0,Public,"Kindergarten, 1-8",3970 Main Street Belledune E8G 2P1 NB,Belledune,NB,E8G 2P1,47.91814594889031,-66.00494360569756,Province of New Brunswick,3970 main street belledune e8g 2p1 nb,3970,main street
200,Carrefour Étudiant,4157.0,1.0,1.0,1.0,0.0,Public,"Maternelle, 1-8","795, rue École Beresford E8K 1V4 NB",Beresford,NB,E8K 1V4,47.705462085569344,-65.702336140461,Province of New Brunswick,795 rue école beresford e8k 1v4 nb,795,rue école
201,Superior Middle School,4207.0,,1.0,1.0,0.0,Public,6-8,560 Duke Street Bathurst E2A 2X5 NB,Bathurst,NB,E2A 2X5,47.62185262475357,-65.66877269084958,Province of New Brunswick,560 duke street bathurst e2a 2x5 nb,560,duke street
202,Parkwood Heights Elementary School,4260.0,1.0,1.0,0.0,0.0,Public,"Kindergarten, 1-5",1125 Highland Avenue Bathurst E2A 4P7 NB,Bathurst,NB,E2A 4P7,47.63381966703354,-65.69519926630754,Province of New Brunswick,1125 highland avenue bathurst e2a 4p7 nb,1125,highland avenue
203,École secondaire Népisiguit,4156.0,,0.0,1.0,1.0,Public,9-12,"915, rue Sainte-Anne Bathurst E2A 6X1 NB",Bathurst,NB,E2A 6X1,47.625376381941,-65.68391991660907,Province of New Brunswick,915 rue sainte anne bathurst e2a 6x1 nb,915,rue sainte anne
204,Place-des-Jeunes,4159.0,,1.0,1.0,0.0,Public,6-8,"975, rue Sainte-Anne Bathurst E2A 6X1 NB",Bathurst,NB,E2A 6X1,47.62540100501443,-65.68564989229169,Province of New Brunswick,975 rue sainte anne bathurst e2a 6x1 nb,975,rue sainte anne
205,Cité de l'Amitié,4161.0,1.0,1.0,0.0,0.0,Public,"Maternelle, 1-5","1300, avenue St-Joseph Bathurst E2A 3R5 NB",Bathurst,NB,E2A 3R5,47.63769337775402,-65.68588033378529,Province of New Brunswick,1300 avenue st joseph bathurst e2a 3r5 nb,1300,avenue
206,Gretna Green School,858.0,1.0,1.0,1.0,0.0,Public,"Kindergarten, 1-8",15 Gretna Green Drive Miramichi E1V 5V6 NB,Miramichi,NB,E1V 5V6,47.02630683237894,-65.52145009745345,Province of New Brunswick,15 gretna green drive miramichi e1v 5v6 nb,15,gretna green drive
207,North & South Esk Elementary School,859.0,1.0,1.0,0.0,0.0,Public,"Kindergarten, 1-6",36 Northwest Road Sunny Corner E9E 1J4 NB,Sunny Corner,NB,E9E 1J4,46.94924735945396,-65.81616195254118,Province of New Brunswick,36 northwest road sunny corner e9e 1j4 nb,36,northwest road
208,North & South Esk Regional High School,825.0,,0.0,1.0,1.0,Public,7-12,40 Northwest Road Sunny Corner E9E 1J4 NB,Sunny Corner,NB,E9E 1J4,46.95161640289338,-65.81339273926264,Province of New Brunswick,40 northwest road sunny corner e9e 1j4 nb,40,northwest road
209,École René-Chouinard,752.0,1.0,1.0,1.0,0.0,Public,"Maternelle, 1-8","3, chemin Drisdelle Settlement Lagaceville E9G 2N3 NB",Lagaceville,NB,E9G 2N3,47.22733622570683,-65.1826463483822,Province of New Brunswick,3 chemin drisdelle settlement lagaceville e9g 2n3 nb,3,chemin drisdelle settlement
210,Centre scolaire communautaire La fontaine,761.0,1.0,1.0,1.0,1.0,Public,"Maternelle, 1-12","700, rue Principale Néguac E9G 1N4 NB",Néguac,NB,E9G 1N4,47.24294178159586,-65.0802669523121,Province of New Brunswick,700 rue principale néguac e9g 1n4 nb,700,rue principale
211,Tabusintac Community School,802.0,1.0,1.0,1.0,0.0,Public,"Kindergarten, 1-8",66 Hierlihy Road Tabusintac E9H 1Z1 NB,Tabusintac,NB,E9H 1Z1,47.330925788817126,-65.01890460613853,Province of New Brunswick,66 hierlihy road tabusintac e9h 1z1 nb,66,hierlihy road
212,Dr. Losier Middle School,1025.0,,1.0,1.0,0.0,Public,6-8,124 Henderson Street Miramichi E1N 2S2 NB,Miramichi,NB,E1N 2S2,47.024361674304885,-65.45945882979915,Province of New Brunswick,124 henderson street miramichi e1n 2s2 nb,124,henderson street
213,James M. Hill Memorial High School,1020.0,,0.0,1.0,1.0,Public,9-12,128 Henderson Street Miramichi E1N 2S2 NB,Miramichi,NB,E1N 2S2,47.02298063726256,-65.45678522302046,Province of New Brunswick,128 henderson street miramichi e1n 2s2 nb,128,henderson street
214,Miramichi Valley High School,811.0,,0.0,1.0,1.0,Public,9-12,345 McKenna Avenue Miramichi E1V 3S9 NB,Miramichi,NB,E1V 3S9,47.00679268513442,-65.58305679208847,Province of New Brunswick,345 mckenna avenue miramichi e1v 3s9 nb,345,mckenna avenue
215,École Carrefour Beausoleil,5301.0,1.0,1.0,1.0,1.0,Public,"Maternelle, 1-12","300, chemin Beaverbrook Miramichi E1V 1A1 NB",Miramichi,NB,E1V 1A1,47.00895988439642,-65.58770728945319,Province of New Brunswick,300 chemin beaverbrook miramichi e1v 1a1 nb,300,chemin beaverbrook
216,Nelson Rural School,1017.0,1.0,1.0,1.0,0.0,Public,"Kindergarten, 1-8",26 St. Patricks Drive Miramichi E1N 5T9 NB,Miramichi,NB,E1N 5T9,46.97877687584204,-65.55416048616091,Province of New Brunswick,26 st patricks drive miramichi e1n 5t9 nb,26,st patricks drive
217,École Anna-Malenfant,1357.0,1.0,1.0,0.0,0.0,Public,"Maternelle, 1-5","500, rue Centrale Nord Dieppe E1A 6V7 NB",Dieppe,NB,E1A 6V7,46.085876993574075,-64.71849095325527,Province of New Brunswick,500 rue centrale nord dieppe e1a 6v7 nb,500,rue centrale nord
218,École Grande-Digue,1358.0,1.0,1.0,1.0,0.0,Public,"Maternelle, 1-8","365, Route 530 Grande-Digue E4R 5C8 NB",Grande-Digue,NB,E4R 5C8,46.29382243408431,-64.56745208142962,Province of New Brunswick,365 route 530 grande digue e4r 5c8 nb,365,route 530
219,Shediac Cape School,1553.0,1.0,1.0,1.0,0.0,Public,"Kindergarten, 1-8",3375 Route 134 Shediac Cape E4P 3G4 NB,Shediac Cape,NB,E4P 3G4,46.233706457055504,-64.56712976940345,Province of New Brunswick,3375 route 134 shediac cape e4p 3g4 nb,3375,route 134
220,École Amirault,1348.0,1.0,1.0,0.0,0.0,Public,"Maternelle, 1-2","401, chemin Melanson Dieppe E1A 1A5 NB",Dieppe,NB,E1A 1A5,46.0696097518852,-64.71800920403926,Province of New Brunswick,401 chemin melanson dieppe e1a 1a5 nb,401,chemin melanson
221,École Sainte-Thérèse,1335.0,1.0,1.0,0.0,0.0,Public,"Maternelle, 1-5","500, rue Notre-Dame Dieppe E1A 5C2 NB",Dieppe,NB,E1A 5C2,46.097948194478406,-64.75013473468829,Province of New Brunswick,500 rue notre dame dieppe e1a 5c2 nb,500,rue notre dame
222,École Mathieu-Martin,1355.0,,0.0,1.0,1.0,Public,9-12,"511, rue Champlain Dieppe E1A 1P2 NB",Dieppe,NB,E1A 1P2,46.09993137782614,-64.7339326430009,Province of New Brunswick,511 rue champlain dieppe e1a 1p2 nb,511,rue champlain
223,Lou MacNarin School,1574.0,1.0,1.0,0.0,0.0,Public,"Kindergarten, 1-5",555 Gauvin Road Dieppe E1A 1M7 NB,Dieppe,NB,E1A 1M7,46.09776082012041,-64.73258020467823,Province of New Brunswick,555 gauvin road dieppe e1a 1m7 nb,555,gauvin road
224,École Carrefour de l'Acadie,1361.0,,1.0,1.0,0.0,Public,6-8,"515, rue Champlain Dieppe E1A 1P2 NB",Dieppe,NB,E1A 1P2,46.10066186268549,-64.73254819538892,Province of New Brunswick,515 rue champlain dieppe e1a 1p2 nb,515,rue champlain
225,Gagetown School,2522.0,1.0,1.0,1.0,0.0,Public,"Kindergarten, 1-8",6 Loomcroft Lane Gagetown E5M 1H2 NB,Gagetown,NB,E5M 1H2,45.776536078552894,-66.14362680243369,Province of New Brunswick,6 loomcroft lane gagetown e5m 1h2 nb,6,loomcroft lane
226,Burton Elementary School,2501.0,1.0,1.0,0.0,0.0,Public,"Kindergarten, 1-2",412 Route 102 Hwy Burton E2V 3C7 NB,Burton,NB,E2V 3C7,45.875261629537476,-66.37058677196771,Province of New Brunswick,412 route 102 hwy burton e2v 3c7 nb,412,route 102 hwy
227,Cambridge-Narrows Community School,2412.0,1.0,1.0,1.0,1.0,Public,"Kindergarten, 1-12",2158 Lakeview Road Cambridge-Narrows E4C 1N8 NB,Cambridge-Narrows,NB,E4C 1N8,45.83714311629495,-65.9532168588954,Province of New Brunswick,2158 lakeview road cambridge narrows e4c 1n8 nb,2158,lakeview road
228,Petitcodiac Regional School,1604.0,1.0,1.0,1.0,1.0,Public,"Kindergarten, 1-12",1 Corey Avenue P.O. Box 2502 Petitcodiac E4Z 6H4 NB,Petitcodiac,NB,E4Z 6H4,45.934153884638356,-65.1794600520453,Province of New Brunswick,1 corey avenue petitcodiac e4z 6h4 nb,1,corey avenue
229,Havelock School,1602.0,1.0,1.0,0.0,0.0,Public,"Kindergarten, 1-5",4530 Route 880 Havelock E4Z 5K6 NB,Havelock,NB,E4Z 5K6,45.99291066542862,-65.31680138377395,Province of New Brunswick,4530 route 880 havelock e4z 5k6 nb,4530,route 880
230,Hampton Middle School,1921.0,,1.0,1.0,0.0,Public,6-8,11 School Street P.O. Box 250 Hampton E5N 6B1 NB,Hampton,NB,E5N 6B1,45.533535538428794,-65.8307447232295,Province of New Brunswick,11 school street hampton e5n 6b1 nb,11,school street
231,Hampton Elementary School,1939.0,,1.0,0.0,0.0,Public,2-5,82 School Street Hampton E5N 6B2 NB,Hampton,NB,E5N 6B2,45.53399635113921,-65.82772423521929,Province of New Brunswick,82 school street hampton e5n 6b2 nb,82,school street
232,Dr. A. T. Leatherbarrow Primary School,1940.0,1.0,1.0,0.0,0.0,Public,"Kindergarten, 1-2",122 School Street Hampton E5N 6B2 NB,Hampton,NB,E5N 6B2,45.53607674211234,-65.82820132571729,Province of New Brunswick,122 school street hampton e5n 6b2 nb,122,school street
233,Hampton High School,1947.0,,0.0,1.0,1.0,Public,9-12,34 Elizabeth Avenue Hampton E5N 5P7 NB,Hampton,NB,E5N 5P7,45.51800715975951,-65.83835575241356,Province of New Brunswick,34 elizabeth avenue hampton e5n 5p7 nb,34,elizabeth avenue
234,Hammond River Valley Elementary School,1944.0,1.0,1.0,0.0,0.0,Public,"Kindergarten, 1-5",1759 Route 860 P.O. Box 1062 Hampton E5N 8H1 NB,Hampton,NB,E5N 8H1,45.48619669046689,-65.75258178147796,Province of New Brunswick,1759 route 860 hampton e5n 8h1 nb,1759,route 860
235,McAdam Avenue School,2622.0,1.0,1.0,0.0,0.0,Public,"Kindergarten, 1-5",129 McAdam Avenue Fredericton E3A 1G7 NB,Fredericton,NB,E3A 1G7,45.98162408509485,-66.67646493935788,Province of New Brunswick,129 mcadam avenue fredericton e3a 1g7 nb,129,mcadam avenue
236,Nashwaaksis Middle School,2636.0,,1.0,1.0,0.0,Public,6-8,324 Fulton Avenue Fredericton E3A 5J4 NB,Fredericton,NB,E3A 5J4,45.98520662096193,-66.64290940513942,Province of New Brunswick,324 fulton avenue fredericton e3a 5j4 nb,324,fulton avenue
237,Nashwaaksis Memorial School,2621.0,1.0,1.0,0.0,0.0,Public,"Kindergarten, 1-5",80 Main Street Fredericton E3A 1C4 NB,Fredericton,NB,E3A 1C4,45.98062975017957,-66.65996237397593,Province of New Brunswick,80 main street fredericton e3a 1c4 nb,80,main street
238,Park Street Elementary School,2623.0,1.0,1.0,0.0,0.0,Public,"Kindergarten, 1-5",111 Park Street Fredericton E3A 2J6 NB,Fredericton,NB,E3A 2J6,45.98099794122526,-66.6469416587297,Province of New Brunswick,111 park street fredericton e3a 2j6 nb,111,park street
239,Devon Middle School,2605.0,,1.0,1.0,0.0,Public,6-8,681 Dobie Street Fredericton E3A 2Z2 NB,Fredericton,NB,E3A 2Z2,45.96809409669811,-66.62463528678548,Province of New Brunswick,681 dobie street fredericton e3a 2z2 nb,681,dobie street
240,Leo Hayes High School,2640.0,,0.0,1.0,1.0,Public,9-12,499 Cliffe Street Fredericton E3A 9P5 NB,Fredericton,NB,E3A 9P5,45.97900255273115,-66.62173885771884,Province of New Brunswick,499 cliffe street fredericton e3a 9p5 nb,499,cliffe street
241,École Grande-Rivière,3215.0,1.0,1.0,1.0,1.0,Public,"Maternelle, 1-12","40, rue de l'École Saint-Léonard E7E 1Y6 NB",Saint-Léonard,NB,E7E 1Y6,47.16312206049953,-67.92762012837315,Province of New Brunswick,40 rue de l'école saint léonard e7e 1y6 nb,40,rue de l'école
242,John Caldwell School,5001.0,1.0,1.0,1.0,1.0,Public,"Kindergarten, 1-12",130 Victoria Street Grand-Sault/Grand Falls E3Z 3B7 NB,Grand-Sault/Grand Falls,NB,E3Z 3B7,47.04818892232608,-67.73599067508509,Province of New Brunswick,130 victoria street grand sault/grand falls e3z 3b7 nb,130,victoria street
243,École Mgr-Lang,3205.0,1.0,1.0,0.0,0.0,Public,"Maternelle, 1-6","1365, rue Tobique Drummond E3Y 2P4 NB",Drummond,NB,E3Y 2P4,47.04007614262226,-67.68935873422598,Province of New Brunswick,1365 rue tobique drummond e3y 2p4 nb,1365,rue tobique drummond
244,Régionale-de-Saint-André,3211.0,1.0,1.0,0.0,0.0,Public,"Maternelle, 1-6","477, rue de l'Église Saint-André E3Y 2Y2 NB",Saint-André,NB,E3Y 2Y2,47.10063074691308,-67.76600203394293,Province of New Brunswick,477 rue de l'église saint andré e3y 2y2 nb,477,rue de l'église
245,Élémentaire Sacré-Coeur,3218.0,1.0,1.0,0.0,0.0,Public,"Maternelle, 1-6","689, boul. Éverard H. Daigle Grand-Sault/Grand Falls E3Z 3C5 NB",Grand-Sault/Grand Falls,NB,E3Z 3C5,47.04475238473579,-67.75787411643265,Province of New Brunswick,689 boul éverard h daigle grand sault/grand falls e3z 3c5 nb,689,boul éverard h daigle
246,Polyvalente Thomas-Albert,3217.0,,0.0,1.0,1.0,Public,7-12,"215, rue Guimont Grand-Sault/Grand Falls E3Y 1C7 NB",Grand-Sault/Grand Falls,NB,E3Y 1C7,47.05667507362846,-67.73055211040605,Province of New Brunswick,215 rue guimont grand sault/grand falls e3y 1c7 nb,215,rue guimont
247,Polyvalente A.-J.-Savoie,118.0,,0.0,1.0,1.0,Public,7-12,"210, rue Mgr Martin E Saint-Quentin E8A 1W1 NB",Saint-Quentin,NB,E8A 1W1,47.515470663586775,-67.38529758527592,Province of New Brunswick,210 rue mgr martin e saint quentin e8a 1w1 nb,210,rue mgr martin e
248,École Mgr-Martin,101.0,1.0,1.0,0.0,0.0,Public,"Maternelle, 1-6","15, rue Deschênes Saint-Quentin E8A 1M2 NB",Saint-Quentin,NB,E8A 1M2,47.510587833105895,-67.38903915981892,Province of New Brunswick,15 rue deschênes saint quentin e8a 1m2 nb,15,rue deschênes
249,École Marie-Gaétane,109.0,1.0,1.0,1.0,1.0,Public,"Maternelle, 1-12","16, rue Fraser Kedgwick E8B 1E6 NB",Kedgwick,NB,E8B 1E6,47.647729099944286,-67.34705522657171,Province of New Brunswick,16 rue fraser kedgwick e8b 1e6 nb,16,rue fraser
250,Grand Bay Primary School,2068.0,1.0,1.0,0.0,0.0,Public,"Kindergarten, 1-2",92 Woolastook Drive Grand Bay-Westfield E5K 1S4 NB,Grand Bay-Westfield,NB,E5K 1S4,45.31391838123866,-66.1956280287271,Province of New Brunswick,92 woolastook drive grand bay westfield e5k 1s4 nb,92,woolastook drive
251,Inglewood School,2016.0,,1.0,0.0,0.0,Public,3-5,10 School Street Grand Bay-Westfield E5K 1R6 NB,Grand Bay-Westfield,NB,E5K 1R6,45.30999179865788,-66.19726747520133,Province of New Brunswick,10 school street grand bay westfield e5k 1r6 nb,10,school street
252,River Valley Middle School,2072.0,,1.0,1.0,0.0,Public,6-8,33 Epworth Park Road Grand Bay-Westfield E5K 1W1 NB,Grand Bay-Westfield,NB,E5K 1W1,45.321311319693386,-66.19845674794523,Province of New Brunswick,33 epworth park road grand bay westfield e5k 1w1 nb,33,epworth park road
253,Westfield School,2062.0,1.0,1.0,0.0,0.0,Public,"Kindergarten, 1-5",147 Nerepis Road Grand Bay-Westfield E5K 2Z5 NB,Grand Bay-Westfield,NB,E5K 2Z5,45.34321542633956,-66.22470976737475,Province of New Brunswick,147 nerepis road grand bay westfield e5k 2z5 nb,147,nerepis road
254,Norton Elementary School,1811.0,1.0,1.0,0.0,0.0,Public,"Kindergarten, 1-5",274 Route 124 P.O. Box 333 Norton E5T 1J7 NB,Norton,NB,E5T 1J7,45.64071459914231,-65.70058731691526,Province of New Brunswick,274 route 124 norton e5t 1j7 nb,274,route 124
255,Belleisle Regional High School,1945.0,,1.0,1.0,1.0,Public,6-12,"1800 Route 124 Springfield,Kings County E5T 2K2 NB","Springfield,Kings County",NB,E5T 2K2,45.67102010940919,-65.8324147301643,Province of New Brunswick,1800 route 124 springfield kings county e5t 2k2 nb,1800,route 124
256,Belleisle Elementary School,1938.0,1.0,1.0,0.0,0.0,Public,"Kindergarten, 1-5","1775 Route 124 Springfield,Kings County E5T 2J9 NB","Springfield,Kings County",NB,E5T 2J9,45.67029953997992,-65.82841096170291,Province of New Brunswick,1775 route 124 springfield kings county e5t 2j9 nb,1775,route 124
257,Macdonald Consolidated School,1925.0,1.0,1.0,1.0,0.0,Public,"Kindergarten, 1-8",3950 Route 845 Kingston E5N 1E9 NB,Kingston,NB,E5N 1E9,45.502139744531625,-65.97503981477614,Province of New Brunswick,3950 route 845 kingston e5n 1e9 nb,3950,route 845
258,Gibson-Neill Memorial Elementary School,2642.0,1.0,1.0,0.0,0.0,Public,"Kindergarten, 1-5",67 Wyngate Drive Fredericton E3A 6G1 NB,Fredericton,NB,E3A 6G1,45.981124632086804,-66.60705115431128,Province of New Brunswick,67 wyngate drive fredericton e3a 6g1 nb,67,wyngate drive
259,École Les Éclaireurs,5139.0,1.0,1.0,1.0,0.0,Public,"Maternelle, 1-8","160, promenade Eco Terra Fredericton E3A 9M1 NB",Fredericton,NB,E3A 9M1,45.971018021817464,-66.61731716064939,Province of New Brunswick,160 promenade eco terra fredericton e3a 9m1 nb,160,promenade eco terra
260,École L'Étincelle,625.0,1.0,1.0,1.0,0.0,Public,"Maternelle, 1-8","70, rue de l'Église Sainte-Marie-Saint-Raphaël E8T 1N8 NB",Sainte-Marie-Saint-Raphaël,NB,E8T 1N8,47.80130494158906,-64.56820582027268,Province of New Brunswick,70 rue de l'église sainte marie saint raphaël e8t 1n8 nb,70,rue de l'église
261,École Soeur-Saint-Alexandre,604.0,1.0,1.0,1.0,0.0,Public,"Maternelle, 1-8","65, rue de l'École Lamèque E8T 1B7 NB",Lamèque,NB,E8T 1B7,47.796225938407886,-64.6485124762584,Province of New Brunswick,65 rue de l'école lamèque e8t 1b7 nb,65,rue de l'école
262,École L'Envolée,627.0,1.0,1.0,1.0,0.0,Public,"Maternelle, 1-8","135, rue de l'École Shippagan E8S 1V5 NB",Shippagan,NB,E8S 1V5,47.73898351449434,-64.73078345170745,Province of New Brunswick,135 rue de l'école shippagan e8s 1v5 nb,135,rue de l'école
263,École Marie-Esther,601.0,,0.0,1.0,1.0,Public,9-12,"201, rue Hôtel de Ville Shippagan E8S 1L1 NB",Shippagan,NB,E8S 1L1,47.74039713331288,-64.7169797402281,Province of New Brunswick,201 rue hôtel de ville shippagan e8s 1l1 nb,201,rue hôtel de ville
264,École La-Rivière,609.0,1.0,1.0,1.0,0.0,Public,"Maternelle, 1-8","11291, Route 11 Pokemouche E8P 1H9 NB",Pokemouche,NB,E8P 1H9,47.66616321035009,-64.87660304471538,Province of New Brunswick,11291 route 11 pokemouche e8p 1h9 nb,11291,route 11
265,Minto Memorial High School,2407.0,,0.0,1.0,1.0,Public,9-12,126 Park Street Minto E4B 3K9 NB,Minto,NB,E4B 3K9,46.07733058428979,-66.06422435598779,Province of New Brunswick,126 park street minto e4b 3k9 nb,126,park street
266,Minto Elementary Middle School,2411.0,1.0,1.0,1.0,0.0,Public,"Kindergarten, 1-8",42 Cedar Street Minto E4B 2Z9 NB,Minto,NB,E4B 2Z9,46.08508376992805,-66.04638075981485,Province of New Brunswick,42 cedar street minto e4b 2z9 nb,42,cedar street
267,Chipman Elementary School,2404.0,1.0,1.0,0.0,0.0,Public,"Kindergarten, 1-5",159 Bridge Street Chipman E4A 1R8 NB,Chipman,NB,E4A 1R8,46.18158919234684,-65.88998205030445,Province of New Brunswick,159 bridge street chipman e4a 1r8 nb,159,bridge street
268,Chipman Forest Avenue School,2413.0,,1.0,1.0,1.0,Public,6-12,33 Forest Avenue Chipman E4A 1Z8 NB,Chipman,NB,E4A 1Z8,46.18305737097718,-65.86748776386328,Province of New Brunswick,33 forest avenue chipman e4a 1z8 nb,33,forest avenue
269,Barkers Point Elementary School,2602.0,1.0,1.0,0.0,0.0,Public,"Kindergarten, 1-5",39 Carmen Avenue Fredericton E3A 3W9 NB,Fredericton,NB,E3A 3W9,45.95246310017283,-66.61796852122096,Province of New Brunswick,39 carmen avenue fredericton e3a 3w9 nb,39,carmen avenue
270,École Régionale Saint-Basile,3317.0,1.0,1.0,1.0,0.0,Public,"Maternelle, 1-8","247, rue Principale Saint-Basile E7C 1H7 NB",Saint-Basile,NB,E7C 1H7,47.35703590999504,-68.22639963103465,Province of New Brunswick,247 rue principale saint basile e7c 1h7 nb,247,rue principale
271,Cité des Jeunes A.-M.-Sormany,3325.0,,0.0,1.0,1.0,Public,9-12,"300, rue Martin Edmundston E3V 0G9 NB",Edmundston,NB,E3V 0G9,47.370906296689775,-68.31023267460388,Province of New Brunswick,300 rue martin edmundston e3v 0g9 nb,300,rue martin
272,École Notre-Dame,3309.0,1.0,1.0,1.0,0.0,Public,"Maternelle, 1-8","99, rue Martin Edmundston E3V 2M7 NB",Edmundston,NB,E3V 2M7,47.37291867825776,-68.323119560286,Province of New Brunswick,99 rue martin edmundston e3v 2m7 nb,99,rue martin
273,École Mgr-Matthieu-Mazerolle,3320.0,1.0,1.0,1.0,0.0,Public,"Maternelle, 1-8","4, rue de l'École Rivière-Verte E7C 2R4 NB",Rivière-Verte,NB,E7C 2R4,47.31685741697674,-68.14144714872728,Province of New Brunswick,4 rue de l'école rivière verte e7c 2r4 nb,4,rue de l'école
274,École Régionale Sainte-Anne,3321.0,1.0,1.0,1.0,0.0,Public,"Maternelle, 1-8","39, rue St-Joseph Sainte-Anne-de-Madawaska E7E 1K8 NB",Sainte-Anne-de-Madawaska,NB,E7E 1K8,47.24944372274796,-68.02898691789834,Province of New Brunswick,39 rue st joseph sainte anne de madawaska e7e 1k8 nb,39,rue st joseph
275,Central New Brunswick Academy,910.0,,1.0,1.0,1.0,Public,6-12,"7263 Route 8 Hwy New Bandon, Northumb Co. E9C 2A7 NB","New Bandon, Northumb Co.",NB,E9C 2A7,46.49861558935992,-66.29320823844125,Province of New Brunswick,7263 route 8 hwy new bandon northumb co e9c 2a7 nb,7263,route 8 hwy
276,École Régionale de Baie-Sainte-Anne,3905.0,1.0,1.0,1.0,1.0,Public,"Maternelle, 1-12","5362, Route 117 Baie-Sainte-Anne E9A 1V9 NB",Baie-Sainte-Anne,NB,E9A 1V9,47.048245574752464,-64.96553126359503,Province of New Brunswick,5362 route 117 baie sainte anne e9a 1v9 nb,5362,route 117
277,Miramichi Rural School,1013.0,1.0,1.0,1.0,0.0,Public,"Kindergarten, 1-8",7366 Route 117 Miramichi Bay E1N 5L7 NB,Miramichi Bay,NB,E1N 5L7,47.03763125812165,-65.18139286431337,Province of New Brunswick,7366 route 117 miramichi bay e1n 5l7 nb,7366,route 117
278,Napan Elementary School,1014.0,1.0,1.0,0.0,0.0,Public,"Kindergarten, 1-5",225 South Napan Road Napan E1N 4W2 NB,Napan,NB,E1N 4W2,47.015611929604646,-65.40109334865508,Province of New Brunswick,225 south napan road napan e1n 4w2 nb,225,south napan road
279,Millerton Elementary & Junior High School,839.0,1.0,1.0,1.0,0.0,Public,"Kindergarten, 1-8",4711 Route 108 Hwy Derby E1V 5C3 NB,Derby,NB,E1V 5C3,46.88569544668093,-65.65978535607657,Province of New Brunswick,4711 route 108 hwy derby e1v 5c3 nb,4711,route 108 hwy
280,Upper Miramichi Elementary School,905.0,1.0,1.0,0.0,0.0,Public,"Kindergarten, 1-5",3460 Route 625 Boiestown E6A 1C8 NB,Boiestown,NB,E6A 1C8,46.45122446359671,-66.43401206072822,Province of New Brunswick,3460 route 625 boiestown e6a 1c8 nb,3460,route 625
281,Doaktown Elementary School,901.0,1.0,1.0,0.0,0.0,Public,"Kindergarten, 1-5",430 Main Street Doaktown E9C 1E8 NB,Doaktown,NB,E9C 1E8,46.556556183443384,-66.12521035613264,Province of New Brunswick,430 main street doaktown e9c 1e8 nb,430,main street
282,Blackville School,843.0,1.0,1.0,1.0,1.0,Public,"Kindergarten, 1-12",12 MacLaggan Drive Blackville E9B 1Y4 NB,Blackville,NB,E9B 1Y4,46.73972026719302,-65.83754601496733,Province of New Brunswick,12 maclaggan drive blackville e9b 1y4 nb,12,maclaggan drive
283,Townsview School,2911.0,1.0,1.0,1.0,0.0,Public,"Kindergarten, 1-8",122 Lewis P. Fisher Lane Woodstock E7M 0G6 NB,Woodstock,NB,E7M 0G6,46.159535392386964,-67.57768529863624,Province of New Brunswick,122 lewis p fisher lane woodstock e7m 0g6 nb,122,lewis p fisher lane
284,Meduxnekeag Consolidated School,2910.0,1.0,1.0,1.0,0.0,Public,"Kindergarten, 1-8",200 School Street Woodstock E7M 0G7 NB,Woodstock,NB,E7M 0G7,46.141899841079216,-67.61958032218925,Province of New Brunswick,200 school street woodstock e7m 0g7 nb,200,school street
285,École des Pionniers,5202.0,1.0,1.0,0.0,0.0,Public,"Maternelle, 1-5","250, chemin Quispamsis Quispamsis E2E 0R7 NB",Quispamsis,NB,E2E 0R7,45.42518205706965,-65.96288798001514,Province of New Brunswick,250 chemin quispamsis quispamsis e2e 0r7 nb,250,chemin quispamsis
286,École Antonine-Maillet,1364.0,,1.0,1.0,0.0,Public,6-8,"1630, boulevard Dieppe Dieppe E1A 8P5 NB",Dieppe,NB,E1A 8P5,46.07286028245717,-64.68961817545764,Province of New Brunswick,1630 boulevard dieppe dieppe e1a 8p5 nb,1630,boulevard
287,Maplehurst Middle School,1579.0,,1.0,1.0,0.0,Public,6-8,320 Maplehurst Drive Moncton E1G 0E4 NB,Moncton,NB,E1G 0E4,46.115872485660894,-64.87442540679858,Province of New Brunswick,320 maplehurst drive moncton e1g 0e4 nb,320,maplehurst drive
288,Chris Saunders Memorial Elementary School,1948.0,1.0,1.0,0.0,0.0,Public,"Kindergarten, 1-5",187 Pettingill Road Quispamsis E2E 3S8 NB,Quispamsis,NB,E2E 3S8,45.42644963159646,-65.96983619695216,Province of New Brunswick,187 pettingill road quispamsis e2e 3s8 nb,187,pettingill road
289,Max Aitken Academy,860.0,1.0,1.0,1.0,0.0,Public,"Kindergarten, 1-8",58 Crocker Cresent Miramichi E1V 3T8 NB,Miramichi,NB,E1V 3T8,46.994872367408114,-65.57747182160382,Province of New Brunswick,58 crocker cresent miramichi e1v 3t8 nb,58,crocker cresent
290,École Champlain,1334.0,1.0,1.0,1.0,0.0,Public,"Maternelle, 1-8","210, promenade Erinvale Moncton E1A 9T4 NB",Moncton,NB,E1A 9T4,46.12059166605568,-64.73499593255923,Province of New Brunswick,210 promenade erinvale moncton e1a 9t4 nb,210,promenade erinvale
291,École Le Marais,1363.0,,1.0,0.0,0.0,Public,3-5,"1620, boulevard Dieppe Dieppe E1A 8P5 NB",Dieppe,NB,E1A 8P5,46.07180019462484,-64.68883198405285,Province of New Brunswick,1620 boulevard dieppe dieppe e1a 8p5 nb,1620,boulevard
292,King Street Elementary School,1026.0,1.0,1.0,0.0,0.0,Public,"Kindergarten, 1-5",101 King Street Miramichi E1N 2N5 NB,Miramichi,NB,E1N 2N5,47.027660297479116,-65.45624157466784,Province of New Brunswick,101 king street miramichi e1n 2n5 nb,101,king street
293,Le Galion des Appalaches,3724.0,1.0,1.0,1.0,0.0,Public,"Maternelle, 1-8","61, rue Dover Campbellton E3N 1P7 NB",Campbellton,NB,E3N 1P7,48.00086892101023,-66.66512984922007,Province of New Brunswick,61 rue dover campbellton e3n 1p7 nb,61,rue dover
294,Seaside Park Elementary School,2075.0,1.0,1.0,0.0,0.0,Public,"Kindergarten, 1-5",627 Havelock Street Saint John E2M 2V4 NB,Saint John,NB,E2M 2V4,45.249864333615,-66.08190595067785,Province of New Brunswick,627 havelock street saint john e2m 2v4 nb,627,havelock street
0,Bathurst Transition Center,4299.0,,1.0,1.0,1.0,Alternative Learning Centre,6--12,115 Main Street Bathurst E2A 1A6 NB,Bathurst,NB,E2A 1A6,,,Province of New Brunswick,115 main street bathurst e2a 1a6 nb,115,main street
1,Bengals II,,,0.0,1.0,1.0,Alternative Learning Centre,9--12,145 Main Street Rexton E4W 2A6 NB,Rexton,NB,E4W 2A6,,,Province of New Brunswick,145 main street rexton e4w 2a6 nb,145,main street
2,Campbellton Learning Center,3899.0,,0.0,1.0,1.0,Alternative Learning Centre,9--12,29 Roseberry Street Campbellton E3N 2G3 NB,Campbellton,NB,E3N 2G3,,,Province of New Brunswick,29 roseberry street campbellton e3n 2g3 nb,29,roseberry street
3,Centre d'apprentissage (La Traversée),,,0.0,1.0,1.0,Alternative Learning Centre,9--12,"1, rue Aberdeen Campbellton E3N 2J3 NB",Campbellton,NB,E3N 2J3,,,Province of New Brunswick,1 rue aberdeen campbellton e3n 2j3 nb,1,rue aberdeen
4,Centre de formation secondaire de Bouctouche,,,0.0,1.0,1.0,Alternative Learning Centre,9--12,"5, boulevard Irving Bouctouche E4S 3J3 NB",Bouctouche,NB,E4S 3J3,,,Province of New Brunswick,5 boulevard irving bouctouche e4s 3j3 nb,5,boulevard irving
5,Centre de formation secondaire de Richibucto,,,0.0,1.0,1.0,Alternative Learning Centre,9--12,"Édifice du CCNB 149, rue Acadie - Unité 203 Richibucto E4W 3V5 NB",Richibucto,NB,E4W 3V5,,,Province of New Brunswick,édifice du ccnb 149 rue acadie unité 203 richibucto e4w 3v5 nb,149,rue acadie
6,Centre de formation secondaire de Shédiac,,,0.0,1.0,1.0,Alternative Learning Centre,9--12,"84, rue Festival Shediac E4P 1S4 NB",Shediac,NB,E4P 1S4,,,Province of New Brunswick,84 rue festival shediac e4p 1s4 nb,84,rue festival
7,Centre KC Irving (École secondaire Népisiguit),,,0.0,0.0,1.0,Alternative Learning Centre,10--12,"850, rue Sainte-Anne Bathurst E2A 6X2 NB",Bathurst,NB,E2A 6X2,,,Province of New Brunswick,850 rue sainte anne bathurst e2a 6x2 nb,850,rue sainte anne
8,Classe alternative (Cité des Jeunes),,,0.0,1.0,1.0,Alternative Learning Centre,9--12,"625, rue Victoria, Suite 101 Edmundston E3V 3M8 NB",Edmundston,NB,E3V 3M8,,,Province of New Brunswick,625 rue victoria edmundston e3v 3m8 nb,625,rue victoria
9,Classe alternative (École Marie-Gaétane),,,0.0,1.0,1.0,Alternative Learning Centre,9--12,"16, rue Fraser Kedgwick E8B 1E6 NB",Kedgwick,NB,E8B 1E6,,,Province of New Brunswick,16 rue fraser kedgwick e8b 1e6 nb,16,rue fraser
10,Classe alternative (Polyvalente Thomas-Albert),,,0.0,1.0,1.0,Alternative Learning Centre,9--12,"101, chemin St-André Saint-André E3Y 3N4 NB",Saint-André,NB,E3Y 3N4,,,Province of New Brunswick,101 chemin st andré saint andré e3y 3n4 nb,101,chemin st andré
11,Compass Education Support Program,2064.0,,0.0,1.0,1.0,Alternative Learning Centre,9--12,55 Westmorland Street Saint John E2J 2E3 NB,Saint John,NB,E2J 2E3,,,Province of New Brunswick,55 westmorland street saint john e2j 2e3 nb,55,westmorland street
12,Compass-Sussex,,,0.0,1.0,1.0,Alternative Learning Centre,9--12,15 Vail Court Sussex E4E 2R9 NB,Sussex,NB,E4E 2R9,,,Province of New Brunswick,15 vail court sussex e4e 2r9 nb,15,vail court
13,Dalhousie Learning Center,,,0.0,1.0,1.0,Alternative Learning Centre,9--12,410 William Street Dalhousie E8C 2X4 NB,Dalhousie,NB,E8C 2X4,,,Province of New Brunswick,410 william street dalhousie e8c 2x4 nb,410,william street
14,Fredericton Education Centre (Enterprise Centre),2600.0,,1.0,1.0,1.0,Alternative Learning Centre,6--12,300 Priestman Street Enterprise Centre (Fredericton High School) Fredericton E3B 4X6 NB,Fredericton,NB,E3B 4X6,,,Province of New Brunswick,300 priestman street enterprise centre fredericton e3b 4x6 nb,300,priestman street enterprise centre
15,J.M.A. Armstrong/Salisbury Middle (LC),,,0.0,1.0,1.0,Alternative Learning Centre,9--12,55 Douglas Street Salisbury E4J 2B4 NB,Salisbury,NB,E4J 2B4,,,Province of New Brunswick,55 douglas street salisbury e4j 2b4 nb,55,douglas street
16,Petitcodiac Regional School (LC),,,0.0,1.0,1.0,Alternative Learning Centre,9--12,1 Corey Avenue P. O. Box 2502 Petitcodiac E4Z 6H4 NB,Petitcodiac,NB,E4Z 6H4,,,Province of New Brunswick,1 corey avenue p o petitcodiac e4z 6h4 nb,1,corey avenue p o
17,PHARE Caraquet,,,0.0,1.0,1.0,Alternative Learning Centre,9--12,C.P. 5751 Caraquet E1W 1B7 NB,Caraquet,NB,E1W 1B7,,,Province of New Brunswick,caraquet e1w 1b7 nb,,
18,PHARE Néguac,,,0.0,1.0,1.0,Alternative Learning Centre,9--12,"700, rue Principale Néguac E9G 1N4 NB",Néguac,NB,E9G 1N4,,,Province of New Brunswick,700 rue principale néguac e9g 1n4 nb,700,rue principale
19,PHARE Shippagan,,,0.0,1.0,1.0,Alternative Learning Centre,9--12,"201, rue Hôtel de Ville Shippagan E8S 1L1 NB",Shippagan,NB,E8S 1L1,,,Province of New Brunswick,201 rue hôtel de ville shippagan e8s 1l1 nb,201,rue hôtel de ville
20,PHARE Tracadie-Sheila,,,0.0,1.0,1.0,Alternative Learning Centre,9--12,"C.P. 3680, Succ. Bureau Chef Tracadie-Sheila E1X 1G5 NB",Tracadie-Sheila,NB,E1X 1G5,,,Province of New Brunswick,succ bureau chef tracadie sheila e1x 1g5 nb,,
21,Programme Essentiel (École secondaire Népisiguit),,,0.0,1.0,1.0,Alternative Learning Centre,8--12,"915, rue Sainte-Anne Bathurst E2A 6X1 NB",Bathurst,NB,E2A 6X1,,,Province of New Brunswick,915 rue sainte anne bathurst e2a 6x1 nb,915,rue sainte anne
22,Pulamoo II,,,,,,Alternative Learning Centre,,155 Pleasant Street Miramichi E1V 1Y3 NB,Miramichi,NB,E1V 1Y3,,,Province of New Brunswick,155 pleasant street miramichi e1v 1y3 nb,155,pleasant street
23,Tantramar Regional High School (LC),,,0.0,1.0,1.0,Alternative Learning Centre,9--12,223 Main Street Sackville E4L 3A7 NB,Sackville,NB,E4L 3A7,,,Province of New Brunswick,223 main street sackville e4l 3a7 nb,223,main street
24,Therapeutic Education Support Site,201.0,,0.0,1.0,1.0,Alternative Learning Centre,9--12,125 Park Street Moncton E1C 2B4 NB,Moncton,NB,E1C 2B4,,,Province of New Brunswick,125 park street moncton e1c 2b4 nb,125,park street
25,Tommies II,,,0.0,1.0,1.0,Alternative Learning Centre,9--12,139 Duke Street Miramichi E1N 1H6 NB,Miramichi,NB,E1N 1H6,,,Province of New Brunswick,139 duke street miramichi e1n 1h6 nb,139,duke street
0,New Brunswick Youth Centre,,,,,,External Service Facility,,4 Airport Drive P.O. Box 1100 Miramichi E1N 3W4 NB,Miramichi,NB,E1N 3W4,,,Province of New Brunswick,4 airport drive miramichi e1n 3w4 nb,4,airport drive
1,Portage Atlantic,,,,,,External Service Facility,,P.O. Box 339 Norton E5T 1J7 NB,Norton,NB,E5T 1J7,,,Province of New Brunswick,norton e5t 1j7 nb,,
0,Chief Harold Sappier Memorial Elementary School,,1.0,1.0,0.0,0.0,First Nations School,"Kindergarten, K4, 1--5",St. Mary's First Nation 305 Maliseet Drive Fredericton E3A 5R8 NB,Fredericton,NB,E3A 5R8,,,Province of New Brunswick,st mary's first nation 305 maliseet drive fredericton e3a 5r8 nb,305,maliseet drive
1,Elsipogtog School,,1.0,1.0,1.0,0.0,First Nations School,"Kindergarten, K4, 1--8",356 Elsipogtog Road Elsipogtog First Nation E4W 2S6 NB,Elsipogtog First Nation,NB,E4W 2S6,,,Province of New Brunswick,356 elsipogtog road elsipogtog first nation e4w 2s6 nb,356,elsipogtog road
2,Esgenoopetitj School (Burnt Church School),,1.0,1.0,1.0,0.0,First Nations School,"Kindergarten, K4, 1--8",603 Bayview Drive Burnt Church E9G 2A5 NB,Burnt Church,NB,E9G 2A5,,,Province of New Brunswick,603 bayview drive burnt church e9g 2a5 nb,603,bayview drive
3,Mah-Sos School,,1.0,1.0,0.0,0.0,First Nations School,"Kindergarten, K4, 1--6",270 Main Street Tobique First Nation E7H 2Y8 NB,Tobique First Nation,NB,E7H 2Y8,,,Province of New Brunswick,270 main street tobique first nation e7h 2y8 nb,270,main street
4,Metepenagiag School,,1.0,1.0,0.0,0.0,First Nations School,"Kindergarten, K4, 1--6",1926 MicMac Road Red Bank Indian Reserve E9E 1B3 NB,Red Bank Indian Reserve,NB,E9E 1B3,,,Province of New Brunswick,1926 micmac road red bank indian reserve e9e 1b3 nb,1926,micmac road
5,Natoaganeg School (Eel Ground),,1.0,1.0,1.0,0.0,First Nations School,"Kindergarten, K4, 1--8",11 Riverview Road East Eel Ground E1V 4G1 NB,Eel Ground,NB,E1V 4G1,,,Province of New Brunswick,11 riverview road east eel ground e1v 4g1 nb,11,riverview road east
6,Wulastukw Elementary School,,1.0,1.0,0.0,0.0,First Nations School,"Kindergarten, K4, 1--5",Kingsclear First Nation 712 Church St. Fredericton E3E 1K8 NB,Fredericton,NB,E3E 1K8,,,Province of New Brunswick,kingsclear first nation 712 church st fredericton e3e 1k8 nb,712,church st
