idx,facility_name,facility_type,longitude,latitude,street_addr,city,phone,website,provider
0,SIX08 PHARMACY,covid_vaccination_centres,-112.837636398284,49.692741976171,608 5 AVE S,LETHBRIDGE,403-694-3352,,Calgary
1,PENHOLD PHARMACY,covid_vaccination_centres,-113.868841727683,52.139603574175,3-1380 ROBINSON AVE,PENHOLD,403-886-4466,,Calgary
2,MANNING PHARMACY,covid_vaccination_centres,-113.423700179554,53.60039277954,228 MANNING CROSS NW,EDMONTON,780-758-9595,,Calgary
3,WHITEMUD PHARMACY,covid_vaccination_centres,-113.503608272575,53.478009981513,101-4075 106 ST NW,EDMONTON,780-395-0788,,Calgary
4,UNIVERSAL HEALTH PHARMACY #6,covid_vaccination_centres,-113.988956744033,51.275632907198,3-1861 MEADOWBROOK DR SE,AIRDRIE,403-980-7001,,Calgary
5,THORHILD DRUG STORE,covid_vaccination_centres,-113.124249072787,54.160244347264,722 1 ST,THORHILD,780-398-3883,,Calgary
6,STURGEON PHARMACY,covid_vaccination_centres,,,150-625 ST ALBERT TR,ST ALBERT,780-569-1722,,Calgary
7,BURNEWOOD SQUARE PHARMACY,covid_vaccination_centres,,,3416 43 AVE NW,EDMONTON,780-757-0098,,Calgary
8,APPLE DRUGS,covid_vaccination_centres,-112.704778943631,52.323887330839,4825 50 ST,STETTLER,403-742-8688,,Calgary
9,LONDON DRUGS #45,covid_vaccination_centres,-113.523632130245,53.547637370297,11704 104 AVE NW,EDMONTON,780-488-2600,https://www.londondrugs.com/covid19,Calgary
10,HEALTHY CHOICE PHARMACY 101,covid_vaccination_centres,-113.638955501271,53.639539141704,9430 MCKENNEY AVE,ST ALBERT,780-460-0579,https://www.hcpedmonton.ca,Calgary
11,CRESCENT DRUGS LTD.,covid_vaccination_centres,-111.974598916588,54.770882569618,10029 101 AVE,LAC LA BICHE,780-623-4059,,Calgary
12,PHARMASAVE BEVERLY,covid_vaccination_centres,-113.399925717115,53.57032061795,3729 118 AVE NW,EDMONTON,780-474-9344,https://pharmasave.com/edmonton-beverly/location/,Calgary
13,MEDHOUSE PHARMACY & TRAVEL CLINIC,covid_vaccination_centres,-115.672300001753,54.142137254261,2B-4439 52 AVE,WHITECOURT,780-779-9900,,Calgary
14,MEDICINE SHOPPE PHARMACY 127,covid_vaccination_centres,-112.813221173083,49.683126226389,1016A 20 ST S,LETHBRIDGE,403-380-3282,https://www.medicineshoppebyhospital.ca,Calgary
15,DRUGSTORE PHARMACY #9021,covid_vaccination_centres,-111.325091464844,54.005315733262,5701 50 AVE,ST PAUL,780-645-7035,https://www.extrafoods.ca/covid19,Calgary
16,PHARMASAVE #364,covid_vaccination_centres,-114.234068781603,50.688597383873,124 CENTRE AVE W,BLACK DIAMOND,,https://pharmasave.com/black-diamond/covid-vaccinations/,Calgary
17,SHOPPERS DRUG MART #2448,covid_vaccination_centres,-113.476514590714,53.424564756072,924 91 ST SW,EDMONTON,780-485-5550,https://www1.shoppersdrugmart.ca/en/health-and-pharmacy/covid-19?ShortURL=covid,Calgary
18,SAFEWAY PHARMACY #8928,covid_vaccination_centres,-113.390521685516,53.571622813917,146-3210 118 AVE NW,EDMONTON,780-477-0855,https://www.safeway.ca/vaccine-registration/,Calgary
19,MEDICINE SHOPPE PHARMACY 274,covid_vaccination_centres,-113.524161202349,53.453244283322,831 SADDLEBACK RD NW,EDMONTON,780-435-3345,https://www.medicineshoppe.ca/en/alberta/edmonton/the-medicine-shoppe-pharmacy-274-7041890,Calgary
20,MEDICINE SHOPPE PHARMACY 390,covid_vaccination_centres,-113.376443459449,53.455095944726,2356 23 AVE NW,EDMONTON,780-485-1378,https://www.medicineshoppe.ca/en/alberta/edmonton/the-medicine-shoppe-pharmacy-390-7028732,Calgary
21,SHOPPERS DRUG MART #350,covid_vaccination_centres,-113.955696303554,51.098037970341,5500 FALSBRIDGE DR NE,CALGARY,403-293-2560,https://www1.shoppersdrugmart.ca/en/health-and-pharmacy/covid-19?ShortURL=covid,Calgary
22,SHOPPERS DRUG MART #2311,covid_vaccination_centres,-118.818335357741,55.152181284874,10720 78 AVE,GRANDE PRAIRIE,780-814-9028,https://www1.shoppersdrugmart.ca/en/health-and-pharmacy/covid-19?ShortURL=covid,Calgary
23,ALPINE DRUG MART,covid_vaccination_centres,-114.918034857121,52.377331062776,5132 49 ST,ROCKY MOUNTAIN HOUSE,403-845-6904,https://alpinevaluedrugmart.medmeapp.com/schedule,Calgary
24,WEST HEALTH PHARMACY,covid_vaccination_centres,-113.590327663329,53.550704859209,10660 156 ST NW,EDMONTON,780-244-1390,,Calgary
25,LIFECARE PHARMACY,covid_vaccination_centres,-113.618087899443,53.433752289036,1332 WINDERMERE WAY SW,EDMONTON,780-710-7107,,Calgary
26,SAFEWAY PHARMACY #8874,covid_vaccination_centres,-113.323712186619,53.513508954399,985 FIR ST,SHERWOOD PARK,780-467-0153,https://www.safeway.ca/vaccine-registration/,Calgary
27,SAFEWAY PHARMACY #8907,covid_vaccination_centres,-111.373985053452,56.723376621491,9601 FRANKLIN AVE,FORT MCMURRAY,780-790-2388,https://www.safeway.ca/vaccine-registration/,Calgary
28,SHOPPERS DRUG MART #2325,covid_vaccination_centres,-114.455939228236,55.33570302024,300-1500 MAIN ST SW,SLAVE LAKE,780-849-4556,https://www1.shoppersdrugmart.ca/en/health-and-pharmacy/covid-19?ShortURL=covid,Calgary
29,WALDINS PHARMACY LTD.,covid_vaccination_centres,-113.469594459312,53.452702924343,9124 23 AVE NW,EDMONTON,780-756-3350,,Calgary
30,WAL-MART PHARMACY #3151,covid_vaccination_centres,-114.060665581292,50.901019934276,100-310 SHAWVILLE BLVD SE,CALGARY,403-201-5426,https://portal.healthmyself.net/walmartab/forms/a66,Calgary
31,LOBLAW PHARMACY #1541,covid_vaccination_centres,-112.789107414996,49.659238907706,3515 MAYOR MAGRATH DR S,LETHBRIDGE,403-331-2535,https://www.realcanadiansuperstore.ca/covid19,Calgary
32,MEDICINE SHOPPE PHARMACY 411,covid_vaccination_centres,-114.012208840625,51.286574660334,3-704 MAIN ST SE,AIRDRIE,403-980-1587,https://www.medicineshoppe.ca/en/alberta/airdrie/the-medicine-shoppe-pharmacy-411-7046160,Calgary
33,MACMILLAN'S PHARMACY,covid_vaccination_centres,-114.974677830623,53.228599951943,108-4930 55 AVE,DRAYTON VALLEY,780-542-5102,,Calgary
34,PACIFIC PLACE PHARMASAVE #393,covid_vaccination_centres,-113.984034880581,51.062295807405,958B-999 36 ST NE,CALGARY,403-768-0202,https://www.pacificplacepharmasave.com,Calgary
35,SHOPPERS DRUG MART #323,covid_vaccination_centres,-113.628150686585,53.644420761707,108-392 ST. ALBERT TR,ST ALBERT,780-458-5880,https://www1.shoppersdrugmart.ca/en/health-and-pharmacy/covid-19?ShortURL=covid,Calgary
36,SHOPPERS DRUG MART #2405,covid_vaccination_centres,-113.409828928627,53.597712755115,4940 137 AVE NW,EDMONTON,780-670-5097,https://www1.shoppersdrugmart.ca/en/health-and-pharmacy/covid-19?ShortURL=covid,Calgary
37,SHOPPERS DRUG MART #349,covid_vaccination_centres,-114.082480730546,50.986009735507,7606 ELBOW DRIVE SW,CALGARY,403-255-1851,https://www1.shoppersdrugmart.ca/en/health-and-pharmacy/covid-19?ShortURL=covid,Calgary
38,ZENRX PHARMACY,covid_vaccination_centres,-114.094329459806,51.056612096818,450 14 ST NW,CALGARY,403-270-7444,,Calgary
39,CROWBOROUGH PHARMACY,covid_vaccination_centres,-113.591434814768,53.429818018834,111-6055 ANDREWS WAY SW,EDMONTON,587-735-3492,https://www.crowboroughpharmacy.com,Calgary
40,LOBLAW PHARMACY #4410,covid_vaccination_centres,-113.389639959308,49.722390628055,1906 8 AVE,FORT MACLEOD,403-553-7905,https://www.yourindependentgrocer.ca/covid19,Calgary
41,SHOPPERS DRUG MART #341,covid_vaccination_centres,-113.914592815134,53.542823113697,WESTLAND MALL,SPRUCE GROVE,780-962-5202,https://www1.shoppersdrugmart.ca/en/health-and-pharmacy/covid-19?ShortURL=covid,Calgary
42,CO-OP PHARMACY STONY PLAIN,covid_vaccination_centres,-114.00669961495,53.530084965389,4917A 50 AVE,STONY PLAIN,780-963-8432,,Calgary
43,Macleod South,covid_vaccination_centres,-114.069365771431,50.919813432719,14815 Bannister Road SE,CALGARY,811,https://www.albertahealthservices.ca/topics/Page17295.aspx,Calgary
44,REXALL #7517,covid_vaccination_centres,-112.90179382959,49.673255665416,20-12 AQUITANIA BLVD W,LETHBRIDGE,587-486-9357,https://www.rexall.ca/covid-19/alberta-vaccine,Calgary
45,SRX PHARMACY #2,covid_vaccination_centres,-113.52042454397,53.522827365083,B01-8625 112 ST,EDMONTON,587-454-2413,,Calgary
46,WILLOW PARK PHARMASAVE #362,covid_vaccination_centres,-113.548897557789,53.273045475192,5905 50 ST,LEDUC,780-612-6994,https://leducpharmasave.com,Calgary
47,SAVE-ON-FOODS PHARMACY #6628,covid_vaccination_centres,-118.821734447946,55.175161657248,10819 106 AVE,GRANDE PRAIRIE,780-402-2530,https://saveonfoodspharmacy.medmeapp.com/schedule/,Calgary
48,WOODS DISPENSARY,covid_vaccination_centres,-112.797677109449,49.673373272921,2931 20 AVE S,LETHBRIDGE,403-328-0822,,Calgary
49,MORINVILLE PHARMACY,covid_vaccination_centres,-113.654470967571,53.801596933093,103-10507 100 AVE,MORINVILLE,780-572-6155,,Calgary
50,REXALL #7228,covid_vaccination_centres,-114.068216005857,51.140796689248,300-9650 HARVEST HILLS BLVD NE,CALGARY,403-567-9102,https://www.rexall.ca/covid-19/alberta-vaccine,Calgary
51,SHOPPERS DRUG MART #2396,covid_vaccination_centres,-113.431485216983,53.4603311367,6428 28 AVE NW,EDMONTON,780-463-8833,https://www1.shoppersdrugmart.ca/en/health-and-pharmacy/covid-19?ShortURL=covid,Calgary
52,REXALL #7215,covid_vaccination_centres,-113.240820078668,53.682000121159,116 TOWN CREST RD,FORT SASKATCHEWAN,780-998-3217,https://www.rexall.ca/covid-19/alberta-vaccine,Calgary
53,LUKES DRUG MART-KILLARNEY,covid_vaccination_centres,-114.135938230545,51.029796382965,3407 26 AVE SW,CALGARY,403-242-1566,https://www.lukesdrugmart.com,Calgary
54,WAL-MART PHARMACY #1094,covid_vaccination_centres,-113.599932740043,53.438863726373,6110 CURRENTS DR NW,EDMONTON,780-438-1161,https://portal.healthmyself.net/walmartab/forms/a66,Calgary
55,SAFEWAY PHARMACY #8915,covid_vaccination_centres,-110.684512000196,50.033078595228,615 DIVISION AVE SE,MEDICINE HAT,403-504-2925,https://www.safeway.ca/vaccine-registration/,Calgary
56,DOAN PHARMACY LTD,covid_vaccination_centres,-113.509822116618,53.551704229591,10920 107 AVE NW,EDMONTON,780-423-8088,,Calgary
57,DISCOVERY RIDGE COMPOUNDING PHARMACY AND TRAVEL CLINIC,covid_vaccination_centres,-114.213629830169,51.015641071732,712-10 DISCOVERY RIDGE HILL SW,CALGARY,403-475-4325,https://www.discoveryridgepharmacy.ca,Calgary
58,CONNECTCARE PHARMACY SPRUCE GROVE,covid_vaccination_centres,-113.883540499607,53.566282446392,214-20 WESTWIND DR,SPRUCE GROVE,587-461-2060,,Calgary
59,WAL-MART PHARMACY #3029,covid_vaccination_centres,-113.46745029672,53.442677602762,1203 PARSONS RD NW,EDMONTON,780-465-1595,https://portal.healthmyself.net/walmartab/forms/a66,Calgary
60,CO-OP PHARMACY TRADER RIDGE,covid_vaccination_centres,-118.799997030238,55.200462671368,13201 102 ST,GRANDE PRAIRIE,780-402-8299,,Calgary
61,HEALTH WAY PHARMACY,covid_vaccination_centres,-114.072461487842,51.001876063419,109-5809 MACLEOD TR SW,CALGARY,403-460-3825,,Calgary
62,RX DRUG MART #2021,covid_vaccination_centres,-116.495813124816,55.43343175495,5004 53 AVE,HIGH PRAIRIE,780-523-3878,,Calgary
63,SHOPPERS DRUG MART #2341,covid_vaccination_centres,-113.860229882354,54.156388348525,10015 107 ST,WESTLOCK,780-349-3388,https://www1.shoppersdrugmart.ca/en/health-and-pharmacy/covid-19?ShortURL=covid,Calgary
64,SAFEWAY PHARMACY #8989,covid_vaccination_centres,-113.963109561544,50.930452981572,100-4915 130 AVE SE,CALGARY,403-257-8520,https://www.safeway.ca/vaccine-registration/,Calgary
65,STAFFORD PHARMACY & HOME HEALTHCARE,covid_vaccination_centres,-112.831444088251,49.718390713074,5-1475 ST. EDWARD BLVD N,LETHBRIDGE,403-320-6500,https://www.book.pharmachoice.com/%28403%29320-6500,Calgary
66,MEDICINE SHOPPE PHARMACY 370,covid_vaccination_centres,-113.527751786438,53.475632110504,11407 40 AVE NW,EDMONTON,780-468-1557,https://www.medicineshoppe.ca/en/alberta/edmonton/the-medicine-shoppe-pharmacy-370-7010470,Calgary
67,SHOPPERS DRUG MART #325,covid_vaccination_centres,-114.205719907548,51.116949155658,198-8060 SILVER SPRINGS BLVD,CALGARY,403-288-1125,https://www1.shoppersdrugmart.ca/en/health-and-pharmacy/covid-19?ShortURL=covid,Calgary
68,Deerfoot North Clinic,covid_vaccination_centres,-114.043151983058,51.080715254995,911 32 Avenue NE,CALGARY,811,https://www.albertahealthservices.ca/topics/Page17295.aspx,Calgary
69,RX DRUG MART #2023,covid_vaccination_centres,-112.855993476578,53.015857891251,1-6601 48 AVE,CAMROSE,780-672-0100,https://www.remedys.ca,Calgary
70,MEDICINE SHOPPE PHARMACY 349,covid_vaccination_centres,-111.428587001652,56.752882035554,141B-355 LOUTIT RD,FORT MCMURRAY,780-790-1234,https://www.medicineshoppe.ca/en/alberta/fort-mcmurray/the-medicine-shoppe-pharmacy-349-7000617,Calgary
71,MELL PHARMACY,covid_vaccination_centres,-114.095937273032,51.082603666912,771 NORTH MOUNT DR NW,CALGARY,403-454-5244,https://mellpharmacy.medmeapp.ca/schedule,Calgary
72,LOBLAW PHARMACY #4202,covid_vaccination_centres,-115.672239843723,54.142987702579,4420 52 AVE,WHITECOURT,780-706-4091,https://www.nofrills.ca/covid19,Calgary
73,LONDONDALE GUARDIAN PHARMACY,covid_vaccination_centres,-113.458251414901,53.607757987354,7606 144 AVE NW,EDMONTON,780-475-0040,https://www.bookyourvisit.ca/londondale,Calgary
74,PHARMASAVE HIDDEN VALLEY,covid_vaccination_centres,-114.1037701307,51.155092700742,311-11 HIDDEN CREEK DR NW,CALGARY,403-275-1000,https://hiddenvalley.medmeapp.ca/schedule/,Calgary
75,KAI HEALTH (KENSINGTON) PHARMACY,covid_vaccination_centres,-113.53905949942,53.593309172888,12620A 132 AVE NW,EDMONTON,780-488-6699,,Calgary
76,REXALL #7248,covid_vaccination_centres,-113.44180565824,53.600391310113,13709 66 ST NW,EDMONTON,780-456-5706,https://www.rexall.ca/covid-19/alberta-vaccine,Calgary
77,SOUTHBANK REMEDY'S RX,covid_vaccination_centres,-113.944449801719,50.705910260577,120-158 SOUTHBANK ST,OKOTOKS,403-982-9779,https://southbankpharmacy.myappts.ca,Calgary
78,SAFEWAY PHARMACY #8883,covid_vaccination_centres,-112.872363982933,53.018085699236,200 CORNERSTONE,CAMROSE,780-672-1680,https://www.safeway.ca/vaccine-registration/,Calgary
79,WEST POINTE PHARMACY,covid_vaccination_centres,-113.963778378731,51.101015548694,124-4850 WESTWINDS DR NE,CALGARY,403-285-6555,,Calgary
80,FOURNIER DRUGS,covid_vaccination_centres,-119.11662083776,53.888389258155,1306 SHOPPERS PARK MALL,GRANDE CACHE,780-827-3230,,Calgary
81,SAFEWAY PHARMACY #8895,covid_vaccination_centres,-113.513419984219,53.518886284891,10930 82 AVE NW,EDMONTON,780-439-9767,https://www.safeway.ca/vaccine-registration/,Calgary
82,GLENGARRY PHARMACY,covid_vaccination_centres,-113.532978758944,53.60060701202,115-12222 137 AVE NW,EDMONTON,780-473-6636,https://glengarrypharmacy.myappts.ca/src/,Calgary
83,MEDICINE SHOPPE PHARMACY 377,covid_vaccination_centres,-113.44449610362,53.592134050171,6610 132 AVE NW,EDMONTON,780-705-7150,https://www.medicineshoppe.ca/en/alberta/edmonton/the-medicine-shoppe-pharmacy-377-7022763,Calgary
84,PHARMASAVE MILLIGAN DRIVE,covid_vaccination_centres,-113.96674805955,50.732716216874,2-100 MILLIGAN DR,OKOTOKS,403-982-7663,https://okotokspharmasave.medmeapp.com/schedule/,Calgary
85,ROSEWOOD PHARMACY,covid_vaccination_centres,-113.297680613605,53.527933931222,120-201 FESTIVAL WAY,SHERWOOD PARK,587-200-0159,,Calgary
86,PHARMASAVE #377,covid_vaccination_centres,-113.452092701773,53.628235248133,ROYAL CENTRE NORTH,EDMONTON,780-705-2528,,Calgary
87,PHARMASAVE #397,covid_vaccination_centres,-118.385627886225,56.066591542102,11015 102 AVE,FAIRVIEW,780-835-3485,,Calgary
88,MONTROSE PHARMACY,covid_vaccination_centres,-113.451476716981,53.571027154189,7240 118 AVE NE,EDMONTON,780-249-4833,,Calgary
89,BERWYN PHARMACY LTD,covid_vaccination_centres,-117.736206831898,56.14709753687,5115 51 ST,BERWYN,780-338-3071,,Calgary
90,LONDON DRUGS #33,covid_vaccination_centres,-114.123641530305,51.085049569587,3630 BRENTWOOD RD NW,CALGARY,403-289-4512,https://www.londondrugs.com/covid19,Calgary
91,REXALL #7282,covid_vaccination_centres,-114.085676039869,50.948796417903,14-11625 ELBOW DR SW,CALGARY,403-281-7333,https://www.rexall.ca/covid-19/alberta-vaccine,Calgary
92,VILLAGE LANE PHARMACY,covid_vaccination_centres,-113.983487115213,50.719695787059,15-1300 VILLAGE LANE,OKOTOKS,403-938-0110,,Calgary
93,MEDICINE SHOPPE PHARMACY 251,covid_vaccination_centres,-113.785123306087,52.266591185737,3805 ROSS ST,RED DEER,403-343-8088,https://www.medicineshoppe.ca/en/alberta/red-deer/the-medicine-shoppe-pharmacy-251-7040887,Calgary
94,MINT HEALTH + DRUGS: LANGDON,covid_vaccination_centres,-113.680182401109,50.974118782111,107-355 CENTRE ST,LANGDON,403-936-0448,https://www.mintdrugs.com,Calgary
95,CHAPARRAL PHARMACY,covid_vaccination_centres,-114.036155617336,50.88771768681,210-10 CHAPARRAL DR SE,CALGARY,403-475-5544,https://www.chaparralpharmacy.ca/book-your-pfizer-covid-19-immunization/,Calgary
96,NOTTINGHAM PHARMACY,covid_vaccination_centres,-113.274800778197,53.512702358121,300-664 WYE RD,SHERWOOD PARK,780-570-0995,,Calgary
97,TWIN BROOKS PHARMACY,covid_vaccination_centres,-113.517144530478,53.439233380019,11029 9 AVE NW,EDMONTON,780-784-0462,http://www.twinbrookspharmacy.com,Calgary
98,WAL-MART PHARMACY #1089,covid_vaccination_centres,-114.04513136764,50.984264354681,7979 11 ST SE,CALGARY,403-251-2671,https://portal.healthmyself.net/walmartab/forms/a66,Calgary
99,KINSOL PHARMACY,covid_vaccination_centres,-114.045299414964,51.053204850657,803 1 AVE NE,CALGARY,587-351-8923,,Calgary
100,SHOPPERS DRUG MART #326,covid_vaccination_centres,-113.809833745851,52.243003187315,A6-4900 MOLLY BANNISTER DR,RED DEER,403-343-3355,https://www1.shoppersdrugmart.ca/en/health-and-pharmacy/covid-19?ShortURL=covid,Calgary
101,PHARMASAVE #3011,covid_vaccination_centres,-113.689787735044,53.551686569679,10652 WINTERBURN RD NW,EDMONTON,825-202-8450,,Calgary
102,LOBLAW PHARMACY #1566,covid_vaccination_centres,-113.411122872572,53.598640852037,4950 137 AVE,EDMONTON,780-472-4735,https://www.realcanadiansuperstore.ca/covid19,Calgary
103,PINERIDGE PHARMACY,covid_vaccination_centres,-113.946368947731,51.081127099762,7-3250 60 ST NE,CALGARY,403-568-0095,,Calgary
104,Brentwood Village Mall,covid_vaccination_centres,-114.126276215059,51.085152769287,3630 Brentwood Road NW,CALGARY,811,https://www.albertahealthservices.ca/topics/Page17295.aspx,Calgary
105,GATEWAY PHARMACY,covid_vaccination_centres,-113.494821822752,53.477515287887,942-3803 CALGARY TR NW,EDMONTON,780-466-6337,,Calgary
106,REXALL #7513,covid_vaccination_centres,-113.731234770253,53.353256386987,101-180 MIQUELON AVE,DEVON,780-987-3793,https://www.rexall.ca/covid-19/alberta-vaccine,Calgary
107,SHOPPERS DRUG MART #385,covid_vaccination_centres,-114.094396457533,51.05269886383,1436 KENSINGTON RD NW,CALGARY,403-521-0329,https://www1.shoppersdrugmart.ca/en/health-and-pharmacy/covid-19?ShortURL=covid,Calgary
108,PHARMASAVE #308,covid_vaccination_centres,-113.582251976908,50.025439697552,114 49 AVE W,CLARESHOLM,403-625-2727,,Calgary
109,EXCELHEALTH PHARMACY,covid_vaccination_centres,-114.062178916677,51.01890955539,100-3916 MACLEOD TR SW,CALGARY,587-351-4036,https://bookyourvisit.ca/excelhealth,Calgary
110,RITA'S APOTHECARY & HOME HEALTHCARE,covid_vaccination_centres,-114.404312824431,54.120222895667,5036A 50 ST,BARRHEAD,780-674-6656,,Calgary
111,SHOPPERS DRUG MART #2402,covid_vaccination_centres,-113.980077086299,53.538673995076,400-4300 SOUTH PARK DR,STONY PLAIN,780-963-6946,https://www1.shoppersdrugmart.ca/en/health-and-pharmacy/covid-19?ShortURL=covid,Calgary
112,SHOPPERS DRUG MART #2370,covid_vaccination_centres,-113.543234253532,53.616598356705,12955 153 AVE NW,EDMONTON,780-476-3738,https://www1.shoppersdrugmart.ca/en/health-and-pharmacy/covid-19?ShortURL=covid,Calgary
113,BRINTNELL PHARMACY & TRAVEL CLINIC,covid_vaccination_centres,-113.407555814763,53.628658415754,3-4303 167 AVE NW,EDMONTON,587-525-8650,https://www.brintnellpharmacy.com,Calgary
114,VISTA HEIGHTS PHARMACY,covid_vaccination_centres,-114.012548287977,51.069493080727,110-2066 18 AVE NE,CALGARY,403-291-4525,,Calgary
115,ABEX PHARMACY,covid_vaccination_centres,-113.239079730429,53.682062035116,103-121 TOWN CREST RD,FORT SASKATCHEWAN,780-589-2239,,Calgary
116,SHOPPERS DRUG MART #344,covid_vaccination_centres,-113.494094645815,53.543869234978,EDMONTON CITY CENTRE WEST,EDMONTON,780-428-7110,https://www1.shoppersdrugmart.ca/en/health-and-pharmacy/covid-19?ShortURL=covid,Calgary
117,SHOPPERS DRUG MART #2301,covid_vaccination_centres,-113.563185201962,53.453473532897,14135 23 AVE NW,EDMONTON,780-436-5135,https://www1.shoppersdrugmart.ca/en/health-and-pharmacy/covid-19?ShortURL=covid,Calgary
118,OKOTOKS H.C. PHARMACY,covid_vaccination_centres,-113.978440730864,50.726004721434,1-74 ELIZABETH ST,OKOTOKS,403-995-1080,https://www.okotokshcpharmacy.ca,Calgary
119,TOWER DRUGS,covid_vaccination_centres,-114.06505991705,51.044461460373,137-131 9 AVE SW,CALGARY,403-261-2006,,Calgary
120,WAL-MART PHARMACY #5708,covid_vaccination_centres,-113.971400655452,50.703883372141,500-201 SOUTHRIDGE DR,OKOTOKS,403-995-1375,https://portal.healthmyself.net/walmartab/forms/a66,Calgary
121,CLEARWATER PHARMACY,covid_vaccination_centres,-113.490405239535,53.615199183593,15345 97 ST NW,EDMONTON,780-476-8383,,Calgary
122,RABBIT HILL PHARMACY,covid_vaccination_centres,-113.562534847989,53.454986027892,14030 23 AVE NW,EDMONTON,780-989-5100,,Calgary
123,SAFEWAY PHARMACY #8912,covid_vaccination_centres,-114.115708863941,51.022818459413,2425 34 AVE SW,CALGARY,403-217-1011,https://www.safeway.ca/vaccine-registration/,Calgary
124,SOBEYS PHARMACY #5020,covid_vaccination_centres,-113.97745854589,50.880294626745,3000-356 CRANSTON RD SE,CALGARY,403-257-9800,https://www.safeway.ca/vaccine-registration/,Calgary
125,TARADALE PHARMACY,covid_vaccination_centres,-113.946279130543,51.099901462466,525-6520 FALCONRIDGE DR NE,CALGARY,587-349-4250,https://www.travelcliniccalgary.ca/,Calgary
126,MEDICINE SHOPPE PHARMACY 410,covid_vaccination_centres,-113.933568001775,53.553466520011,108-1 HAWTHORNE GATE,SPRUCE GROVE,780-760-7621,https://www.medicineshoppe.ca/en/alberta/spruce-grove/medicine-shoppe-pharmacy-410-7045340,Calgary
127,SAFEWAY PHARMACY #8826,covid_vaccination_centres,-114.013701982982,50.984124538243,7740 18 ST SE,CALGARY,403-279-2220,https://www.safeway.ca/vaccine-registration/,Calgary
128,MEDICINE SHOPPE PHARMACY 314,covid_vaccination_centres,-114.110163730709,50.908839369513,3105-230 EVERSYDE BLVD SW,CALGARY,403-201-0180,https://www.medicineshoppe.ca/en/alberta/calgary/the-medicine-shoppe-pharmacy-314-7012400,Calgary
129,PHARMASAVE WHITEHORN #3018,covid_vaccination_centres,-113.958600629007,51.092013087792,BAY 17-4525 52 ST NE,CALGARY,403-888-1551,,Calgary
130,PELICAN PLACE PHARMACY,covid_vaccination_centres,-114.095972338773,52.299413128754,110-10 PELICAN PL,SYLVAN LAKE,403-864-5192,,Calgary
131,GIROUX PHARMASAVE,covid_vaccination_centres,-113.671425832647,53.639986806715,215-4 VERSAILLES AVE,ST ALBERT,780-569-3302,,Calgary
132,SAFEWAY PHARMACY #8924,covid_vaccination_centres,-113.293059390316,53.531134652851,110-2020 SHERWOOD DR,SHERWOOD PARK,780-467-3222,https://www.safeway.ca/vaccine-registration/,Calgary
133,Northgate Village Mall,covid_vaccination_centres,-113.985298057389,51.055832554703,495 36 Street NE,CALGARY,811,https://www.albertahealthservices.ca/topics/Page17295.aspx,Calgary
134,ARROWWOOD PHARMACY,covid_vaccination_centres,-113.152292777906,50.737475345324,3-6 RAILWAY AVE W,ARROWWOOD,403-534-3333,,Calgary
135,SOBEYS PHARMACY #1139,covid_vaccination_centres,-114.057939626849,51.155556580981,200-500 COUNTRY HILLS BLVD NE,CALGARY,403-567-9302,https://www.safeway.ca/vaccine-registration/,Calgary
136,D&M PHARMACY AND TRAVEL CLINIC,covid_vaccination_centres,-114.106986228685,51.07046504501,1505 19 ST NW,CALGARY,587-353-0377,https://www.travelpharmacy.ca,Calgary
137,WAINWRIGHT VALUE DRUG MART,covid_vaccination_centres,-110.859875357484,52.834979267468,306 10 ST,WAINWRIGHT,780-842-4488,,Calgary
138,LANDMARK PHARMACY,covid_vaccination_centres,-114.063570472634,51.066821417881,283-1623 CENTRE ST NW,CALGARY,587-349-3727,,Calgary
139,COVENTRY PHARMACY,covid_vaccination_centres,-114.042543352117,51.158115254585,110-790 COVENTRY DR NE,CALGARY,403-453-9194,https://www.calgarytravelclinics.com,Calgary
140,PETRA PHARMACY,covid_vaccination_centres,-112.80552872904,49.683569395904,1010 MAYOR MAGRATH DR S,LETHBRIDGE,403-942-3731,https://www.pharmachoice.com,Calgary
141,SHOPPERS DRUG MART #340,covid_vaccination_centres,-113.718384476946,52.473901488556,2-5700 HWY 2A,LACOMBE,403-782-3220,https://www1.shoppersdrugmart.ca/en/health-and-pharmacy/covid-19?ShortURL=covid,Calgary
142,SHOPPERS DRUG MART #2379,covid_vaccination_centres,-113.499946001639,53.540717619661,10405 JASPER AVE NW,EDMONTON,780-670-3690,https://www1.shoppersdrugmart.ca/en/health-and-pharmacy/covid-19?ShortURL=covid,Calgary
143,COALDALE PHARMASAVE,covid_vaccination_centres,-112.621790245754,49.728132226356,1910 20 AVE,COALDALE,403-345-3744,,Calgary
144,MEDICINE SHOPPE PHARMACY 225,covid_vaccination_centres,-113.466043559445,53.570287846857,8111 118 AVE NW,EDMONTON,780-477-1192,https://www.medicineshoppe.ca/en/alberta/edmonton/the-medicine-shoppe-pharmacy-225-7002977,Calgary
145,ROYAL OAK PHARMACY,covid_vaccination_centres,-114.23291117873,51.139591831551,228-500 ROYAL OAK DR NW,CALGARY,403-455-3565,https://royaloakpharmacy.medmeapp.ca/schedule,Calgary
146,COPPERSTONE PHARMACY,covid_vaccination_centres,-113.933672903389,50.915939710517,115-10 COPPERSTONE ST SE,CALGARY,403-724-9744,,Calgary
147,GLENBROOK PHARMACY,covid_vaccination_centres,-113.443178346577,53.586107319277,12718 66 ST NW,EDMONTON,7804789093,https://bookyourvisit.ca/glenbrook,Calgary
148,SAFEWAY PHARMACY #8908,covid_vaccination_centres,-113.451683971297,53.471631843163,38 AVE & MILLWOODS RD NW,EDMONTON,780-461-5152,https://www.safeway.ca/vaccine-registration/,Calgary
149,SAFEWAY PHARMACY #8880,covid_vaccination_centres,-113.617545898262,53.534289135471,9710 170 ST NW,EDMONTON,780-486-4248,https://www.safeway.ca/vaccine-registration/,Calgary
150,SOUTH COUNTRY CO-OP LTD. @TABER PHARMACY,covid_vaccination_centres,-112.129016854961,49.785683110809,4926 46 AVE,TABER,403-223-5984,,Calgary
151,WESTMOUNT REMEDY'S RX PHARMACY,covid_vaccination_centres,-113.977852373194,50.706749868936,1031-200 SOUTHRIDGE DR,OKOTOKS,403-917-0655,https://westmountremedys.business.site/,Calgary
152,KOEGLER'S PHARMASAVE,covid_vaccination_centres,-113.946596701507,49.495379397169,1334 VETERANS ST,PINCHER CREEK,403-627-2444,,Calgary
153,LEIBEL'S PHARMACY,covid_vaccination_centres,-114.027979170739,52.961273469497,7B VILLAGE DR RR2,WESTEROSE,780-586-0796,,Calgary
154,SHOPPERS DRUG MART #2366,covid_vaccination_centres,-113.959722291404,50.88138986766,106-19489 SETON CRES. SE,CALGARY,403-279-7726,https://www1.shoppersdrugmart.ca/en/health-and-pharmacy/covid-19?ShortURL=covid,Calgary
155,NORTH EAST PHARMACY,covid_vaccination_centres,-113.451815086297,53.60639459208,7210 144 AVE NW,EDMONTON,780-478-3322,,Calgary
156,HEWES WAY PHARMACY,covid_vaccination_centres,-113.424633732647,53.456702875388,101-2551 HEWES WAY NW,EDMONTON,780-462-8757,,Calgary
157,DRUGSTORE PHARMACY #9043,covid_vaccination_centres,-112.702388158181,51.44539758729,1252 HWY 9 S,DRUMHELLER,403-823-4795,https://www.extrafoods.ca/covid19,Calgary
158,BEAUMONT CENTRE PHARMACY,covid_vaccination_centres,-113.41570817059,53.352338079324,5003 50 AVE,BEAUMONT,780-929-9299,https://beaumontcentrepharmacy.medmeapp.ca/schedule/,Calgary
159,BLACKFALDS PROFESSIONAL PHARMACY,covid_vaccination_centres,-113.787581387584,52.381926707602,1-5049 PARKWOOD RD,BLACKFALDS,403-600-2280,https://blackfaldsprofessionalpharmacy.ca,Calgary
160,SHOPPERS DRUG MART #352,covid_vaccination_centres,-113.589123043971,53.46875528232,584 RIVERBEND SQ NW,EDMONTON,780-988-6657,https://www1.shoppersdrugmart.ca/en/health-and-pharmacy/covid-19?ShortURL=covid,Calgary
161,SAVE-ON-FOODS PHARMACY #6661,covid_vaccination_centres,-113.447128942438,53.601742640484,LONDONDERRY MALL,EDMONTON,780-473-8351,https://saveonfoodspharmacy.medmeapp.com/schedule/,Calgary
162,SHOPPERS DRUG MART #2386,covid_vaccination_centres,-114.015109357506,51.288711795083,310-505 MAIN ST,AIRDRIE,403-948-5858,https://www1.shoppersdrugmart.ca/en/health-and-pharmacy/covid-19?ShortURL=covid,Calgary
163,MILLWOODS ARP DRUGS,covid_vaccination_centres,-113.407478544109,53.454865922572,4213 23 AVE NW,EDMONTON,780-461-9823,,Calgary
164,MINT HEALTH + DRUGS: CRYSTAL RIDGE,covid_vaccination_centres,-113.399183559538,51.059222932841,2-55 WHEATLAND TR,STRATHMORE,403-901-2244,https://www.mintdrugs.com,Calgary
165,SAMS DRUG MART,covid_vaccination_centres,-114.002247355933,53.533040501468,102-4620 48 ST,STONY PLAIN,780-571-1221,https://www.samsdrugmart.com,Calgary
166,ATHABASCA VALUE DRUG MART,covid_vaccination_centres,-113.286209187753,54.72048468234,4911 50 ST,ATHABASCA,780-675-2188,,Calgary
167,MINT HEALTH + DRUGS MAIN STREET,covid_vaccination_centres,-114.007443030612,53.528441085962,5106 50 ST,STONY PLAIN,780-963-3728,https://www.mintdrugs.com,Calgary
168,WAL-MART PHARMACY #3154,covid_vaccination_centres,-113.316875494014,53.511202001514,239 WYE RD,SHERWOOD PARK,780-464-5107,https://portal.healthmyself.net/walmartab/forms/a66,Calgary
169,"PHARM, DRUGSTORE + MORE",covid_vaccination_centres,-114.094366013666,51.027315337745,103A-3009 14 ST SW,CALGARY,403-764-3080,https://www.thepharmdrugstore.com/,Calgary
170,GRANDE BANKS PHARMACY,covid_vaccination_centres,-118.805375187743,55.141112326975,105-10302 67 AVE,GRANDE PRAIRIE,780-533-5200,,Calgary
171,SHOPPERS DRUG MART #356,covid_vaccination_centres,-114.157181785933,51.085005518409,3625 SHAGANAPPI TRAIL NW,CALGARY,403-288-0111,https://www1.shoppersdrugmart.ca/en/health-and-pharmacy/covid-19?ShortURL=covid,Calgary
172,LOBLAW PHARMACY #4971,covid_vaccination_centres,-114.475518601467,51.187791420941,210 5 AVE W,COCHRANE,403-932-0415,https://www.nofrills.ca/covid19,Calgary
173,IMAGINE HEALTH PHARMACY-DOWNTOWN CALGARY,covid_vaccination_centres,-114.057374191808,51.047557680092,100-300 6 AVE SE,CALGARY,403-775-9669,,Calgary
174,WAL-MART PHARMACY #3147,covid_vaccination_centres,-118.827205190274,55.172832971395,11050 103 AVE,GRANDE PRAIRIE,780-513-3745,https://portal.healthmyself.net/walmartab/forms/a66,Calgary
175,SHOPPERS DRUG MART #328,covid_vaccination_centres,-113.511797525801,53.453284010252,10955 23 AVE NW,EDMONTON,780-436-3055,https://www1.shoppersdrugmart.ca/en/health-and-pharmacy/covid-19?ShortURL=covid,Calgary
176,CALGARY CO-OP PHARMACY #8,covid_vaccination_centres,-114.12098155285,50.96274095625,2580 SOUTHLAND DR SW,CALGARY,403-299-5400,https://www.calgarycoop.com/covid19vaccination,Calgary
177,DIDSBURY VALUE DRUG MART,covid_vaccination_centres,-114.137798045499,51.658797868981,1710 20 ST,DIDSBURY,403-335-3307,,Calgary
178,PLAZA IDA DISPENSARY,covid_vaccination_centres,-113.805530848018,52.270117115068,6A-5030 47 AVE,RED DEER,403-340-3784,,Calgary
179,EXALAN PHARMACY,covid_vaccination_centres,-114.062989678629,51.071314814783,7-2111 CENTRE ST NW,CALGARY,403-276-7076,,Calgary
180,SYNERGY PHARMACY,covid_vaccination_centres,-113.303477143969,53.545146379301,153-501 BETHEL DR,SHERWOOD PARK,780-449-2017,,Calgary
181,MEDICINE CIRCLE PHARMACY,covid_vaccination_centres,-113.536198745951,53.560433110379,11148 124 ST,EDMONTON,780-509-0230,,Calgary
182,NUAID ONE6 PHARMACY,covid_vaccination_centres,-114.096658815203,51.067203047919,1506 16 AVE NW,CALGARY,403-696-9966,,Calgary
183,CALGARY CO-OP PHARMACY #20,covid_vaccination_centres,-114.255210060086,51.147733915813,1000-11595 ROCKYVALLEY DR NW,CALGARY,403-299-5454,https://www.calgarycoop.com/covid19vaccination,Calgary
184,WAL-MART PHARMACY #1050,covid_vaccination_centres,-114.006991001703,51.262604801336,2881 MAIN ST SW,AIRDRIE,403-945-1648,https://portal.healthmyself.net/walmartab/forms/a66,Calgary
185,D&M PHARMACY AND TRAVEL CLINIC 1,covid_vaccination_centres,-114.023617122752,50.882885787495,2105-1800 194 AVE SE,CALGARY,403-457-7110,https://www.travelpharmacy.ca,Calgary
186,MARKET DRUGS MEDICAL LTD,covid_vaccination_centres,-113.486053072941,53.544324318814,10203 97 ST NW,EDMONTON,780-422-1397,https://www.marketdrugsmedical.store/,Calgary
187,FORT STATION PHARMACY,covid_vaccination_centres,-113.204767957089,53.711581826743,629-10490 98 AVE,FORT SASKATCHEWAN,780-589-1314,,Calgary
188,LONDON DRUGS #34,covid_vaccination_centres,-118.822115272533,55.174489293844,10820 104B AVE,GRANDE PRAIRIE,780-538-3715,https://www.londondrugs.com/covid19,Calgary
189,SHOPPERS DRUG MART #314,covid_vaccination_centres,-113.988719272874,51.038861396605,5-3012 17 AVE SE,CALGARY,403-248-4757,https://www1.shoppersdrugmart.ca/en/health-and-pharmacy/covid-19?ShortURL=covid,Calgary
190,UNIVERSAL HEALTH PHARMACY #1,covid_vaccination_centres,-113.9513800152,51.168550098803,150-630 REDSTONE DR NE,CALGARY,587-440-0041,https://www.universalhealthcentre.com,Calgary
191,SCRIPTS MEDICAL PHARMACY,covid_vaccination_centres,-113.493543886619,53.506217200819,201-6925 GATEWAY BLVD,EDMONTON,780-306-5660,https://www.calendly.com/scriptsmedicalonline/15min?month=2021-02,Calgary
192,SHOPPERS DRUG MART #373,covid_vaccination_centres,-114.055338732388,51.154720271988,725-500 COUNTRY HILLS BLVD NE,CALGARY,403-226-5712,https://www1.shoppersdrugmart.ca/en/health-and-pharmacy/covid-19?ShortURL=covid,Calgary
193,TERRALOSA PHARMACY,covid_vaccination_centres,-113.619544188145,53.536174022422,17314 99 AVE,EDMONTON,587-462-1500,,Calgary
194,SHOPPERS DRUG MART #310,covid_vaccination_centres,-113.548989272812,53.276136119095,7-6108 50 ST,LEDUC,780-986-2422,https://www1.shoppersdrugmart.ca/en/health-and-pharmacy/covid-19?ShortURL=covid,Calgary
195,PHARMASAVE GRIMSHAW 3006,covid_vaccination_centres,-117.606242272839,56.19055951382,5304 50 ST,GRIMSHAW,780-332-2125,,Calgary
196,WESTLOCK PRESCRIPTION CENTRE,covid_vaccination_centres,-113.858303627082,54.157339345783,102-10124 107 ST,WESTLOCK,780-349-2882,https://www.remedys.ca/en/alberta/westlock/westlock-prescription-centre-7008724,Calgary
197,BRENTWOOD PHARMASAVE,covid_vaccination_centres,-113.294653099422,53.514629007899,101-50 BRENTWOOD BLVD,SHERWOOD PARK,780-570-0633,https://brentwoodpharmasave.medmeapp.ca/schedule,Calgary
198,LONDON DRUGS #38,covid_vaccination_centres,-112.829155788009,49.700319521804,65-1240 2A AVE N,LETHBRIDGE,403-320-5151,https://www.londondrugs.com/covid19,Calgary
199,ZINOHA PHARMACY & TRAVEL HEALTH SERVICES,covid_vaccination_centres,-114.119108403872,50.97144610802,OAK BAY PLAZA,CALGARY,403-238-2250,http://www.zinohapharmacy.com,Calgary
200,SHOPPERS DRUG MART #2383,covid_vaccination_centres,-114.118993580546,50.996677191501,6449 CROWCHILD TR SW,CALGARY,403-242-4755,https://www1.shoppersdrugmart.ca/en/health-and-pharmacy/covid-19?ShortURL=covid,Calgary
201,SHOPPERS DRUG MART #2387,covid_vaccination_centres,-114.109287630545,51.024017444147,2067 33 AVE SW,CALGARY,403-685-6807,https://www1.shoppersdrugmart.ca/en/health-and-pharmacy/covid-19?ShortURL=covid,Calgary
202,MEDICINE SHOPPE PHARMACY 260,covid_vaccination_centres,-114.203942730701,51.129793073713,11-600 CROWFOOT CRES NW,CALGARY,403-455-9939,https://www.medicineshoppe.ca/en/alberta/calgary/the-medicine-shoppe-pharmacy-260-7001085,Calgary
203,SHOPPERS DRUG MART #2331,covid_vaccination_centres,-113.726719119156,53.351704465388,100-106 ERIE ST S,DEVON,780-987-3412,https://www1.shoppersdrugmart.ca/en/health-and-pharmacy/covid-19?ShortURL=covid,Calgary
204,MEDIMAX PHARMACY,covid_vaccination_centres,-114.068852221472,51.050730796762,240-520 3 AVE SW,CALGARY,403-454-4412,,Calgary
205,LOBLAW PHARMACY #1574,covid_vaccination_centres,-114.074604330308,50.962137299634,PHARMACY DEPARTMENT,CALGARY,403-225-6207,https://www.realcanadiansuperstore.ca/covid19,Calgary
206,SAFEWAY PHARMACY #8841,covid_vaccination_centres,-114.061155017365,50.952863154394,11011 BONAVENTURE DR SE,CALGARY,403-278-8585,https://www.safeway.ca/vaccine-registration/,Calgary
207,REXALL #7507,covid_vaccination_centres,-119.431009793971,55.211621601719,1032 1 AVE,BEAVERLODGE,780-354-2088,https://www.rexall.ca/covid-19/alberta-vaccine,Calgary
208,PRIMECARE PHARMACY,covid_vaccination_centres,-113.524640359088,53.251169863172,103-3610 ROLLYVIEW RD,LEDUC,780-769-1090,,Calgary
209,MACLEOD GUARDIAN PHARMACY,covid_vaccination_centres,-114.058117544198,51.04290306309,1010 MACLEOD TR SE,CALGARY,403-276-8829,,Calgary
210,CHAMPLAIN PHARMACY,covid_vaccination_centres,-113.645797543777,53.801193388551,111-9918 100 ST,MORINVILLE,780-939-2438,,Calgary
211,AVENIDA PHARMACY,covid_vaccination_centres,-114.069319559007,50.942175666398,309-12445 LAKE FRASER DR SE,CALGARY,403-720-6337,http://www.pharmachoice.ca,Calgary
212,BEAUMONT MEDX DRUGS,covid_vaccination_centres,-113.430671501279,53.339368080589,108-6202 29 AVE,BEAUMONT,780-737-5323,https://www.medxdrugs.ca,Calgary
213,SAVE-ON-FOODS PHARMACY #6620 - 50TH ST MARKET,covid_vaccination_centres,-113.408667574971,53.627437806235,4805 167 AVE NW,EDMONTON,587-459-7683,https://saveonfoodspharmacy.medmeapp.com/schedule/,Calgary
214,NOLAN DRUGS,covid_vaccination_centres,-113.475995086298,53.570419832076,8731 118 AVE NW,EDMONTON,780-477-2748,https://bookyourvisit.ca/nolandrugs,Calgary
215,ASPIRE REMEDY'S RX PHARMACY,covid_vaccination_centres,-113.810602401304,52.245500837121,120-2810 BREMNER AVE,RED DEER,403-986-0444,,Calgary
216,SPRUCE GROVE PHARMACY,covid_vaccination_centres,-113.928785608889,53.539796110395,113-187 HWY 16A,SPRUCE GROVE,780-960-5490,https://sgpharm.com,Calgary
217,AIRDRIE DRUG MART,covid_vaccination_centres,-114.012111601682,51.292983963272,101-124 1 AVE NE,AIRDRIE,403-948-0475,,Calgary
218,SAVE-ON-FOODS PHARMACY #6650,covid_vaccination_centres,-112.896272234586,49.694861420631,401 HIGHLANDS BLVD W,LETHBRIDGE,403-381-2759,https://saveonfoodspharmacy.medmeapp.com/schedule/,Calgary
219,LOBLAW PHARMACY #4972,covid_vaccination_centres,-112.706418559111,52.32097713727,5106 47 AVE,STETTLER,403-742-9180,https://www.nofrills.ca/covid19,Calgary
220,MEDICINE SHOPPE PHARMACY 200,covid_vaccination_centres,-113.624432001772,53.634481583338,102-25 ST MICHAEL ST,ST ALBERT,780-459-8545,https://www.medicineshoppe.ca/en/alberta/st-albert/the-medicine-shoppe-pharmacy-200-7009780,Calgary
221,WAL-MART PHARMACY #1136,covid_vaccination_centres,-113.910792349897,51.038762941939,255 EAST HILLS BLVD SE,CALGARY,403-387-0853,https://portal.healthmyself.net/walmartab/forms/a66,Calgary
222,CO-OP PHARMACY DOWNTOWN,covid_vaccination_centres,-118.791100969315,55.170996125711,9831 100 AVE,GRANDE PRAIRIE,780-532-2652,,Calgary
223,SHOPPERS DRUG MART #2304,covid_vaccination_centres,-110.687215744924,50.063727949493,2440 DIVISION AVE NW,MEDICINE HAT,403-528-0539,https://www1.shoppersdrugmart.ca/en/health-and-pharmacy/covid-19?ShortURL=covid,Calgary
224,SNOW'S PHARMACY INC.,covid_vaccination_centres,-112.661906930587,49.462709227377,53A BROADWAY N,RAYMOND,403-752-3023,https://www.bookmyshot.com/covidshot/403-752-3023,Calgary
225,WEST EDMONTON MALL PHARMASAVE #331,covid_vaccination_centres,-113.618405073646,53.521558918429,2031-8882 170 ST NW,EDMONTON,780-665-4755,https://pharmasavewestedmontonmall.medmeapp.ca/schedule,Calgary
226,WALKER LAKE REMEDY'S RX,covid_vaccination_centres,-113.418941645819,53.414155636452,5007 22 AVE SW,EDMONTON,780-752-2800,,Calgary
227,DRUGSTORE PHARMACY #4381,covid_vaccination_centres,-114.135001895758,51.793956530821,100-6509 46 ST,OLDS,403-507-8015,https://www.nofrills.ca/covid19,Calgary
228,SHOPPERS DRUG MART #2469,covid_vaccination_centres,-113.513859516983,53.452576480445,2037 111 ST NW,EDMONTON,780-430-8400,https://www1.shoppersdrugmart.ca/en/health-and-pharmacy/covid-19?ShortURL=covid,Calgary
229,MEDICINE SHOPPE PHARMACY 178,covid_vaccination_centres,-114.158858815362,51.068051480177,105-4411 16 AVE NW,CALGARY,403-247-9502,https://www.medicineshoppe.ca/en/alberta/calgary/the-medicine-shoppe-pharmacy-178-7015229,Calgary
230,TOTAL WELLNESS PHARMACY,covid_vaccination_centres,-113.852264543769,52.287329425588,120-6845 66 ST,RED DEER,403-967-1777,,Calgary
231,LOBLAW PHARMACY #1573,covid_vaccination_centres,-113.621116572574,53.54009057035,17303 STONY PLAIN RD NW,EDMONTON,780-486-8454,https://www.realcanadiansuperstore.ca/covid19,Calgary
232,SHOPPERS DRUG MART #2369,covid_vaccination_centres,-114.108625034551,51.175080969662,5004-2060 SYMONS VALLEY,CALGARY,587-755-7783,https://www1.shoppersdrugmart.ca/en/health-and-pharmacy/covid-19?ShortURL=covid,Calgary
233,SHOPPERS DRUG MART #2439,covid_vaccination_centres,-113.517423343972,53.426516622092,11120 ELLERSLIE RD SW,EDMONTON,780-438-1131,https://www1.shoppersdrugmart.ca/en/health-and-pharmacy/covid-19?ShortURL=covid,Calgary
234,SWITZER'S DRUGS,covid_vaccination_centres,-116.431385059309,53.582414559018,224 50 ST,EDSON,780-723-4666,,Calgary
235,ANDERSON DRUG BY FRESON BROS HANNA,covid_vaccination_centres,-111.938487,51.642551644471,602 2 AVE W,HANNA,403-854-4357,,Calgary
236,MEDICINE SHOPPE PHARMACY 403,covid_vaccination_centres,-114.772291374721,55.279731030882,102-102 6 AVE SW,SLAVE LAKE,780-849-2896,https://www.medicineshoppe.ca/en/alberta/slave-lake/medicine-shoppe-403-7038142,Calgary
237,SHOPPERS DRUG MART #312,covid_vaccination_centres,-113.512417642123,53.517969135666,10907 82 AVE NW,EDMONTON,780-433-2424,https://www1.shoppersdrugmart.ca/en/health-and-pharmacy/covid-19?ShortURL=covid,Calgary
238,SAFEWAY PHARMACY #8824,covid_vaccination_centres,-114.084413881132,51.056233929106,410 10 ST NW,CALGARY,403-283-8185,https://www.safeway.ca/vaccine-registration/,Calgary
239,SHOPPERS DRUG MART #317,covid_vaccination_centres,-113.505175794539,53.562406866374,192 KINGSWAY GARDEN MALL NW,EDMONTON,780-474-8237,https://www1.shoppersdrugmart.ca/en/health-and-pharmacy/covid-19?ShortURL=covid,Calgary
240,PHARMASAVE BASHAW #319,covid_vaccination_centres,-112.971176459482,52.58398735928,5010 50 ST,BASHAW,780-372-3503,,Calgary
241,SHOPPERS DRUG MART #2307,covid_vaccination_centres,-113.366763931348,53.475532001734,3735 17 ST NW,EDMONTON,780-463-1867,https://www1.shoppersdrugmart.ca/en/health-and-pharmacy/covid-19?ShortURL=covid,Calgary
242,ANDREW PHARMACY AND HOME HEALTHCARE,covid_vaccination_centres,-112.335320987774,53.879101397627,5022 51 St,ANDREW,780-365-3832,,Calgary
243,QUICK CARE PHARMACY,covid_vaccination_centres,-113.605355059629,53.622802998471,238-2 HEBERT RD,ST ALBERT,780-544-9393,,Calgary
244,DRUGSTORE PHARMACY #9024,covid_vaccination_centres,-113.296602777803,49.202007310311,120 2 ST E,CARDSTON,403-653-3352,https://www.extrafoods.ca/covid19,Calgary
245,SHOPPERS DRUG MART #2356,covid_vaccination_centres,-114.071708457847,50.878829444024,830-19369 SHERIFF KING ST SW,CALGARY,403-873-9135,https://www1.shoppersdrugmart.ca/en/health-and-pharmacy/covid-19?ShortURL=covid,Calgary
246,SHOPPERS DRUG MART #305,covid_vaccination_centres,-114.070561057532,51.102409503915,5628 4 ST NW,CALGARY,403-275-1222,https://www1.shoppersdrugmart.ca/en/health-and-pharmacy/covid-19?ShortURL=covid,Calgary
247,PETER'S PHARMACY,covid_vaccination_centres,-113.267965963374,51.704098302606,419 MAIN ST,THREE HILLS,403-443-2433,,Calgary
248,HARRVEST HILL PHARMACY,covid_vaccination_centres,-114.065567332869,51.14266538046,111-160 96 AVE NE,CALGARY,403-475-5900,,Calgary
249,CALGARY CO-OP PHARMACY #5,covid_vaccination_centres,-113.988160566415,51.03886471279,3330 17 AVE SE,CALGARY,403-299-4467,https://www.calgarycoop.com/covid19vaccination,Calgary
250,CASTLEDOWNS ARP PHARMACY,covid_vaccination_centres,-113.515689401454,53.613295456345,122-15277 CASTLEDOWNS RD NW,EDMONTON,780-457-0854,http://castledownspharmacy.com/,Calgary
251,PHARMASAVE #345,covid_vaccination_centres,-111.898218801722,50.575632235125,BAY C -316 8 AVE W,BROOKS,403-362-2265,,Calgary
252,SAFEWAY PHARMACY #8899,covid_vaccination_centres,-113.389088219716,52.958674239156,3901 56 ST,WETASKIWIN,780-352-2848,https://www.safeway.ca/vaccine-registration/,Calgary
253,SHOPPERS DRUG MART #360,covid_vaccination_centres,-118.781723336069,55.156941875883,5-9701 84 AVE,GRANDE PRAIRIE,780-532-3318,https://www1.shoppersdrugmart.ca/en/health-and-pharmacy/covid-19?ShortURL=covid,Calgary
254,LOBLAW PHARMACY #4201,covid_vaccination_centres,-113.719538714929,52.472827692823,5700 HWY 2A,LACOMBE,403-782-7354,https://www.nofrills.ca/covid19,Calgary
255,DRUGSTORE PHARMACY #9052,covid_vaccination_centres,-114.914307916646,52.384589851748,5520 46 ST,ROCKY MOUNTAIN HOUSE,403-846-4715,https://www.extrafoods.ca/covid19,Calgary
256,MEDIWELL PHARMACY,covid_vaccination_centres,-113.978877215359,51.147837421373,106-3840 104 AVE NE,CALGARY,825-222-8900,,Calgary
257,SOBEYS PHARMACY #1104,covid_vaccination_centres,-112.810217086404,49.728113555907,327 BLUEFOX BLVD N,LETHBRIDGE,403-320-5618,https://www.safeway.ca/vaccine-registration/,Calgary
258,WHOLE HEALTH PHARMACY EDMONTON,covid_vaccination_centres,-113.422855771433,53.598594056987,13578B FORT RD NW,EDMONTON,587-524-9928,,Calgary
259,TRINITY PHARMACY,covid_vaccination_centres,-113.494181357463,53.548701592005,10530 101 ST NW,EDMONTON,780-752-2220,,Calgary
260,RX DRUG MART #2014,covid_vaccination_centres,-114.404786689491,54.119857201617,5028 50 ST,BARRHEAD,780-674-2121,,Calgary
261,TAWA PHARMASAVE,covid_vaccination_centres,-113.432990857466,53.461670693315,3013 66 ST NW,EDMONTON,780-758-7283,https://www.tawapharmasave.ca,Calgary
262,GREENBROOK PHARMACY,covid_vaccination_centres,-111.880856459016,50.566239424038,344 8 ST E,BROOKS,403-362-4283,,Calgary
263,MEDICINE SHOPPE PHARMACY 372,covid_vaccination_centres,-111.362658801546,56.721474334265,203-8706 FRANKLIN AVE,FORT MCMURRAY,587-536-6648,https://www.medicineshoppe.ca/en/alberta/fort-mcmurray/the-medicine-shoppe-pharmacy-372-7022420,Calgary
264,MEDICINE SHOPPE PHARMACY 387,covid_vaccination_centres,-113.484649917114,53.600250330075,13703 93 ST NW,EDMONTON,780-760-3387,https://www.medicineshoppe.ca/en/alberta/edmonton/the-medicine-shoppe-pharmacy-387-7027091,Calgary
265,East Calgary Health Centre Family Care Clinic,covid_vaccination_centres,-113.967234630403,51.045099467288,4715 8 Ave SE,CALGARY,811,https://www.albertahealthservices.ca/topics/Page17295.aspx,Calgary
266,IDA COMMUNITY PHARMACY,covid_vaccination_centres,-113.351857972572,53.632911014883,36 EVERGREEN PK NW,EDMONTON,587-523-0900,https://www.bookmyshot.com/5875230900,Calgary
267,MEDICINE SHOPPE PHARMACY 320,covid_vaccination_centres,-113.598999299929,53.541253581153,102-16028 100A AVE NW,EDMONTON,780-487-6336,https://www.medicineshoppe.ca/en/alberta/edmonton/the-medicine-shoppe-pharmacy-320-7008159,Calgary
268,SOBEYS PHARMACY #5190,covid_vaccination_centres,-113.425190815137,53.42441104276,5309 ELLERSLIE RD SW,EDMONTON,780-450-1116,https://www.safeway.ca/vaccine-registration/,Calgary
269,BALKWILL PHARMACY LTD.,covid_vaccination_centres,-113.227211657134,51.827504918066,223 MAIN ST,TROCHU,403-442-3823,,Calgary
270,MEDICINE SHOPPE PHARMACY 344,covid_vaccination_centres,-113.489738086434,53.57039804655,9559 118 AVE NW,EDMONTON,780-477-3779,https://www.medicineshoppe.ca/en/alberta/edmonton/the-medicine-shoppe-pharmacy-344-7011508,Calgary
271,IDEAL CARE PHARMACY,covid_vaccination_centres,-113.466736357092,53.576375904215,12147 82 ST NW,EDMONTON,780-756-1236,,Calgary
272,SHOPPERS DRUG MART #331,covid_vaccination_centres,-112.864801101422,53.018786047289,180 CORNERSTONE MALL,CAMROSE,780-672-4961,https://www1.shoppersdrugmart.ca/en/health-and-pharmacy/covid-19?ShortURL=covid,Calgary
273,DRUGSTORE PHARMACY #6717,covid_vaccination_centres,-110.725752604407,54.281299065975,5106 46 ST,BONNYVILLE,780-812-3947,https://www.wholesaleclub.ca/covid19,Calgary
274,UNIVERSAL HEALTH PHARMACY #12 DIDSBURY,covid_vaccination_centres,-114.139280915187,51.660439884335,106-2034 19 AVE,DIDSBURY,403-335-8473,https://www.universalhealthcentre.com,Calgary
275,REXALL #7223,covid_vaccination_centres,-113.579896771195,52.671876443635,3-4502 50 ST,PONOKA,403-783-5568,https://www.rexall.ca/covid-19/alberta-vaccine,Calgary
276,MEDICINE SHOPPE PHARMACY 188,covid_vaccination_centres,-113.525975773372,53.558384498343,100-11910 111 AVE,EDMONTON,780-455-1302,https://www.medicineshoppe.ca/en/alberta/edmonton/the-medicine-shoppe-pharmacy-188-7034562,Calgary
277,REXALL #7514,covid_vaccination_centres,-113.500763576785,53.557195646761,10507 KINGSWAY AVE NW,EDMONTON,780-634-0461,https://www.rexall.ca/covid-19/alberta-vaccine,Calgary
278,LOBLAW PHARMACY #1577,covid_vaccination_centres,-114.167885101471,51.021338001519,5858 SIGNAL HILL CTR SW,CALGARY,403-686-8035,https://www.realcanadiansuperstore.ca/covid19,Calgary
279,SAFEWAY PHARMACY #8859,covid_vaccination_centres,-113.605987373122,53.622632062396,300-2 HEBERT RD,ST ALBERT,780-460-9339,https://www.safeway.ca/vaccine-registration/,Calgary
280,SHOPPERS DRUG MART #2409,covid_vaccination_centres,-112.705449544004,52.322626671294,4718 50 ST,STETTLER,403-742-3367,https://www1.shoppersdrugmart.ca/en/health-and-pharmacy/covid-19?ShortURL=covid,Calgary
281,SAFEWAY PHARMACY #8867,covid_vaccination_centres,-113.517931409356,53.547540348325,11410 104 AVE NW,EDMONTON,780-424-0666,https://www.safeway.ca/vaccine-registration/,Calgary
282,SHOPPERS DRUG MART #2391,covid_vaccination_centres,-114.211752386366,51.14996696065,8756 COUNTRY HILLS BLVD NW,CALGARY,403-208-4742,https://www1.shoppersdrugmart.ca/en/health-and-pharmacy/covid-19?ShortURL=covid,Calgary
283,STOKES PHARMACY,covid_vaccination_centres,-112.840349830581,49.694448981461,408 4 AVE S,LETHBRIDGE,403-380-3535,https://stokes.medmeapp.com/schedule,Calgary
284,SHOPPERS DRUG MART #2315,covid_vaccination_centres,-113.526386728946,53.547713220835,102-11962 104 AVE NW,EDMONTON,780-670-6922,https://www1.shoppersdrugmart.ca/en/health-and-pharmacy/covid-19?ShortURL=covid,Calgary
285,WABAMUN PHARMACY LTD,covid_vaccination_centres,-114.471947915133,53.558021932759,5120 51 AVE,WABAMUN,780-892-2418,http://bookyourvisit.ca/wabamunpharmacy,Calgary
286,COSTCO PHARMACY #1157,covid_vaccination_centres,-113.637106316795,53.66952362928,1075 ST. ALBERT TR,ST ALBERT,780-544-2010,https://www.costcopharmacy.ca/appointment,Calgary
287,MINT HEALTH + DRUGS: BEAVERLODGE,covid_vaccination_centres,-119.428636888788,55.209938613739,112 10 ST,BEAVERLODGE,780-354-2148,https://www.mintdrugs.com,Calgary
288,VISTA PHARMACY & TRAVEL CLINIC,covid_vaccination_centres,-113.980997815203,51.060325327843,130A-920 36 ST NE,CALGARY,403-460-3226,https://www.vistapharmacy.ca,Calgary
289,SHOPPERS DRUG MART #2355,covid_vaccination_centres,-114.203581373184,51.124597518115,28 CROWFOOT TERR NW,CALGARY,403-241-8818,https://www1.shoppersdrugmart.ca/en/health-and-pharmacy/covid-19?ShortURL=covid,Calgary
290,SHOPPERS DRUG MART #355,covid_vaccination_centres,-114.101623544038,51.066323019841,1790-1632 14 AVE NW,CALGARY,403-289-6761,https://www1.shoppersdrugmart.ca/en/health-and-pharmacy/covid-19?ShortURL=covid,Calgary
291,SOUTH TRAIL PHARMACY,covid_vaccination_centres,-113.973071715207,50.930592543138,78-4307 130 AVE SE,CALGARY,403-475-8612,,Calgary
292,SAFEWAY PHARMACY #8921,covid_vaccination_centres,-113.509044796415,53.454859528311,2304 109 ST NW,EDMONTON,780-430-4269,https://www.safeway.ca/vaccine-registration/,Calgary
293,SHOPPERS DRUG MART #2300,covid_vaccination_centres,-113.628872713051,53.656560367264,100-665 ST. ALBERT RD,ST ALBERT,780-418-7891,https://www1.shoppersdrugmart.ca/en/health-and-pharmacy/covid-19?ShortURL=covid,Calgary
294,BENTLEY IDA,covid_vaccination_centres,-114.051217814791,52.465503390734,5018 50 AVE,BENTLEY,403-748-3820,,Calgary
295,MEDICINE SHOPPE PHARMACY 315,covid_vaccination_centres,-113.442575544104,53.570224362248,6525 118 AVE NW,EDMONTON,780-479-2077,https://www.medicineshoppe.ca/en/alberta/edmonton/the-medicine-shoppe-pharmacy-315-7008312,Calgary
296,PHARMASAVE #346,covid_vaccination_centres,-117.28229883297,55.051271820899,1D-3808 HIGHWAY ST,VALLEYVIEW,780-524-2183,,Calgary
297,LOBLAW PHARMACY #1544,covid_vaccination_centres,-118.790751001368,55.191090814693,12225 99 ST,GRANDE PRAIRIE,780-831-3835,https://www.realcanadiansuperstore.ca/covid19,Calgary
298,REXALL #7238,covid_vaccination_centres,-113.41318958104,53.607601661775,14403 MILLER BLVD NW,EDMONTON,780-475-1364,https://www.rexall.ca/covid-19/alberta-vaccine,Calgary
299,HEALTH AID PHARMACY,covid_vaccination_centres,-113.546775357091,53.629420312247,12918 167 AVE NW,EDMONTON,780-244-0803,,Calgary
300,LIFE MED PHARMACY #2,covid_vaccination_centres,-113.252436212712,50.558328417107,218 CENTER ST,VULCAN,403-485-2552,,Calgary
301,SHOPPERS DRUG MART #313,covid_vaccination_centres,-113.593380855333,53.520817361035,254 MEADOWLARK HEALTH CTR,EDMONTON,780-484-7718,https://www1.shoppersdrugmart.ca/en/health-and-pharmacy/covid-19?ShortURL=covid,Calgary
302,PREFERREDRX PHARMACY,covid_vaccination_centres,-114.103074763372,51.794792913321,1-4601 50 AVE,OLDS,403-556-4155,,Calgary
303,CRANSTON SMART DRUG MART,covid_vaccination_centres,-113.968423430173,50.868685154015,121-35 CRANFORD WAY SE,CALGARY,587-623-1120,https://www.cranstonpharmacy.com/,Calgary
304,SAFEWAY PHARMACY #8885,covid_vaccination_centres,-113.978855508057,53.540034488831,4202 SOUTH PARK DR,STONY PLAIN,780-963-2264,https://www.safeway.ca/vaccine-registration/,Calgary
305,MEDICINE SHOPPE PHARMACY 194,covid_vaccination_centres,-114.071898515204,51.032319928796,2303 4 ST SW,CALGARY,403-229-3458,https://www.medicineshoppe.ca/en/alberta/calgary/the-medicine-shoppe-pharmacy-194-7002313,Calgary
306,SHOPPERS DRUG MART #2377,covid_vaccination_centres,-113.571336872807,53.435382141777,5970 MULLEN WAY NW,EDMONTON,780-435-1782,https://www1.shoppersdrugmart.ca/en/health-and-pharmacy/covid-19?ShortURL=covid,Calgary
307,HIGH RIVER PHARMACY,covid_vaccination_centres,-113.872585243671,50.580076597271,103 3 AVE SW,HIGH RIVER,403-652-5608,,Calgary
308,WELLNESS DISPENSARY,covid_vaccination_centres,-113.6071682029,53.540580414721,26-10081 166 ST,EDMONTON,780-930-1344,,Calgary
309,FAMILY CARE PHARMACY,covid_vaccination_centres,-114.070377848381,51.142655397504,218-40 COUNTRY HILLS LANDNG NW,CALGARY,587-352-2600,,Calgary
310,ROYAL CARE DOUGLASDALE PHARMACY,covid_vaccination_centres,-114.001993305721,50.943565580442,6-20 DOUGLAS WOODS DR SE,CALGARY,587-349-3443,,Calgary
311,SHOPPERS DRUG MART #2374,covid_vaccination_centres,-113.489793116978,53.620604797262,15969 97 ST NW,EDMONTON,780-473-2813,https://www1.shoppersdrugmart.ca/en/health-and-pharmacy/covid-19?ShortURL=covid,Calgary
312,UNIVERSAL PHARMACY,covid_vaccination_centres,-113.956259288215,51.053089927705,113-5271 MEMORIAL DR SE,CALGARY,403-235-0081,,Calgary
313,SAVE-ON-FOODS PHARMACY #6623,covid_vaccination_centres,-113.948297949905,50.707267517822,400-100 SOUTHBANK BLVD,OKOTOKS,587-757-8972,https://saveonfoodspharmacy.medmeapp.com/schedule/,Calgary
314,PATIENT CARE PHARMACY,covid_vaccination_centres,-113.457397886618,53.514193828326,7707 85 ST NW,EDMONTON,780-705-8100,http://www.patientcarepharmacyedmonton.com,Calgary
315,SHOPPERS DRUG MART #2446,covid_vaccination_centres,-113.417055186296,53.628464515561,5351 167 AVE NW,EDMONTON,780-478-7261,https://www1.shoppersdrugmart.ca/en/health-and-pharmacy/covid-19?ShortURL=covid,Calgary
316,WAL-MART PHARMACY #3150,covid_vaccination_centres,-110.643157546774,49.993622633278,2051 STRACHAN RD SE,MEDICINE HAT,403-526-1444,https://portal.healthmyself.net/walmartab/forms/a66,Calgary
317,6&6 PHARMACY,covid_vaccination_centres,-112.838512372302,49.691893888654,526 6 ST S,LETHBRIDGE,403-942-0044,,Calgary
318,SAVE-ON-FOODS PHARMACY #6607,covid_vaccination_centres,-111.355401108724,56.718010604955,6406 FRANKLIN AVE,FORT MCMURRAY,780-791-4147,https://www.saveonfoods.com,Calgary
319,VIKING PHARMACY,covid_vaccination_centres,-111.778498828641,53.096763722236,5305 51 ST,VIKING,780-336-3380,,Calgary
320,WAL-MART PHARMACY #3038,covid_vaccination_centres,-117.625204819155,53.383714957822,PARKS WEST MALL,HINTON,780-865-1575,https://portal.healthmyself.net/walmartab/forms/a66,Calgary
321,PHARMASAVE WESTMOUNT,covid_vaccination_centres,-113.535750747987,53.554001694589,10844 124 ST NW,EDMONTON,780-249-9901,https://www.pharmasave.com/edmonton-westmount,Calgary
322,MEDICINE SHOPPE PHARMACY 126,covid_vaccination_centres,-114.070351644766,51.099479247408,12-5440 4 ST NW,CALGARY,403-274-3400,https://www.medicineshoppe.ca/en/alberta/calgary/the-medicine-shoppe-pharmacy-126-7011287,Calgary
323,WAL-MART PHARMACY #1028,covid_vaccination_centres,-112.688272730533,51.450079003235,1801 SOUTH RAILWAY AVE,DRUMHELLER,403-820-7741,https://portal.healthmyself.net/walmartab/forms/a66,Calgary
324,MEDICINE SHOPPE PHARMACY 393,covid_vaccination_centres,-113.567136459446,53.551807768232,10714 142 ST NW,EDMONTON,587-520-2061,https://www.medicineshoppe.ca/en/alberta/edmonton/the-medicine-shoppe-pharmacy-393-7051291,Calgary
325,REXALL #7284,covid_vaccination_centres,-114.014558265905,51.058578661945,116-817 19 ST NE,CALGARY,403-277-2227,https://www.rexall.ca/covid-19/alberta-vaccine,Calgary
326,MADIGAN PHARMACY,covid_vaccination_centres,-113.942733701868,51.052997769984,68-6060 MEMORIAL DR NE,CALGARY,403-457-9250,https://madiganpharmacy.myappts.ca/src/,Calgary
327,BOYLE MCCAULEY PHARMACY & HOME HEALTH CARE,covid_vaccination_centres,-113.484050658945,53.555242548971,10817 95 ST NW,EDMONTON,780-705-6333,,Calgary
328,PHARMASAVE #312 LEGAL,covid_vaccination_centres,-113.591093249826,53.949391258619,4718 50 AVE,LEGAL,780-961-2285,,Calgary
329,CURE CARE PHARMACY,covid_vaccination_centres,-113.478443958943,53.641648790715,11-9104 179 AVE NW,EDMONTON,587-459-4999,https://forms.gle/Pof2d7Jv6J2R5ihU7,Calgary
330,REXALL #7516,covid_vaccination_centres,-110.861694650433,52.833469766191,118 10 ST,WAINWRIGHT,780-842-3414,https://www.rexall.ca/covid-19/alberta-vaccine,Calgary
331,WAL-MART PHARMACY #1145,covid_vaccination_centres,-113.494016859633,53.475531972663,SOUTHPARK VILLAGE,EDMONTON,780-433-2575,https://portal.healthmyself.net/walmartab/forms/a66,Calgary
332,SAFEWAY PHARMACY #8830,covid_vaccination_centres,-114.014075132641,51.288835429289,TOWER LANE MALL,AIRDRIE,403-948-3361,https://www.safeway.ca/vaccine-registration/,Calgary
333,SHOPPERS DRUG MART #2413,covid_vaccination_centres,-114.109649186372,50.908122845509,100-2250 162 AVE SW,CALGARY,403-201-8202,https://www1.shoppersdrugmart.ca/en/health-and-pharmacy/covid-19?ShortURL=covid,Calgary
334,VILLAGE PHARMACY,covid_vaccination_centres,-113.436568628628,53.537869757758,9805 71 ST NW,EDMONTON,780-440-4555,,Calgary
335,LOBLAW PHARMACY #1550,covid_vaccination_centres,-110.652351714988,50.004219390544,PHARMACY DEPARTMENT #1550,MEDICINE HAT,403-528-5735,https://www.realcanadiansuperstore.ca/covid19,Calgary
336,SAGE MEADOWS PHARMACY,covid_vaccination_centres,-114.13147587688,51.175381358895,240-2971 136 AVE NW,CALGARY,587-997-0093,,Calgary
337,FOREST HILLS PHARMASAVE #323,covid_vaccination_centres,-113.957989701333,51.037606007783,3-5315 17 AVE SE,CALGARY,587-354-7766,,Calgary
338,REXALL #7285,covid_vaccination_centres,-113.960550188755,50.914685860347,70 HIGH ST SE,CALGARY,403-257-3636,https://www.rexall.ca/covid-19/alberta-vaccine,Calgary
339,PARSONS PHARMACY,covid_vaccination_centres,-113.807208554116,52.267626263762,1C-4755 49 ST,RED DEER,403-986-0700,,Calgary
340,DOWNTOWN DRUGMART,covid_vaccination_centres,-114.06392619948,51.045618229705,115 8 AVE SW,CALGARY,403-266-2059,https://www.downtowndrugmart.myappts.ca/ssc,Calgary
341,DELTON SUPER DRUGS LTD.,covid_vaccination_centres,-113.467729257092,53.587695774065,12904 82 ST NW,EDMONTON,780-476-8737,,Calgary
342,LOBLAW PHARMACY #1565,covid_vaccination_centres,-113.933468428396,53.544182057914,10-110 JENNIFER HEIL WAY,SPRUCE GROVE,780-960-7435,https://www.realcanadiansuperstore.ca/covid19,Calgary
343,STUBBS PHARMACY,covid_vaccination_centres,-112.820456544076,49.686494769183,1506 9 AVE S,LETHBRIDGE,403-328-5512,,Calgary
344,PONOKA PROFESSIONAL PHARMACY,covid_vaccination_centres,-113.578526968897,52.674389503479,20-5011 48 AVE,PONOKA,403-783-7333,https://www.calendly.com/ponoka,Calgary
345,TWO PHARMACY,covid_vaccination_centres,-114.47443117287,51.185761249079,105-100 GRANDE BLVD W,COCHRANE,,https://www.twopharmacy.ca,Calgary
346,WAL-MART PHARMACY #3009,covid_vaccination_centres,-114.139620292226,51.041099035352,WESTBROOK PLAZA,CALGARY,403-249-8904,https://portal.healthmyself.net/walmartab/forms/a66,Calgary
347,NORTHEY REMEDY'S RX PHARMACY,covid_vaccination_centres,-113.82650523051,52.302009454176,190 NORTHEY AVE,RED DEER,403-346-2367,https://northeyremedysrx.medmeapp.ca/schedule,Calgary
348,SAFEWAY PHARMACY #8917,covid_vaccination_centres,-113.979188457851,50.717055839065,610 BIG ROCK LANE,OKOTOKS,403-938-9351,https://www.safeway.ca/vaccine-registration/,Calgary
349,MEDICARE PLUS PHARMACY,covid_vaccination_centres,-113.942411464941,51.071693071955,7-6208 RUNDLEHORN DR NE,CALGARY,403-453-6386,,Calgary
350,SHOPPERS DRUG MART #2358,covid_vaccination_centres,-113.415604136347,53.363733243348,6302 50 ST,BEAUMONT,780-929-4231,https://www1.shoppersdrugmart.ca/en/health-and-pharmacy/covid-19?ShortURL=covid,Calgary
351,SAFEWAY PHARMACY #8820,covid_vaccination_centres,-114.072177932706,51.030444181173,524 ELBOW DR SW,CALGARY,403-228-4240,https://www.safeway.ca/vaccine-registration/,Calgary
352,SHOPPERS DRUG MART 2432,covid_vaccination_centres,-114.060964775541,50.97964983904,383 HERITAGE DR SE,CALGARY,403-255-4998,https://www.shoppersdrugmart.ca/covid19,Calgary
353,SAFEWAY PHARMACY #8909,covid_vaccination_centres,-113.944702102019,51.123753987442,850 SADDLETOWNE CIR NE,CALGARY,403-293-1670,https://www.safeway.ca/vaccine-registration/,Calgary
354,SHOPPERS DRUG MART #371,covid_vaccination_centres,-113.392394433816,53.474930461125,3945 34 ST NW,EDMONTON,780-461-6768,https://www1.shoppersdrugmart.ca/en/health-and-pharmacy/covid-19?ShortURL=covid,Calgary
355,MINT HEALTH + DRUGS: TRI WELLNESS,covid_vaccination_centres,-113.936755557231,53.549860205025,104-7 TRI LEISURE WAY,SPRUCE GROVE,587-853-0453,,Calgary
356,SALVUS RXELLENCE PROFESSIONAL DISPENSARY,covid_vaccination_centres,-113.63014957682,53.652367350306,44-143 LIBERTON DR,ST ALBERT,780-418-3113,,Calgary
357,SHOPPERS DRUG MART #2427,covid_vaccination_centres,-113.31844400164,53.513157513125,5-1020 SHERWOOD DR,SHERWOOD PARK,780-449-2565,https://www1.shoppersdrugmart.ca/en/health-and-pharmacy/covid-19?ShortURL=covid,Calgary
358,SAVE-ON-FOODS PHARMACY #6622,covid_vaccination_centres,-113.475318286621,53.422944260436,1120 91 ST SW,EDMONTON,780-462-7741,https://saveonfoodspharmacy.medmeapp.com/schedule/,Calgary
359,MEDICINE SHOPPE PHARMACY 171,covid_vaccination_centres,-113.982586915932,51.077488052841,100-2675 36 ST NE,CALGARY,403-291-0076,https://www.medicineshoppe.ca/en/alberta/calgary/the-medicine-shoppe-pharmacy-171-7015167,Calgary
360,SHOPPERS DRUG MART #2431 COOPERS CROSSING,covid_vaccination_centres,-114.023099959984,51.258392466866,801-401 COOPERS BLVD SW,AIRDRIE,403-912-0246,https://www1.shoppersdrugmart.ca/en/health-and-pharmacy/covid-19?ShortURL=covid,Calgary
361,SHOPPERS DRUG MART #6027,covid_vaccination_centres,-113.376164824379,53.649411123969,18750 18 ST NW,EDMONTON,587-497-2783,https://www1.shoppersdrugmart.ca/en/health-and-pharmacy/covid-19?ShortURL=covid,Calgary
362,SAFEWAY PHARMACY #8849,covid_vaccination_centres,-114.073495728455,51.127322313137,8120 BEDDINGTON BLVD NW,CALGARY,403-295-8895,https://www.safeway.ca/vaccine-registration/,Calgary
363,BEVERLY PHARMACY,covid_vaccination_centres,-113.407892672437,53.570267588486,4243 118 AVE NW,EDMONTON,780-756-7711,,Calgary
364,BEARSPAW FAMILY PHARMACY,covid_vaccination_centres,-113.50026762826,53.448456601846,1929 105 ST NW,EDMONTON,780-485-8195,https://bearspawpharmacy.medmeapp.ca/schedule,Calgary
365,REXALL #7203,covid_vaccination_centres,-115.687241171171,54.138214267373,4702 51 ST,WHITECOURT,780-778-3676,https://www.rexall.ca/covid-19/alberta-vaccine,Calgary
366,ABBEYDALE PHARMACY & TRAVEL CLINIC,covid_vaccination_centres,-113.934326086346,51.059239516412,814 68 ST NE,CALGARY,587-470-8000,https://www.travelcliniccalgary.ca,Calgary
367,WAL-MART PHARMACY #1122,covid_vaccination_centres,-113.542750055931,53.631921065479,16940 127 ST NW,EDMONTON,780-457-6795,https://portal.healthmyself.net/walmartab/forms/a66,Calgary
368,LOBLAW PHARMACY #1548,covid_vaccination_centres,-111.376212843657,56.723337562436,PHARMACY DEPARTMENT,FORT MCMURRAY,780-790-3835,https://www.realcanadiansuperstore.ca/covid19,Calgary
369,SAFEWAY PHARMACY #8914,covid_vaccination_centres,-114.475572830853,51.185351577582,304 5 AVE W,COCHRANE,403-851-1279,https://www.safeway.ca/vaccine-registration/,Calgary
370,ALI'S DRUG MART,covid_vaccination_centres,-113.883285185929,53.565438646333,214-11 WESTWIND DR,SPRUCE GROVE,587-461-7308,https://www.alidrugmart.com,Calgary
371,UNIVERSAL HEALTH PHARMACY #8 CASTLERIDGE,covid_vaccination_centres,-113.949942272872,51.107538912752,4-12 CASTLERIDGE DR NE,CALGARY,403-262-6391,https://www.universalhealthcentre.com,Calgary
372,MEDICINE SHOPPE PHARMACY 242,covid_vaccination_centres,-114.058702815368,50.90263168346,111-31 SUNPARK PLAZA SE,CALGARY,403-873-0087,https://www.medicineshoppe.ca/en/alberta/calgary/the-medicine-shoppe-pharmacy-242-7024603,Calgary
373,REXALL #7241,covid_vaccination_centres,-114.002955856513,53.530270566267,4801 50 AVE,STONY PLAIN,780-963-5005,https://www.rexall.ca/covid-19/alberta-vaccine,Calgary
374,FAMILY CARE MEDICAL PHARMACY,covid_vaccination_centres,-113.521838730109,53.551343460716,101-11611 107 AVE NW,EDMONTON,780-250-3991,,Calgary
375,STAMPEDE PHARMACY,covid_vaccination_centres,-114.139992995081,51.10148999334,19-3616 52 AVE NW,CALGARY,403-460-4646,,Calgary
376,WAL-MART PHARMACY #1070,covid_vaccination_centres,-113.943740463977,49.499537129879,1100 TABLE MOUNTAIN,PINCHER CREEK,403-627-1730,https://portal.healthmyself.net/walmartab/forms/a66,Calgary
377,MEDICINE SHOPPE PHARMACY 412,covid_vaccination_centres,-113.475379340417,53.4260766413,9216 ELLERSLIE RD SW,EDMONTON,780-250-9454,https://msp412.medmeapp.com/schedule/,Calgary
378,GAIL'S APOTHECARY AND COMPOUNDING PHARMACY,covid_vaccination_centres,-112.823253786019,49.705165428022,2-425 13 ST N,LETHBRIDGE,403-329-4121,,Calgary
379,ELITE PHARMACY,covid_vaccination_centres,-114.173720859004,51.083812492269,110-6108 BOWNESS RD NW,CALGARY,403-457-7221,,Calgary
380,PHARMACY ONE,covid_vaccination_centres,-113.491834167027,53.549917010585,10003 106 AVE NW,EDMONTON,587-525-8545,,Calgary
381,GRACE I.D.A. PHARMACY,covid_vaccination_centres,-113.576291188515,53.476315576686,14723 40 AVE NW,EDMONTON,780-652-2144,www.graceidapharmacy.com,Calgary
382,DRUG & BEAN (MISSION),covid_vaccination_centres,-114.06760937693,51.034024677101,120-2210 2 ST SW,CALGARY,587-356-3786,,Calgary
383,PHARMASAVE #302,covid_vaccination_centres,-110.6876543928,50.050144984592,58 8 ST NW,MEDICINE HAT,403-527-5332,https://pharmaconnect.ca/appointment/3ab2e46d-9350-4d89-a3d3-03c65a86207f,Calgary
384,BEHEALTHY PHARMACY,covid_vaccination_centres,-113.578564923351,53.542552154825,10120 149 ST NW,EDMONTON,780-444-3381,,Calgary
385,BASSANO PHARMACY,covid_vaccination_centres,-112.468866576732,50.78740408341,401 2 AVE,BASSANO,403-641-3757,,Calgary
386,WAL-MART PHARMACY #1138,covid_vaccination_centres,-113.36217352525,53.47928745684,775 TAMARACK WAY NW,EDMONTON,780-643-3013,https://portal.healthmyself.net/walmartab/forms/a66,Calgary
387,FRONTLINE PHARMACY,covid_vaccination_centres,-113.631249801275,53.470348900928,627 CAMERON HEIGHTS DR NW,EDMONTON,780-444-4884,https://frontlinepharmacy.medmeapp.ca/schedule/,Calgary
388,VISTA PARK PHARMACY,covid_vaccination_centres,-110.680224915232,49.993089616197,102B-450 VISTA DR SE,MEDICINE HAT,403-487-4688,,Calgary
389,MEDICINE SHOPPE PHARMACY 115,covid_vaccination_centres,-113.595552390699,53.519184368123,15819 87 AVE NW,EDMONTON,780-486-1882,https://msmeadowlark.medmeapp.com/schedule,Calgary
390,CALGARY DRUG MART #02,covid_vaccination_centres,-113.974825911382,51.059840571749,2-4100 MARLBOROUGH DR NE,CALGARY,587-354-4466,,Calgary
391,CHESTERMERE REMEDY'S RX,covid_vaccination_centres,-113.840119257358,51.037794971112,106B-300 MERGANSER DR,CHESTERMERE,403-719-8270,,Calgary
392,REXALL #7206,covid_vaccination_centres,-117.275338446099,55.06900411261,4705 50 AVE,VALLEYVIEW,780-524-3593,https://www.rexall.ca/covid-19/alberta-vaccine,Calgary
393,REXALL #7218,covid_vaccination_centres,-114.771263177237,55.283353271966,233 MAIN ST NE,SLAVE LAKE,780-849-4005,https://www.rexall.ca/covid-19/alberta-vaccine,Calgary
394,SOUTHPORT PHARMACY,covid_vaccination_centres,-114.072901486371,50.963144296266,106-10333 SOUTHPORT RD SW,CALGARY,403-253-7753,,Calgary
395,STRATHMORE VALUE DRUG MART,covid_vaccination_centres,-113.395813628698,51.043561344888,132 2 AVE,STRATHMORE,403-934-3122,,Calgary
396,LOBLAW PHARMACY #1590,covid_vaccination_centres,-114.05425236339,51.04773744797,240-540 3 ST SE,CALGARY,825-513-9506,https://www.realcanadiansuperstore.ca/covid19,Calgary
397,HAWKSTONE HOME HEALTH CARE PHARMACY,covid_vaccination_centres,-113.642326301275,53.486446810497,100-18332 LESSARD RD,EDMONTON,780-433-3413,https://www.hawkstonepharmacy.com,Calgary
398,CHINATOWN IPHARMACY,covid_vaccination_centres,-113.489639830292,53.553225049999,9662 107A AVE NW,EDMONTON,780-756-4000,,Calgary
399,HUDSON PHARMACY,covid_vaccination_centres,-113.54228201024,53.603458503677,14072 127 ST NW,EDMONTON,780-466-2624,,Calgary
400,SHOPPERS SIMPLY PHARMACY #3084,covid_vaccination_centres,-113.443838167973,53.592309203677,6603 132 AVE NW,EDMONTON,780-475-3331,https://www1.shoppersdrugmart.ca/en/health-and-pharmacy/covid-19?ShortURL=covid,Calgary
401,NORWOOD PHARMACY,covid_vaccination_centres,-113.486273015133,53.559668499601,11051 95 ST,EDMONTON,780-669-9227,,Calgary
402,LOBLAW PHARMACY #1570,covid_vaccination_centres,-113.493423901411,53.486152389291,4821 CALGARY TR NW,EDMONTON,780-438-0196,https://www.realcanadiansuperstore.ca/covid19,Calgary
403,PHARMASAVE 337,covid_vaccination_centres,-114.646065407179,51.79580366807,557 MAIN AVE W,SUNDRE,403-638-4944,https://pharmaconnect.ca/appointment/7aef6ccb-2775-4f86-aa53-d2a5f49ceccc,Calgary
404,CALLINGWOOD PHARMACY,covid_vaccination_centres,-113.619290550184,53.505258351656,6911 172 ST NW,EDMONTON,780-481-5886,,Calgary
405,BRIDLEWOOD PHARMACY,covid_vaccination_centres,-114.117701303188,50.901377935274,95-2525 BRIDLECREST WAY SW,CALGARY,403-258-1356,,Calgary
406,UNIVERSAL HEALTH PHARMACY #9 NORTHLAND,covid_vaccination_centres,-114.135267630543,51.101133197054,108B-3604 52 AVE NW,CALGARY,587-353-5253,https://www.universalhealthcentre.com,Calgary
407,WAL-MART PHARMACY #3027,covid_vaccination_centres,-113.643590357782,53.538855474256,18521 STONY PLAIN RD NW,EDMONTON,780-484-4468,https://portal.healthmyself.net/walmartab/forms/a66,Calgary
408,REXALL #7273,covid_vaccination_centres,-110.68503354135,50.032077917777,105-73 7 ST SE,MEDICINE HAT,403-527-8842,https://www.rexall.ca/covid-19/alberta-vaccine,Calgary
409,MEDICINE SHOPPE PHARMACY 345,covid_vaccination_centres,-113.542027815268,53.603117121584,14020 127 ST NW,EDMONTON,780-472-9929,https://www.medicineshoppe.ca/en/alberta/edmonton/the-medicine-shoppe-pharmacy-345-7002753,Calgary
410,NOBLEFORD PHARMACY AND COMPOUNDING,covid_vaccination_centres,-113.054108257565,49.882423449782,221 KING ST,NOBLEFORD,403-824-4335,https://noblefordpharmacyandcompounding.myappts.ca/src/,Calgary
411,J L PHARMACARE PHARMACY,covid_vaccination_centres,-113.413869550719,53.570384023886,4627 118 AVE NW,EDMONTON,780-479-0047,,Calgary
412,PHARMACY PLUS,covid_vaccination_centres,-113.934102076882,51.098704892274,5066 68 ST NE,CALGARY,403-568-0005,,Calgary
413,EVANSDALE PHARMACY,covid_vaccination_centres,-113.4684246436,53.607388582265,8216 144 AVE NW,EDMONTON,780-478-7713,,Calgary
414,REXALL #7256,covid_vaccination_centres,-117.588624843693,53.398716939792,177 PEMBINA AVE,HINTON,780-865-2880,https://www.rexall.ca/covid-19/alberta-vaccine,Calgary
415,MARKET MALL PHARMACY & COMPOUNDING,covid_vaccination_centres,-114.157780059537,51.087926291657,100-4935 40 AVE NW,CALGARY,403-286-3120,https://www.marketmallpharmacy.com,Calgary
416,DIDSBURY FAMILY PHARMACY,covid_vaccination_centres,-114.136028724925,51.6610992165,1912 20 ST,DIDSBURY,403-335-0022,,Calgary
417,PHARMASAVE ON NORTHMOUNT,covid_vaccination_centres,-114.127905046748,51.093404668656,4501 BRISEBOIS DR NW,CALGARY,403-282-1208,https://www.pharmasavenorthmount.simplybook.me,Calgary
418,PHARMACY ON WHYTE,covid_vaccination_centres,-113.489536050387,53.518612075193,10050 82 AVE NW,EDMONTON,780-758-7600,,Calgary
419,THE COMMONS PHARMACY,covid_vaccination_centres,-111.428833263555,56.755143997011,1-245 EAGLE RIDGE BLVD,FORT MCMURRAY,780-750-2700,,Calgary
420,DAYSLAND PHARMACY,covid_vaccination_centres,-112.26011165711,52.864677750992,5023 50 ST,DAYSLAND,780-374-3900,,Calgary
421,CARDSTON REMEDY'S RX PHARMACY,covid_vaccination_centres,-113.302146188099,49.198457224689,321 MAIN ST,CARDSTON,403-659-1100,,Calgary
422,MEDICINE SHOPPE PHARMACY 212,covid_vaccination_centres,-113.991580088374,51.037460434984,2905 17 AVE SE,CALGARY,403-235-0888,https://www.medicineshoppe.ca/en/alberta/calgary/the-medicine-shoppe-pharmacy-212-7001094,Calgary
423,PLAZA 67 IDA PHARMACY,covid_vaccination_centres,-113.830450975004,52.289701192466,120-6075 67A ST,RED DEER,587-457-7117,,Calgary
424,MINT HEALTH + DRUGS: BLUE BOTTLE,covid_vaccination_centres,-114.060099715362,51.068177247758,148 17 AVE NE,CALGARY,403-276-3364,,Calgary
425,DRUGSTORE PHARMACY #4389,covid_vaccination_centres,-113.981368665755,50.731669607103,9 SANDSTONE GATE,OKOTOKS,403-938-8080,https://www.nofrills.ca/covid19,Calgary
426,SHOPPERS DRUG MART #333,covid_vaccination_centres,-113.294464004706,53.533052341489,500-2020 SHERWOOD DR,SHERWOOD PARK,780-464-9788,https://www1.shoppersdrugmart.ca/en/health-and-pharmacy/covid-19?ShortURL=covid,Calgary
427,EASTGATE DRUGS,covid_vaccination_centres,-113.400362930108,53.599670648623,3804-137 Ave NW,EDMONTON,780-800-8340,,Calgary
428,COMMUNITY DRUG MART #2029,covid_vaccination_centres,-110.203972101428,54.432076377129,206-6503 51 ST,COLD LAKE,780-594-5444,,Calgary
429,PHARMASAVE JO'S BELTLINE PHARMACY,covid_vaccination_centres,-114.090079801869,51.04319727309,1219 11 AVE SW,CALGARY,587-392-5857,,Calgary
430,REXALL #7212,covid_vaccination_centres,-113.551034809738,53.26756527989,2-5201 50 ST,LEDUC,780-986-8313,https://www.rexall.ca/covid-19/alberta-vaccine,Calgary
431,LOBLAW PHARMACY #1569,covid_vaccination_centres,-113.374246814904,53.480786973156,4410 17 ST NW,EDMONTON,780-450-2041,https://www.realcanadiansuperstore.ca/covid19,Calgary
432,ELIXIR PHARMACY,covid_vaccination_centres,-114.164179828315,51.103538810269,102-8 VARSITY ESTATES CIR NW,CALGARY,587-355-7008,https://www.elixirpharmacy.ca,Calgary
433,FUTURE DRUG MART #2,covid_vaccination_centres,-113.977012822753,51.038618570173,102-4015 17 AVE SE,CALGARY,403-453-0169,,Calgary
434,CO-OP PHARMACY HAWKSTONE LESSARD,covid_vaccination_centres,-113.643739572623,53.486117453842,18370 LESSARD RD NW,EDMONTON,780-428-3907,https://northcentralco-op.crs,Calgary
435,CENTRAL ALBERTA CO-OP LTD. TIMBERLANDS PHARMACY,covid_vaccination_centres,-113.765770943825,52.284096073151,3101-499 TIMBERLANDS DR,RED DEER,587-802-8559,,Calgary
436,WAL-MART PHARMACY #3658,covid_vaccination_centres,-111.900913073197,50.577494469594,917 3 ST W,BROOKS,403-501-5552,https://portal.healthmyself.net/walmartab/forms/a66,Calgary
437,CONNECTCARE MEDICAL CLINIC & PHARMACY MILLWOODS,covid_vaccination_centres,-113.370787572623,53.467945525101,1756 34 AVE NW,EDMONTON,780-665-4881,https://www.connectcarepharmacy.com,Calgary
438,SHOPPERS DRUG MART #2415,covid_vaccination_centres,-113.814550015171,52.233994819544,1-6320 50 AVE,RED DEER,403-348-8164,https://www1.shoppersdrugmart.ca/en/health-and-pharmacy/covid-19?ShortURL=covid,Calgary
439,SHOPPERS DRUG MART #2438,covid_vaccination_centres,-114.098349072839,52.309814568056,BAYS 8-13 5043 50A ST,SYLVAN LAKE,403-887-4200,https://www1.shoppersdrugmart.ca/en/health-and-pharmacy/covid-19?ShortURL=covid,Calgary
440,SHOPPERS DRUG MART #329,covid_vaccination_centres,-114.029862145888,50.929835283458,50-1221 CANYON MEADOWS DR SE,CALGARY,403-278-7422,https://www1.shoppersdrugmart.ca/en/health-and-pharmacy/covid-19?ShortURL=covid,Calgary
441,SAFEWAY PHARMACY #8871,covid_vaccination_centres,-118.792601154043,55.183364870601,9925 114 AVE,GRANDE PRAIRIE,780-532-7100,https://www.safeway.ca/vaccine-registration/,Calgary
442,REXALL #7244,covid_vaccination_centres,-113.325258241821,53.535604615437,80 CHIPPEWA RD,SHERWOOD PARK,780-464-3454,https://www.rexall.ca/covid-19/alberta-vaccine,Calgary
443,WESTWINDS PHARMACY,covid_vaccination_centres,-113.964725729006,51.100987723141,1150-4818 WESTWINDS DR NE,CALGARY,403-293-9360,,Calgary
444,SAVE-ON-FOODS PHARMACY #6613,covid_vaccination_centres,-113.508060684769,53.542848087608,10180 109 ST NW,EDMONTON,780-423-3528,https://saveonfoodspharmacy.medmeapp.com/schedule/,Calgary
445,LEDUC CO-OP PHARMACY,covid_vaccination_centres,-113.550488601416,53.269701389518,5421 50 ST,LEDUC,780-980-3214,,Calgary
446,SHOPPERS DRUG MART #366,covid_vaccination_centres,-113.400300770957,53.5707727733,3812 118 AVE NW,EDMONTON,780-474-2424,https://www1.shoppersdrugmart.ca/en/health-and-pharmacy/covid-19?ShortURL=covid,Calgary
447,DAVE HILL PHARMACY,covid_vaccination_centres,-111.426139543803,56.734089624328,1-200 THICKWOOD BLVD,FORT MCMURRAY,780-750-1111,,Calgary
448,SUNDRE FAMILY PHARMACY,covid_vaccination_centres,-114.641149257513,51.797669793788,12-200 MAIN AVE W,SUNDRE,403-638-4510,https://sundrefamilypharmacy.medmeapp.ca/schedule,Calgary
449,MEDICINE SHOPPE PHARMACY 404,covid_vaccination_centres,-114.003245372941,53.536423941216,103-4807 44 AVE,STONY PLAIN,780-968-9646,http://www.stonyplaintravelhealth.com,Calgary
450,CAREBRIDGE REMEDY'S RX PHARMACY,covid_vaccination_centres,-112.835603730413,49.694213782029,402 8 ST S,LETHBRIDGE,587-425-6350,,Calgary
451,PHARMACY CARE 2,covid_vaccination_centres,-113.994411808118,51.080530103268,109-3151 27 ST NE,CALGARY,403-764-6996,,Calgary
452,MACKENZIE DRUGS,covid_vaccination_centres,-110.672043015399,50.040931115688,301 NORTH RAILWAY ST SE,MEDICINE HAT,403-526-2667,,Calgary
453,SAVE-ON-FOODS PHARMACY #6667,covid_vaccination_centres,-113.54328543819,53.615782544869,12903 153 AVE NW,EDMONTON,780-476-7047,https://saveonfoodspharmacy.medmeapp.com/schedule/,Calgary
454,PEACE RIVER VALUE DRUG MART,covid_vaccination_centres,-117.288976036825,56.232788820259,10027 100 ST,PEACE RIVER,780-624-2612,,Calgary
455,REXALL #7230,covid_vaccination_centres,-113.513706336357,53.455044380411,2375 111 ST NW,EDMONTON,780-433-4555,https://www.rexall.ca/covid-19/alberta-vaccine,Calgary
456,SHOPPERS DRUG MART #376,covid_vaccination_centres,-114.066682917054,50.904935419528,300-85 SHAWVILLE BLVD SE,CALGARY,403-201-5545,https://www1.shoppersdrugmart.ca/en/health-and-pharmacy/covid-19?ShortURL=covid,Calgary
457,CORE PHARMACY & TRAVEL CLINIC,covid_vaccination_centres,-114.210306228521,51.066847375508,201-722 85 ST SW,CALGARY,403-454-2333,https://www.corepharmacy.ca,Calgary
458,WELLNESS PHARMACY,covid_vaccination_centres,-114.153204405718,51.092737000757,107-4625 VARSITY DR NW,CALGARY,403-457-0120,https://www.wellnessadvice.ca,Calgary
459,BOYLE RX DRUG MART,covid_vaccination_centres,-112.80881145892,54.589616529015,5118 3 ST,BOYLE,780-689-3762,,Calgary
460,PHARMACY CARE,covid_vaccination_centres,-113.958407838253,51.035234561454,3-5147 20 AVE SE,CALGARY,587-955-8727,https://www.bookmyshot.com/5879558727,Calgary
461,SAFEWAY PHARMACY #8888,covid_vaccination_centres,-118.793655833336,55.154642077111,8060 100 ST,GRANDE PRAIRIE,780-833-8625,https://www.safeway.ca/vaccine-registration/,Calgary
462,PARKHILL PHARMACY + COMPOUNDING CENTRE,covid_vaccination_centres,-114.064478221613,51.016630276306,124 42 AVE SW,CALGARY,403-475-5585,https://www.parkhillcompounding.ca,Calgary
463,ACCESS PHARMACY,covid_vaccination_centres,-113.590210457422,53.427382286398,6255 ANDREWS LOOP SW,EDMONTON,780-391-1315,https://www.accesspharmacy.ca,Calgary
464,SAFEWAY PHARMACY #8858,covid_vaccination_centres,-113.587771898264,53.468432777716,576 RIVERBEND SQ NW,EDMONTON,780-435-3906,https://www.safeway.ca/vaccine-registration/,Calgary
465,ICARE PHARMACY,covid_vaccination_centres,-113.491469257092,53.587337364013,12851 97 ST NW,EDMONTON,780-705-2523,https://icarepharmacy.ca,Calgary
466,CARSTAIRS FAMILY PHARMASAVE #387,covid_vaccination_centres,-114.099275259305,51.565666469768,120B 10 AVE S,CARSTAIRS,403-337-3044,,Calgary
467,WAL-MART PHARMACY #1048,covid_vaccination_centres,-116.449300303485,53.577677260934,5750 2 AVE,EDSON,780-723-6347,https://portal.healthmyself.net/walmartab/forms/a66,Calgary
468,WEST CREEK PHARMASAVE,covid_vaccination_centres,-113.841613485764,51.029087189505,104-320 WEST CREEK DR,CHESTERMERE,403-454-0020,,Calgary
469,ANDERSON DRUG BY FRESON BROS HINTON HILL,covid_vaccination_centres,-117.611764714769,53.39230563322,632 CARMICHAEL LANE,HINTON,780-865-7455,,Calgary
470,PHARMASAVE #390,covid_vaccination_centres,-112.857593801796,53.018684094708,1010-6708 48 AVE,CAMROSE,780-672-4460,,Calgary
471,SHOPPERS DRUG MART #2478,covid_vaccination_centres,-113.41615946796,53.588015784955,12745 50 ST NW,EDMONTON,780-478-3319,https://www1.shoppersdrugmart.ca/en/health-and-pharmacy/covid-19?ShortURL=covid,Calgary
472,COSTCO WHOLESALE PHARMACY #160,covid_vaccination_centres,-112.795683228565,49.660214359116,3200 MAYOR MAGRATH DR S,LETHBRIDGE,403-381-8093,https://www.costcopharmacy.ca/appointment,Calgary
473,HEALTH SQUARE PHARMACY,covid_vaccination_centres,-113.535640272437,53.558900421229,11045 124 ST NW,EDMONTON,780-758-4990,,Calgary
474,SKELTON'S PHARMACY (1983),covid_vaccination_centres,-112.810836401746,49.694063242394,424 MAYOR MAGRATH DR,LETHBRIDGE,403-328-3565,,Calgary
475,REXALL #7236,covid_vaccination_centres,-113.466474122441,53.629483950932,16703 82 ST NW,EDMONTON,780-476-3168,https://www.rexall.ca/covid-19/alberta-vaccine,Calgary
476,REXALL #7234,covid_vaccination_centres,-113.311627598326,53.511368980682,11-301 WYE RD,SHERWOOD PARK,780-449-1493,https://www.rexall.ca/covid-19/alberta-vaccine,Calgary
477,ICARE PHARMACY WINDERMERE,covid_vaccination_centres,-113.590951899424,53.429063260841,101-3514 ALLAN DR SW,EDMONTON,780-705-8871,https://www.icarepharmacy.ca,Calgary
478,SHOPPERS DRUG MART #359,covid_vaccination_centres,-113.984872617049,51.074614564123,135-2525 36 ST NE,CALGARY,403-280-6667,https://www1.shoppersdrugmart.ca/en/health-and-pharmacy/covid-19?ShortURL=covid,Calgary
479,TAMARACK PHARMACY & TRAVEL CLINIC,covid_vaccination_centres,-111.37102524203,56.724779316581,308-9612 FRANKLIN AVE,FORT MCMURRAY,780-750-1200,,Calgary
480,SAFEWAY PHARMACY #8900,covid_vaccination_centres,-113.673573981072,53.510602104133,2534 GUARDIAN RD NW,EDMONTON,780-490-5498,https://www.safeway.ca/vaccine-registration/,Calgary
481,SHOPPERS DRUG MART #2314,covid_vaccination_centres,-112.893461354526,49.695489639789,380 UNIVERSITY DR,LETHBRIDGE,403-380-3057,https://www1.shoppersdrugmart.ca/en/health-and-pharmacy/covid-19?ShortURL=covid,Calgary
482,MEDICINE POINT PHARMACY,covid_vaccination_centres,-113.415399278476,53.622925612319,102-5016 162 AVE NW,EDMONTON,780-250-0811,https://medicinepointpch.medmeapp.ca/schedule,Calgary
483,SHOPPERS DRUG MART #2360,covid_vaccination_centres,-114.023571694619,51.293364907035,836 1 AVE NW,AIRDRIE,403-945-8138,https://www1.shoppersdrugmart.ca/en/health-and-pharmacy/covid-19?ShortURL=covid,Calgary
484,JASPER PHARMACY,covid_vaccination_centres,-113.51451373011,53.5408021681,11217 JASPER AVE NW,EDMONTON,587-523-8600,https://www.bookmyshot.com/covidshot/5875238600,Calgary
485,THRIFTWAY PHARMACY,covid_vaccination_centres,-112.824471630581,49.709561779935,702 13 ST N,LETHBRIDGE,403-327-0340,,Calgary
486,EVERGREEN CO-OP PHARMACY,covid_vaccination_centres,-114.907330457121,52.367723606342,4327 45 ST,ROCKY MOUNTAIN HOUSE,403-845-2841,,Calgary
487,SAFEWAY PHARMACY #8842,covid_vaccination_centres,-114.096817355996,50.973541071276,1600 90 AVE SW,CALGARY,403-255-3988,https://www.safeway.ca/vaccine-registration/,Calgary
488,EMERALD HILLS PHARMASAVE,covid_vaccination_centres,-113.274037045453,53.56613844433,815-8005 EMERALD DR,SHERWOOD PARK,780-570-0711,https://emeraldhillspharmasave.medmeapp.ca/schedule,Calgary
489,MINT HEALTH + DRUGS PEACE RIVER,covid_vaccination_centres,-117.288987859343,56.233807425305,10013 100 AVE,PEACE RIVER,780-624-1200,https://www.mintdrugs.com,Calgary
490,RADIANCE PHARMACY,covid_vaccination_centres,-114.073710233652,50.964301398011,100-10201 SOUTHPORT RD SW,CALGARY,403-457-3264,,Calgary
491,WAL-MART PHARMACY #1148,covid_vaccination_centres,-113.553375602775,53.563227036211,WESTMOUNT SHOPPING CENTRE,EDMONTON,780-454-5788,https://portal.healthmyself.net/walmartab/forms/a66,Calgary
492,STETTLER IDA PHARMACY,covid_vaccination_centres,-112.70571464585,52.325783794544,4934 50 ST,STETTLER,403-743-0383,,Calgary
493,FRESHCO PHARMACY #4292,covid_vaccination_centres,-113.367644028259,53.454826494149,2355 17 ST NW,EDMONTON,780-395-2702,https://www.pharmacyappointments.ca,Calgary
494,REXALL #7227,covid_vaccination_centres,-113.906999668615,53.544990038648,108-505 QUEEN ST,SPRUCE GROVE,780-962-2757,https://www.rexall.ca/covid-19/alberta-vaccine,Calgary
495,RIVERSIDE RXELLENCE,covid_vaccination_centres,-112.705077168029,51.466019348301,180 RIVERSIDE DR E,DRUMHELLER,587-795-9712,,Calgary
496,WAL-MART PHARMACY #3075,covid_vaccination_centres,-113.810753840668,52.286721116134,PARKLAND MALL SHOPPING CENTRE,RED DEER,403-347-1123,https://portal.healthmyself.net/walmartab/forms/a66,Calgary
497,HAZELDEAN DRUG MART,covid_vaccination_centres,-113.477198472439,53.502815139054,9611 66 AVE NW,EDMONTON,780-435-4640,https://www.hazeldeandrugmart.ca,Calgary
498,CALGARY DRUG MART,covid_vaccination_centres,-114.130868541809,51.006748848528,E13-10 RICHARD WAY SW,CALGARY,403-984-9334,http://calgarydrugmart.com/,Calgary
499,MEDICINE SHOPPE PHARMACY 346,covid_vaccination_centres,-113.418568830608,53.609177565097,14606 50 ST NW,EDMONTON,780-472-2822,https://www.medicineshoppe.ca/en/alberta/edmonton/the-medicine-shoppe-pharmacy-346-7015152,Calgary
500,SAVE-ON-FOODS PHARMACY #6675,covid_vaccination_centres,-113.631704717299,53.661846229353,740 ST. ALBERT RD,ST ALBERT,780-419-2815,https://saveonfoodspharmacy.medmeapp.com/schedule/,Calgary
501,SAVE-ON-FOODS PHARMACY #6678,covid_vaccination_centres,-113.315947995863,53.543548461199,60 BROADWAY BLVD,SHERWOOD PARK,780-449-7255,https://saveonfoodspharmacy.medmeapp.com/schedule/,Calgary
502,LOBLAW PHARMACY #4904,covid_vaccination_centres,-113.289930643709,54.722062089776,5007 52 ST,ATHABASCA,780-675-8410,https://www.yourindependentgrocer.ca/covid19,Calgary
503,SANDSTONE PHARMACIES CARRY DRIVE,covid_vaccination_centres,-110.642394836152,50.008315401826,139 116 CARRY DR SE,MEDICINE HAT,403-528-2111,,Calgary
504,PHARMASAVE #369,covid_vaccination_centres,-112.83990622592,49.695157422583,319 5 ST S,LETHBRIDGE,403-327-3279,,Calgary
505,PINE PLAZA IDA PHARMACY,covid_vaccination_centres,-113.812187526578,52.291855450387,5-6791 50 AVE,RED DEER,403-343-2234,https://pineplazaida.medmeapp.ca/schedule,Calgary
506,SMOKY LAKE PHARMACHOICE,covid_vaccination_centres,-112.473508186282,54.113013030132,134 WHITE EARTH ST,SMOKY LAKE,780-656-8542,,Calgary
507,SUPER MARK DRUGS,covid_vaccination_centres,-113.473827501639,53.552883951333,130-8930 JASPER AVE NW,EDMONTON,780-429-3784,,Calgary
508,CAREWELL PHARMACY,covid_vaccination_centres,-114.048036303387,50.96475359078,104-580 ACADIA DR SE,CALGARY,587-318-7150,,Calgary
509,SAVE-ON-FOODS PHARMACY #6662,covid_vaccination_centres,-113.4962314234,53.514825650236,10368 78 AVE NW,EDMONTON,780-430-6156,https://saveonfoodspharmacy.medmeapp.com/schedule/,Calgary
510,SHANE'S GUARDIAN PHARMACY,covid_vaccination_centres,-113.10892834003,53.951502938611,4926 49 ST,REDWATER,780-942-3615,,Calgary
511,ARX PHARMACY & HOMECARE,covid_vaccination_centres,-113.443384843602,53.503211974723,6730 75 ST NW,EDMONTON,780-761-7575,https://bookyourvisit.ca/arx,Calgary
512,SHOPPERS DRUG MART #337,covid_vaccination_centres,-111.428805909834,56.733032364631,190-121 SIGNAL RD,FORT MCMURRAY,780-743-4662,https://www1.shoppersdrugmart.ca/en/health-and-pharmacy/covid-19?ShortURL=covid,Calgary
513,INGLEWOOD PHARMACY,covid_vaccination_centres,-113.536120014765,53.570675131345,11802 124 ST NW,EDMONTON,780-732-0117,,Calgary
514,FIRESIDE PHARMACY,covid_vaccination_centres,-114.473297374346,51.159377467607,5102-50 FIRESIDE GATE,COCHRANE,403-981-1500,https://www.firesidepharmacy.ca,Calgary
515,GIBBONS GUARDIAN PHARMACY,covid_vaccination_centres,-113.325808814759,53.827862961644,4715 50 AVE,GIBBONS,780-923-3200,https://gibbonsguardian.medmeapp.ca/schedule,Calgary
516,SOBEYS PHARMACY #1117,covid_vaccination_centres,-114.113551257537,50.905483554714,100-2335 162 AVE SW,CALGARY,403-873-7232,https://www.safeway.ca/vaccine-registration/,Calgary
517,FUTURE DRUG MART,covid_vaccination_centres,-113.956830305896,51.086240904017,104-5401 TEMPLE DR NE,CALGARY,403-293-6200,,Calgary
518,SAVANNA BAZAAR PHARMACY,covid_vaccination_centres,-113.950027345284,51.132954292508,8120-5850 88 AVE NE,CALGARY,403-590-9749,https://travelcliniccalgary.ca/covid19-vaccine/,Calgary
519,CATALYST PHARMACY,covid_vaccination_centres,-111.2974960861,53.991193054743,5009 50 AVE,ST PAUL,780-614-3210,https://pharmaconnect.ca/appointment/64e72053-a93a-4de2-8fc8-6d3ccc2e467b,Calgary
520,GLENRIDDING PHARMACY,covid_vaccination_centres,-113.60110310811,53.415163958803,2047 163 ST SW,EDMONTON,780-343-1313,,Calgary
521,WAINWRIGHT PHARMACY,covid_vaccination_centres,-110.858750875141,52.835820600017,418 10 ST,WAINWRIGHT,780-806-4340,,Calgary
522,PHARMASAVE #344,covid_vaccination_centres,-113.443712617121,53.424144960592,6819 ELLERSLIE RD SW,EDMONTON,780-757-6855,https://www.summersidepharmasave.ca,Calgary
523,CO-OP PHARMACY FORT SASKATCHEWAN,covid_vaccination_centres,-113.21589844378,53.709845433719,10004 99 AVE,FORT SASKATCHEWAN,780-998-5429,http://northcentralco-op.crs/sites/northcentral/pharmacy/detail/co-op-pharma,Calgary
524,LONG'S VALUE DRUG MART,covid_vaccination_centres,-110.852240659453,53.353872930437,4939 50 AVE,VERMILION,780-853-5316,,Calgary
525,PEMBINA WEST CO-OP PHARMACY,covid_vaccination_centres,-114.400358863315,54.115783386631,4705 49 ST,BARRHEAD,780-674-2201,,Calgary
526,PHARMASAVE MAINA CENTRE VILLE,covid_vaccination_centres,-113.415465448375,53.35285865589,104-5010 50 ST,BEAUMONT,587-855-8468,https://pharmasavebeaumont.medmeapp.com/schedule/,Calgary
527,SAFEWAY PHARMACY #8854,covid_vaccination_centres,-112.794206575618,49.666428140908,2750 FAIRWAY PLAZA RD S,LETHBRIDGE,403-328-0330,https://www.safeway.ca/vaccine-registration/,Calgary
528,WINDERMERE PHARMACY,covid_vaccination_centres,-113.617243521717,53.440056584649,5544 WINDERMERE BLVD NW,EDMONTON,780-989-4001,,Calgary
529,IDA CRYSTALRIDGE PHARMACY,covid_vaccination_centres,-113.95659800134,50.723779963686,106-26 CRYSTALRIDGE DR,OKOTOKS,403-982-0029,https://ida-okotoks.business.site/,Calgary
530,CALGARY CO-OP PHARMACY #9,covid_vaccination_centres,-113.956077298152,51.075062043361,2520 52 ST NE,CALGARY,403-299-5322,https://www.calgarycoop.com/covid19vaccination,Calgary
531,CALGARY DRUG MART #03,covid_vaccination_centres,,,3130-11 ROYAL VISTA DR NW,CALGARY,587-391-8119,,Calgary
532,SAVE-ON-FOODS PHARMACY #6686,covid_vaccination_centres,-113.769020207539,52.238943820021,3020 22 ST,RED DEER,403-309-0520,https://saveonfoodspharmacy.medmeapp.com/schedule/,Calgary
533,BRUDERHEIM PHARMACY,covid_vaccination_centres,-112.928569443595,53.80040301869,4901 QUEEN ST,BRUDERHEIM,780-575-3000,https://pharmaconnect.ca/appointment/3d67d43f-ab3d-4323-8ae8-9caea14dab0f,Calgary
534,FORME PHARMACY BRIDGELAND,covid_vaccination_centres,-114.055269294652,51.057272517786,103-736 1 AVE NE,CALGARY,403-930-7905,,Calgary
535,OAKRIDGE COMMUNITY PHARMACY REMEDY'S RX,covid_vaccination_centres,-114.130941130261,50.970277924731,5-3109 PALLISER DR SW,CALGARY,403-457-4548,,Calgary
536,PHARMASAVE #304,covid_vaccination_centres,-110.786241403893,50.076899786139,114 BROADWAY AVE E,REDCLIFF,403-548-3838,,Calgary
537,PHARMASAVE TURNER VALLEY,covid_vaccination_centres,-114.277583401119,50.674026323089,2-101 SUNSET BLVD,TURNER VALLEY,403-933-2682,https://pharmasave.com/turner-valley/covid-vaccinations/,Calgary
538,SAFEWAY PHARMACY #8801,covid_vaccination_centres,-110.647086166464,50.004010679999,139-3292 DUNMORE RD SE,MEDICINE HAT,403-526-7778,https://www.safeway.ca/vaccine-registration/,Calgary
539,SAFEWAY PHARMACY #8896,covid_vaccination_centres,-111.902621932717,50.572832815082,550 CASSILS RD W,BROOKS,403-793-2216,https://www.safeway.ca/vaccine-registration/,Calgary
540,WAL-MART PHARMACY #1030,covid_vaccination_centres,-114.7883262746,55.272720842578,601 1500 MAIN ST SW,SLAVE LAKE,780-849-9549,https://portal.healthmyself.net/walmartab/forms/a66,Calgary
541,MARTINDALE PHARMACY,covid_vaccination_centres,-113.952233744196,51.11442674022,101-126 MARTINDALE DR NE,CALGARY,403-454-2100,,Calgary
542,REXALL #7213,covid_vaccination_centres,-114.105067433815,51.791355007711,5015 50 AVE,OLDS,403-556-3346,https://www.rexall.ca/covid-19/alberta-vaccine,Calgary
543,IDA IN GRIESBACH PHARMACY,covid_vaccination_centres,-113.515483016616,53.607232217317,7-6881 AD ASTRA BLVD NW,EDMONTON,780-540-8585,https://pharmaconnect.ca/appointment/d1f8cb8d-1472-45cd-8c83-1037e2e01897,Calgary
544,SAFEWAY PHARMACY #8863,covid_vaccination_centres,-113.624152796411,53.645248457355,395 ST. ALBERT RD,ST ALBERT,780-460-2642,https://www.safeway.ca/vaccine-registration/,Calgary
545,PANORAMA HILLS PHARMACY,covid_vaccination_centres,-114.071234203867,51.165477179804,28 PANATELLA BLVD NW,CALGARY,403-460-6707,https://app.diemhealth.ca/auth/login,Calgary
546,SHOPPERS DRUG MART #379,covid_vaccination_centres,-113.611413703691,53.62126401865,570-140 ST. ALBERT TR,ST ALBERT,780-460-9222,https://www1.shoppersdrugmart.ca/en/health-and-pharmacy/covid-19?ShortURL=covid,Calgary
547,ANDERSON DRUG BY FRESON BROS DRUMHELLER,covid_vaccination_centres,-112.707930885979,51.459615536137,101 6 AVE SE,DRUMHELLER,403-823-2670,,Calgary
548,SADDLEBACK PHARMACY,covid_vaccination_centres,-113.530685630477,53.460211337205,362 SADDLEBACK RD NW,EDMONTON,780-250-5554,,Calgary
549,BRETON IDA,covid_vaccination_centres,-114.47327973012,53.109721548711,5031 50 AVE,BRETON,780-696-3594,,Calgary
550,TEMPLE MEDICAL CLINIC PHARMACY,covid_vaccination_centres,-113.95698543239,51.085143024829,108-5401 TEMPLE DR NE,CALGARY,403-460-0303,,Calgary
551,SPROULES MOUNTVIEW IDA,covid_vaccination_centres,-113.795648289797,52.259370855902,3757 43 AVE,RED DEER,403-347-2345,,Calgary
552,RIMBEY PHARMASAVE #375,covid_vaccination_centres,-114.236761554756,52.63990799537,4934 50 AVE,RIMBEY,403-843-3714,,Calgary
553,SHOPPERS DRUG MART #2403,covid_vaccination_centres,-113.945173030542,51.126037350122,101-600 SADDLETOWNE CIR NE,CALGARY,403-568-7143,https://www1.shoppersdrugmart.ca/en/health-and-pharmacy/covid-19?ShortURL=covid,Calgary
554,GRASSROOTS PHARMACY,covid_vaccination_centres,-115.350858443659,51.091795419649,103A-1205 BOW VALLEY TR,CANMORE,403-609-4100,https://www.grassrootspharmacy.ca,Calgary
555,APOLLO CLINICAL PHARMACY,covid_vaccination_centres,-113.442222844249,53.633740693297,6570 170 AVE NW,EDMONTON,780-476-4747,https://www.apollopharmacy.ca,Calgary
556,MEDICARE PHARMACY,covid_vaccination_centres,-114.07286481536,51.141783313632,103-70 COUNTRY HILLS LANDNG NW,CALGARY,587-356-3790,,Calgary
557,SHOPPERS DRUG MART #1248,covid_vaccination_centres,-111.2607725563,53.991049648139,4901 39 ST,ST PAUL,780-645-3063,https://www1.shoppersdrugmart.ca/en/health-and-pharmacy/covid-19?ShortURL=covid,Calgary
558,PRIMECARE PHARMACY,covid_vaccination_centres,-113.620795400559,53.440006691622,5594 WINDERMERE BLVD NW,EDMONTON,780-435-3030,https://primecare.medmeapp.ca/pharmacist/dashboard,Calgary
559,KAI HEALTH (WESTMOUNT PHARMACY),covid_vaccination_centres,-113.550648630109,53.558724865549,11035 GROAT RD NW,EDMONTON,780-705-9045,,Calgary
560,MY DAY PHARMACY,covid_vaccination_centres,-114.000714473125,53.528926283076,105-5101 48 ST,STONY PLAIN,780-968-1100,,Calgary
561,LOBLAW PHARMACY #1576,covid_vaccination_centres,-113.98435196546,51.070083183993,3575 20 AVE NE,CALGARY,403-280-8207,https://www.realcanadiansuperstore.ca/covid19,Calgary
562,MEDILINK REMEDY'S RX PHARMACY,covid_vaccination_centres,-114.059084644201,50.964513956703,120-9825 FAIRMOUNT DR SE,CALGARY,403-455-5562,https://www.remedys.ca/en/alberta/calgary/medilink-pharmacy-7036630,Calgary
563,QURELY PHARMACY,covid_vaccination_centres,-113.565880805049,53.410051292101,14119 28 AVE SW,EDMONTON,780-652-1836,https://www.rx.qurely.ca,Calgary
564,STONY PLAIN WELLNESS & COMPOUNDING PHARMACY,covid_vaccination_centres,-114.001065815134,53.529320413864,106-5013 48 ST,STONY PLAIN,780-968-2433,,Calgary
565,SHOPPERS DRUG MART #2392,covid_vaccination_centres,-113.836559155653,52.28336623909,2A-6315 HORN ST,RED DEER,403-341-4166,https://www1.shoppersdrugmart.ca/en/health-and-pharmacy/covid-19?ShortURL=covid,Calgary
566,LOBLAW PHARMACY #1567,covid_vaccination_centres,-113.293259759081,53.542542988711,100-410 BASELINE RD,SHERWOOD PARK,780-417-5235,https://www.realcanadiansuperstore.ca/covid19,Calgary
567,CALGARY DRUG MART #04,covid_vaccination_centres,-113.962033301534,51.086384104913,4-5008 WHITEHORN DR NE,CALGARY,587-356-0600,,Calgary
568,WAL-MART PHARMACY #1046,covid_vaccination_centres,-112.127864872908,49.783134520131,4500 64 ST,TABER,403-223-1349,https://portal.healthmyself.net/walmartab/forms/a66,Calgary
569,SHOPPERS DRUG MART #2471,covid_vaccination_centres,-110.853408216986,53.353800277599,5009 50 AVE,VERMILION,780-853-5672,https://www1.shoppersdrugmart.ca/en/health-and-pharmacy/covid-19?ShortURL=covid,Calgary
570,PHARMEDIC PHARMACY #3,covid_vaccination_centres,-114.060648912617,51.116179740146,6558 4 ST NE,CALGARY,403-888-0551,https://www.pharmedicpharmacy.com,Calgary
571,PHARMASAVE 3021 SILVER SPRINGS PHARMACY,covid_vaccination_centres,-114.188749212521,51.106124059815,1-5720 SILVER SPRINGS BLVD NW,CALGARY,403-453-5251,,Calgary
572,SHOPPERS DRUG MART #2308,covid_vaccination_centres,-113.827300734554,51.048058597757,300-196 CHESTERMERE STN WAY,CHESTERMERE,403-207-1875,https://www1.shoppersdrugmart.ca/en/health-and-pharmacy/covid-19?ShortURL=covid,Calgary
573,SHOPPERS DRUG MART #321,covid_vaccination_centres,-114.16847980171,51.014435473624,216 STEWART GREEN SW,CALGARY,403-249-5518,https://www1.shoppersdrugmart.ca/en/health-and-pharmacy/covid-19?ShortURL=covid,Calgary
574,POLARIS TRAVEL CLINIC AND PHARMACY,covid_vaccination_centres,-114.019614655438,51.291674038567,404-191 EDWARDS WAY SW,AIRDRIE,403-980-8747,https://www.polaristravelclinic.ca,Calgary
575,ACECARE PHARMACY & HOME HEALTH,covid_vaccination_centres,-111.897777421886,50.572581487733,A1-312 CASSILS RD W,BROOKS,587-270-3397,,Calgary
576,VILNA PHARMACY,covid_vaccination_centres,-111.921197643953,54.116055474241,5012 50 ST,VILNA,780-636-3550,,Calgary
577,RX DRUG MART #2019,covid_vaccination_centres,-118.081863895927,52.875759886907,602 PATRICIA ST,JASPER,780-852-4441,,Calgary
578,CENTURY PHARMACY,covid_vaccination_centres,-113.492015387963,53.558290277694,11031 97 ST,EDMONTON,780-423-1325,,Calgary
579,COSTCO PHARMACY #164,covid_vaccination_centres,-113.819475443828,52.213214999403,162 LEVA AVE,RED DEER,403-347-1396,https://www.costcopharmacy.ca/appointment,Calgary
580,ROSS ST IDA PHARMACY,covid_vaccination_centres,-113.809447559663,52.269290290408,4814A 50 ST,RED DEER,403-340-1800,,Calgary
581,SAFEWAY PHARMACY #8990,covid_vaccination_centres,-114.141223338804,51.020846207719,3737 37 ST SW,CALGARY,403-698-8228,https://www.safeway.ca/vaccine-registration/,Calgary
582,MEDICINE SHOPPE PHARMACY 161,covid_vaccination_centres,-112.053532136722,53.494493997204,4910 50 ST,VEGREVILLE,780-632-6337,https://www.medicineshoppe.ca/en/alberta/vegreville/the-medicine-shoppe-pharmacy-161-7051301,Calgary
583,BECHER PHARMACY LTD,covid_vaccination_centres,-118.384359823638,56.066756719822,10400 110 ST,FAIRVIEW,780-835-4078,,Calgary
584,BOYLE STREET MEDX DRUGS,covid_vaccination_centres,-113.480002385929,53.547301320827,10306 95 ST NW,EDMONTON,780-250-3545,https://www.medxdrugs.ca,Calgary
585,CENTRAL POINT PHARMACY,covid_vaccination_centres,-113.501309101456,53.545876851951,10382 105 ST NW,EDMONTON,780-250-2616,https://centralpointpharmacy.com,Calgary
586,SHOPPERS DRUG MART #2390,covid_vaccination_centres,-114.139971688215,51.039642217012,55-1610 37 ST SW,CALGARY,403-240-4440,https://www1.shoppersdrugmart.ca/en/health-and-pharmacy/covid-19?ShortURL=covid,Calgary
587,SAVE-ON-FOODS PHARMACY #6617,covid_vaccination_centres,-111.426230120919,56.730358679124,131 SIGNAL RD,FORT MCMURRAY,780-790-1423,https://saveonfoodspharmacy.medmeapp.com/schedule/,Calgary
588,RELIANCE DRUG MART,covid_vaccination_centres,-113.388785148001,52.956454288945,5520 37A AVE,WETASKIWIN,780-312-1737,,Calgary
589,GLOBAL REMEDY'S PHARMACY,covid_vaccination_centres,-112.824369370675,49.705114343965,414 13 ST N,LETHBRIDGE,403-942-5211,,Calgary
590,MAGRATH PHARMACY,covid_vaccination_centres,-112.868899159598,49.415646627235,80 SOUTH 1 ST W,MAGRATH,403-758-3001,,Calgary
591,SAVE-ON-FOODS PHARMACY #6664,covid_vaccination_centres,-113.488487328394,53.621921538249,9510 160 AVE NW,EDMONTON,780-472-7555,https://saveonfoodspharmacy.medmeapp.com/schedule/,Calgary
592,HEALTH PRO PHARMACY,covid_vaccination_centres,-113.540701472572,53.604837567556,14203 127 ST NW,EDMONTON,587-635-4288,,Calgary
593,UNIVERSAL HEALTH PHARMACY #2,covid_vaccination_centres,,,150-3650 WESTWINDS DR NE,CALGARY,403-514-6020,,Calgary
594,MILLERDALE PHARMACY,covid_vaccination_centres,-113.819584942877,52.262225194625,5201 43 ST,RED DEER,403-342-1434,,Calgary
595,REXALL #7274,covid_vaccination_centres,-110.646441383462,50.007958209476,101-3215 DUNMORE RD SE,MEDICINE HAT,403-528-8844,https://www.rexall.ca/covid-19/alberta-vaccine,Calgary
596,SHOPPERS DRUG MART #2305,covid_vaccination_centres,-114.160180836401,51.157820430872,11700 SARCEE TR NW,CALGARY,403-275-6336,https://www1.shoppersdrugmart.ca/en/health-and-pharmacy/covid-19?ShortURL=covid,Calgary
597,VIET HOA PHARMACY LTD,covid_vaccination_centres,-113.964637772874,51.037257801742,102-1817 48 ST SE,CALGARY,403-272-0603,,Calgary
598,SAFEWAY PHARMACY #8893,covid_vaccination_centres,-113.424021625249,53.539061114703,5821 TERRACE RD NW,EDMONTON,780-469-9806,https://www.safeway.ca/vaccine-registration/,Calgary
599,SOBEYS PHARMACY #4984,covid_vaccination_centres,-114.028066845827,50.862960495333,100-200 HARTELL WAY SE,CALGARY,825-509-0937,https://pharmacyappointments.ca,Calgary
600,REXALL #7287,covid_vaccination_centres,-114.18522990442,51.048073909474,148-555 STRATHCONA BLVD SW,CALGARY,403-249-0455,https://www.rexall.ca/covid-19/alberta-vaccine,Calgary
601,MEDISENSE PHARMACY,covid_vaccination_centres,-113.53364527294,53.551318777583,12246 107 AVE NW,EDMONTON,780-756-1010,,Calgary
602,GLOBAL DRUGS,covid_vaccination_centres,-114.06699354366,51.066671380943,115-233 16 AVE NW,CALGARY,403-246-1227,https://www.globaldrugs.com,Calgary
603,JOHNSON'S TABER DRUGS,covid_vaccination_centres,-112.146395772525,49.784277042922,5204 48 AVE,TABER,403-223-2900,,Calgary
604,SAFEWAY PHARMACY #8833,covid_vaccination_centres,-114.200700649895,51.126137317456,99 CROWFOOT CRES NW,CALGARY,403-239-8839,https://www.safeway.ca/vaccine-registration/,Calgary
605,MEDICURE PLUS PHARMACY,covid_vaccination_centres,-113.960855652152,51.097544551265,928-5075 FALCONRIDGE BLVD NE,CALGARY,403-455-0400,https://www.medicurepluspharmacy.com,Calgary
606,SHOPPERS DRUG MART #2332,covid_vaccination_centres,-115.35507308298,51.090576582568,933 RAILWAY AVE,CANMORE,403-678-8750,https://www1.shoppersdrugmart.ca/en/health-and-pharmacy/covid-19?ShortURL=covid,Calgary
607,ROOTS & BERRIES PHARMACY,covid_vaccination_centres,-113.451445739194,52.835432847928,MASKWACIS HEALTH CENTRE,MASKWACIS,780-585-2379,,Calgary
608,MYHEALTHCARE PHARMACY,covid_vaccination_centres,-113.986122248048,51.056637928635,101-3223 5 AVE NE,CALGARY,403-455-1505,,Calgary
609,THE PICTURE BUTTE PHARMACY (PHARMASAVE #388),covid_vaccination_centres,-112.778693471059,49.876903329821,309 JAMIESON AVE,PICTURE BUTTE,403-732-5511,,Calgary
610,BISHOP'S CROSSING PHARMACY & TRAVEL CLINIC,covid_vaccination_centres,-113.858650860868,50.571687630187,300B-1212 5 ST SE,HIGH RIVER,587-363-0111,https://bishoppharmacy.ca,Calgary
611,SAVE-ON-FOODS PHARMACY #6614,covid_vaccination_centres,-113.493801351687,53.465971778432,3361 CALGARY TR NW,EDMONTON,780-437-1990,https://saveonfoodspharmacy.medmeapp.com/schedule/,Calgary
612,REXALL #7220,covid_vaccination_centres,-113.525703557443,53.540673630253,11811 JASPER AVE NW,EDMONTON,780-482-2360,https://www.rexall.ca/covid-19/alberta-vaccine,Calgary
613,PHARMASAVE #338,covid_vaccination_centres,-114.014531653215,51.291355665708,101-209 CENTRE AVE SW,AIRDRIE,403-948-0010,https://www.airdriepharmasave.com,Calgary
614,HILLSIDE PHARMASAVE,covid_vaccination_centres,-113.894482114765,53.557599899824,114-636 KING ST,SPRUCE GROVE,780-666-2575,,Calgary
615,WAL-MART PHARMACY #3181,covid_vaccination_centres,-112.863999384231,53.020277893662,400-6800 48 AVE,CAMROSE,780-608-1263,https://portal.healthmyself.net/walmartab/forms/a66,Calgary
616,LONDON DRUGS #26,covid_vaccination_centres,-113.62686920141,53.523434723018,1494-8882 170 ST NW,EDMONTON,780-444-1794,https://www.londondrugs.com/covid19,Calgary
617,WAL-MART PHARMACY #5753,covid_vaccination_centres,-113.209835900107,53.697194868904,9551 87 AVE,FORT SASKATCHEWAN,780-998-7700,https://portal.healthmyself.net/walmartab/forms/a66,Calgary
618,MEDICINE SHOPPE PHARMACY 244,covid_vaccination_centres,-113.473763801775,53.551733420519,9002 JASPER AVE NW,EDMONTON,780-424-8998,https://www.medicineshoppe.ca/en/alberta/edmonton/the-medicine-shoppe-pharmacy-244-7003008,Calgary
619,LOBLAW PHARMACY #1586,covid_vaccination_centres,-113.959414559146,50.874805721486,19655 SETON WAY SE,CALGARY,587-471-7673,https://www.realcanadiansuperstore.ca/covid19,Calgary
620,UNIVERSITY HEALTH CENTRE PHARMACY,covid_vaccination_centres,-113.527101442123,53.525434184396,1-10 STUDENTS UNION BLDG,EDMONTON,780-492-2634,https://www.uab.ca/uhcpharmacy,Calgary
621,SAVE-ON-FOODS PHARMACY #6635 - CANMORE,covid_vaccination_centres,-115.353698763389,51.091528912141,2-950 RAILWAY AVE,CANMORE,403-678-6394,https://saveonfoodspharmacy.medmeapp.com/schedule/,Calgary
622,HAMPTONS PHARMACY,covid_vaccination_centres,-113.663868015292,53.491594031475,5603 199 STREET NW,EDMONTON,780-809-1969,https://www.hamptonspharmacy.ca,Calgary
623,MEDICINE SHOPPE PHARMACY 111,covid_vaccination_centres,-114.07036508653,50.981995710453,114-8180 MACLEOD TR SE,CALGARY,403-253-7383,https://www.medicineshoppe.ca/en/alberta/calgary/the-medicine-shoppe-pharmacy-111-7004115,Calgary
624,SAFEWAY PHARMACY #8919,covid_vaccination_centres,-115.355762388526,51.093873126175,1200 RAILWAY AVE,CANMORE,403-609-2983,https://www.safeway.ca/vaccine-registration/,Calgary
625,MEDICINE MARKET PHARMACY,covid_vaccination_centres,-113.47500834411,53.426697575475,726 91 ST SW,EDMONTON,780-705-5656,https://www.medicinemarketpharmacy.ca,Calgary
626,SOBEYS PHARMACY #3184,covid_vaccination_centres,-113.417082713293,53.36061404824,5802 50 ST,BEAUMONT,780-929-5776,https://www.safeway.ca/vaccine-registration/,Calgary
627,REXALL #7266,covid_vaccination_centres,-113.945646182492,49.485880679356,789 MAIN ST,PINCHER CREEK,403-627-3080,https://www.rexall.ca/covid-19/alberta-vaccine,Calgary
628,LIVE LIFE PHARMACY,covid_vaccination_centres,-114.059198257294,50.985607237088,7A-7640 FAIRMOUNT DR SE,CALGARY,403-455-7575,,Calgary
629,EASTWOOD PHARMACY,covid_vaccination_centres,-113.463834514765,53.570294744366,7919 118 AVE NW,EDMONTON,780-761-0505,https://www.bookmyshot.com/7807610505,Calgary
630,THREE HILLS PHARMACY,covid_vaccination_centres,-113.268308630526,51.704406101475,424 MAIN ST,THREE HILLS,403-443-5551,,Calgary
631,ERINWOODS PHARMACY,covid_vaccination_centres,-113.959266487841,51.022546451629,3571 52 STREET SE,CALGARY,403-204-2233,,Calgary
632,WAL-MART PHARMACY #3640,covid_vaccination_centres,-110.200783663307,54.408565599076,4702 43 AVE,COLD LAKE,780-840-2343,https://portal.healthmyself.net/walmartab/forms/a66,Calgary
633,SHOPPERS DRUG MART #361,covid_vaccination_centres,-114.015074274722,50.984240834068,7740 18 ST SE,CALGARY,403-236-0851,https://www1.shoppersdrugmart.ca/en/health-and-pharmacy/covid-19?ShortURL=covid,Calgary
634,LOBLAW PHARMACY #4906,covid_vaccination_centres,-111.988906243708,54.764396027958,10527 101 AVE,LAC LA BICHE,780-623-6410,https://www.yourindependentgrocer.ca/covid19,Calgary
635,SHANE'S IDA PHARMACY,covid_vaccination_centres,-112.471538559617,54.113440605133,37 WHEATLAND AVE,SMOKY LAKE,780-656-3945,,Calgary
636,SAVE-ON-FOODS PHARMACY #6604,covid_vaccination_centres,-114.089072811263,51.16747098428,225 PANTELLA HILL NW,CALGARY,403-384-9792,https://saveonfoodspharmacy.medmeapp.com/schedule/,Calgary
637,SAFEWAY PHARMACY #8855,covid_vaccination_centres,-113.589874050387,53.51996444908,MEADOWLARK MALL,EDMONTON,780-486-0669,https://www.safeway.ca/vaccine-registration/,Calgary
638,CALMAR PHARMACY LTD,covid_vaccination_centres,-113.80557276247,53.265329290653,5002 50 AVE,CALMAR,780-985-3121,https://www.calmarpharmacy.com,Calgary
639,SOUTH BLVD PHARMACY,covid_vaccination_centres,-113.49287207096,53.478656019527,4220 GATEWAY BLVD NW,EDMONTON,780-466-0688,,Calgary
640,CALGARY CO-OP PHARMACY #25,covid_vaccination_centres,-113.375367572497,51.038788781848,100 EDGEFIELD PL,STRATHMORE,403-934-4950,https://www.calgarycoop.com/covid19vaccination,Calgary
641,PHARMASAVE #358,covid_vaccination_centres,-113.303781417276,49.200972518525,71 2 AVE W,CARDSTON,403-653-4466,,Calgary
642,MEDICINE PLACE PHARMACY 3,covid_vaccination_centres,-113.492505857462,53.597228488198,13514 97 ST NW,EDMONTON,780-244-5755,https://www.medicineplace.ca,Calgary
643,PHARMASAVE LINDEN,covid_vaccination_centres,-113.483846759519,51.590590261742,113 CENTRAL AVE E,LINDEN,403-546-3041,,Calgary
644,PETER'S PHARMACY COMPOUNDING & HOME HEALTH,covid_vaccination_centres,-113.812822692196,52.25707736541,B-3617 50 AVE,RED DEER,403-986-8883,,Calgary
645,DIDSBURY PHARMASAVE #373,covid_vaccination_centres,-114.137559429089,51.660917201215,1918 20 ST,DIDSBURY,403-335-3066,https://pharmasave.com/didsbury/,Calgary
646,SHOPPERS DRUG MART #2371,covid_vaccination_centres,-113.940584455998,50.898110313575,610-7 MAHOGANY PLAZA SE,CALGARY,403-278-3606,https://www1.shoppersdrugmart.ca/en/health-and-pharmacy/covid-19?ShortURL=covid,Calgary
647,COLES PHARMACY,covid_vaccination_centres,-113.390584187962,53.571679480196,168-3210 118 AVE NW,EDMONTON,780-477-9200,,Calgary
648,SHOPPERS DRUG MART 383,covid_vaccination_centres,-113.55381671585,53.561884194326,212 WESTMOUNT CENTRE,EDMONTON,780-453-5885,,Calgary
649,LONDON DRUGS #48,covid_vaccination_centres,-113.622677687914,53.643204444041,104-375 ST. ALBERT TR,ST ALBERT,780-458-8000,https://www.londondrugs.com/covid19,Calgary
650,PHARMASAVE HOLYROOD,covid_vaccination_centres,-113.443489201776,53.525869837908,9020 75 ST NW,EDMONTON,780-440-2066,https://www.pharmasave.com/edmonton-holyrood,Calgary
651,MEDS & CARE PHARMACY,covid_vaccination_centres,-113.644508925664,53.795941228475,9507 100 ST,MORINVILLE,780-939-4439,,Calgary
652,TOFIELD IDA PHARMACY LTD.,covid_vaccination_centres,-112.667133859315,53.368975607933,5119 50 ST,TOFIELD,780-662-3520,,Calgary
653,SUNDRE COMMUNITY DRUG MART,covid_vaccination_centres,-114.643856628677,51.796335686709,403 MAIN AVE W,SUNDRE,403-638-3922,https://pharmaconnect.ca/appointment/8307044a-15aa-48e0-9930-475097ae1998,Calgary
654,KENNEDALE DRUG MART,covid_vaccination_centres,-113.416651586066,53.589355746185,26-12981 50 ST NW,EDMONTON,780-476-9028,,Calgary
655,MIRACARE PHARMACY,covid_vaccination_centres,-113.503936755935,53.475160030799,3921 106 ST,EDMONTON,780-244-4221,http://www.miracarepharmacy.com,Calgary
656,KENRON COMPOUNDING PHARMACY FOOTHILLS,covid_vaccination_centres,-114.128414839527,51.069566271927,100-1620 29 ST NW,CALGARY,403-289-7224,https://www.kenron.ca,Calgary
657,RAYMOND PHARMACY LTD.,covid_vaccination_centres,-112.662592054131,49.463154713385,90 BROADWAY N,RAYMOND,403-752-3089,,Calgary
658,SHOPPERS DRUG MART #2389,covid_vaccination_centres,-113.99306017287,51.203381313535,CROSSIRON MILLS MALL,ROCKY VIEW,587-230-0703,https://www1.shoppersdrugmart.ca/en/health-and-pharmacy/covid-19?ShortURL=covid,Calgary
659,ALPHA CARE PHARMACY,covid_vaccination_centres,-113.985043097168,51.08305834369,411-3508 32 AVE NE,CALGARY,587-356-0737,http://www.pharmachoice.ca,Calgary
660,UNIVERSAL HEALTH PHARMACY #7,covid_vaccination_centres,-113.942211230545,51.038773866939,5-1704 61 ST SE,CALGARY,587-470-7751,https://www.universalhealthcentre.com,Calgary
661,NORTH GAETZ PHARMACY,covid_vaccination_centres,-113.812552828664,52.296383463946,120-7101 50 AVE,RED DEER,403-341-0061,,Calgary
662,BRITTANIA PHARMACY,covid_vaccination_centres,-114.082357116813,51.009626245743,809 49 AVE SW,CALGARY,,https://www.bookmyshot.com/403-367-0630,Calgary
663,PIPER IDA PHARMACY,covid_vaccination_centres,-113.811163207539,52.25189211005,105-3215 49 AVE,RED DEER,403-343-8886,,Calgary
664,HOMESTEADER PHARMACY,covid_vaccination_centres,-113.40689908483,53.586986757979,590 HERMITAGE RD NW,EDMONTON,587-459-8080,,Calgary
665,THEO'S PHARMACY,covid_vaccination_centres,-113.107161028617,53.95115179002,3-4808 49 AVE,REDWATER,780-942-8490,,Calgary
666,REXALL #7265,covid_vaccination_centres,-113.506884906854,53.541151033804,10818 JASPER AVE NW,EDMONTON,780-488-4665,https://www.rexall.ca/covid-19/alberta-vaccine,Calgary
667,MEDICINE SHOPPE PHARMACY 389,covid_vaccination_centres,-114.028208817214,50.92835631987,1152 137 AVE SE,CALGARY,403-523-0116,https://www.medicineshoppe.ca/en/alberta/calgary/the-medicine-shoppe-pharmacy-389-7025348,Calgary
668,Bow Trail,covid_vaccination_centres,-114.099054538086,51.046208205137,850 - 16th Street SW,CALGARY,811,https://www.albertahealthservices.ca/topics/Page17295.aspx,Calgary
669,WAL-MART PHARMACY #3637,covid_vaccination_centres,-113.931866249836,53.539265455777,90 CAMPSITE RD,SPRUCE GROVE,780-962-9053,https://portal.healthmyself.net/walmartab/forms/a66,Calgary
670,LONDON DRUGS #84,covid_vaccination_centres,-114.007813159136,51.264117614112,110-2781 MAIN ST SW,AIRDRIE,587-775-0336,https://www.londondrugs.com/covid19,Calgary
671,SHOPPERS DRUG MART #2470,covid_vaccination_centres,-113.63937325931,53.524322001407,18224 89 AVE,EDMONTON,780-481-5864,https://www1.shoppersdrugmart.ca/en/health-and-pharmacy/covid-19?ShortURL=covid,Calgary
672,MEDICINE SHOPPE PHARMACY 103,covid_vaccination_centres,-113.450249086435,53.549140654538,7915 106 AVE NW,EDMONTON,780-469-8222,https://www.medicineshoppe.ca/en/alberta/edmonton/the-medicine-shoppe-pharmacy-103-7040974,Calgary
673,LENDRUM GUARDIAN PHARMACY,covid_vaccination_centres,-113.517979859082,53.49492347823,5720 111 ST NW,EDMONTON,587-759-0708,,Calgary
674,HEALTHLAND PHARMACY,covid_vaccination_centres,-113.944375528324,50.704783843247,102-116 SOUTHBANK BLVD,OKOTOKS,403-995-7732,,Calgary
675,PHARMASAVE MACLEOD,covid_vaccination_centres,-114.070262659541,50.986806440188,106-7500 MACLEOD TR SE,CALGARY,403-455-1599,,Calgary
676,SHOPPERS DRUG MART #2436,covid_vaccination_centres,-114.21274670327,51.060434157267,4000-873 85 ST SW,CALGARY,403-246-4193,https://www1.shoppersdrugmart.ca/en/health-and-pharmacy/covid-19?ShortURL=covid,Calgary
677,SHOPPERS DRUG MART #2384,covid_vaccination_centres,-114.121416774723,50.941098609535,2555 WOODVIEW DR SW,CALGARY,403-281-1616,https://www1.shoppersdrugmart.ca/en/health-and-pharmacy/covid-19?ShortURL=covid,Calgary
678,SAVE-ON-FOODS PHARMACY #6663,covid_vaccination_centres,-113.315844786618,53.513358015585,81 FIR ST,SHERWOOD PARK,780-467-7649,https://saveonfoodspharmacy.medmeapp.com/schedule/,Calgary
679,COSTCO PHARMACY #1069,covid_vaccination_centres,-113.948461957368,50.705419883343,202-104 SOUTHBANK BLVD,OKOTOKS,403-995-5159,https://www.costcopharmacy.ca/appointment,Calgary
680,HERITAGE IDA PHARMACY,covid_vaccination_centres,-113.509586820134,53.453219083423,2136 109 ST NW,EDMONTON,780-250-7400,https://heritageidarx.medmeapp.ca/schedule/,Calgary
681,WESTPARK DRUGS IDA,covid_vaccination_centres,-113.83009640569,52.258273352848,3722 57 AVE,RED DEER,403-346-8809,,Calgary
682,LOBLAW PHARMACY #4951,covid_vaccination_centres,-113.990134116807,51.272160609179,1050 YANKEE VALLEY BLVD,AIRDRIE,403-912-3810,https://www.nofrills.ca/covid19,Calgary
683,SAVE-ON-FOODS PHARMACY #6634,covid_vaccination_centres,-114.071979722912,50.974492547085,8855 MACLEOD TR SW,CALGARY,,https://saveonfoodspharmacy.medmeapp.com/schedule/,Calgary
684,JACKSON'S PHARMASAVE #327,covid_vaccination_centres,-113.950739257129,52.026378813053,5011 49 ST,INNISFAIL,403-227-3500,https://www.pharmasave.com,Calgary
685,FISHER'S VAUXHALL PHARMACY LTD.,covid_vaccination_centres,-112.104225114847,50.068082684685,415 2 AVE N,VAUXHALL,403-654-2515,,Calgary
686,RIVERCREST PHARMACY,covid_vaccination_centres,-113.623642581403,53.638451398174,1-367 ST. ALBERT TR,ST ALBERT,780-569-0345,,Calgary
687,PHARMASAVE #340,covid_vaccination_centres,-112.148955101914,49.786359947392,5011 50 ave,TABER,403-223-2245,,Calgary
688,LOBLAW PHARMACY #1502,covid_vaccination_centres,-113.521324401409,53.564831520083,11541 KINGSWAY AVE,EDMONTON,780-733-1415,https://www.realcanadiansuperstore.ca/covid19,Calgary
689,MEDICINE SHOPPE PHARMACY 416,covid_vaccination_centres,-113.052186722078,50.866377105404,216 5 AVE E,GLEICHEN,403-734-2766,,Calgary
690,SOBEYS PHARMACY #5386,covid_vaccination_centres,-113.941499615208,50.897988947792,1200-7 MAHOGANY PLAZA SE,CALGARY,403-726-0063,https://www.safeway.ca/vaccine-registration/,Calgary
691,CROWCHILD PHARMACY AND COMPOUNDING,covid_vaccination_centres,-114.165218955299,51.104061581634,128-5403 CROWCHILD TR NW,CALGARY,403-202-3521,https://crowchildpharmacyandcompounding.myappts.ca/src/,Calgary
692,IMAGINE HEALTH PHARMACY - CALGARY,covid_vaccination_centres,-114.057744129842,51.051703935976,4120-15 SUNPARK PLAZA SE,CALGARY,403-910-3990,,Calgary
693,COALHURST IDA PHARMACY,covid_vaccination_centres,-112.925086829972,49.748355154261,5209 6 ST,COALHURST,403-942-4577,,Calgary
694,MEDICINE SHOPPE PHARMACY 353,covid_vaccination_centres,-113.502044559443,53.618754711737,10423 158 AVE NW,EDMONTON,780-705-8150,https://www.medicineshoppe.ca/en/alberta/edmonton/the-medicine-shoppe-pharmacy-353-7003926,Calgary
695,SAFEWAY PHARMACY #8903,covid_vaccination_centres,-114.208146982981,51.041127422098,375 ASPEN GLEN LANDING SW,CALGARY,403-217-8527,https://www.safeway.ca/vaccine-registration/,Calgary
696,BARRHEAD PEOPLES PHARMACY,covid_vaccination_centres,-114.403676743587,54.121082077812,B-5120 50 ST,BARRHEAD,780-674-4911,,Calgary
697,MCKNIGHT PHARMACY,covid_vaccination_centres,-113.963244229942,51.100583167525,133-4851 WESTWINDS DR NE,CALGARY,403-293-8721,,Calgary
698,SAFEWAY PHARMACY #8898,covid_vaccination_centres,-113.456445238192,53.519267557318,185-8330 82 AVE NW,EDMONTON,780-469-9485,https://www.safeway.ca/vaccine-registration/,Calgary
699,SYNERGY CENTRE PHARMACY,covid_vaccination_centres,-111.358341515092,56.719123317746,8550 FRANKLIN AVE,FORT MCMURRAY,780-750-1900,,Calgary
700,MEDICINE SHOPPE PHARMACY 107,covid_vaccination_centres,-113.519023125072,53.541239776673,11464 JASPER AVE NW,EDMONTON,780-488-9000,https://www.medicineshoppe.ca/en/alberta/edmonton/the-medicine-shoppe-pharmacy-107-7007196,Calgary
701,MINT HEALTH + DRUGS: CMP,covid_vaccination_centres,-113.49351097294,53.550353424988,15807 102 AVE NW,EDMONTON,780-757-1030,https://www.mintdrugs.com,Calgary
702,PARKLAND VILLAGE PHARMACY,covid_vaccination_centres,-113.869388587637,53.581114181645,32-53222 RANGE RD 232,SPRUCE GROVE,780-571-1010,https://www.bookmyshot.com/covidshot/780-571-1010,Calgary
703,SOBEYS PHARMACY #3194,covid_vaccination_centres,-113.669821799794,53.524467244526,1030 WEBBER GREENS DR NW,EDMONTON,780-489-7762,https://www.safeway.ca/vaccine-registration/,Calgary
704,SAVE-ON-FOODS PHARMACY #6682,covid_vaccination_centres,-113.817315907538,52.290163654374,6720 52 AVE,RED DEER,403-343-7744,https://saveonfoodspharmacy.medmeapp.com/schedule/,Calgary
705,MEDICINE SHOPPE PHARMACY 388,covid_vaccination_centres,-112.823481628906,49.702312984467,2-245 13 ST N,LETHBRIDGE,587-486-8800,https://www.medicineshoppe.ca/en/alberta/lethbridge/the-medicine-shoppe-pharmacy-388-7024086,Calgary
706,SHOPPERS DRUG MART #2318,covid_vaccination_centres,-112.797350051777,49.727751203504,3071 26 AVE N,LETHBRIDGE,403-320-1470,https://www1.shoppersdrugmart.ca/en/health-and-pharmacy/covid-19?ShortURL=covid,Calgary
707,DRUGSTORE PHARMACY #1540,covid_vaccination_centres,-114.01108698413,51.303540785807,300 VETERANS BLVD NE,AIRDRIE,403-945-2335,https://www.realcanadiansuperstore.ca/covid19,Calgary
708,SUMMIT DRUG MART,covid_vaccination_centres,-113.627458245812,53.653624711042,101-200 BOUDREAU RD,ST ALBERT,780-458-2445,,Calgary
709,BOW ISLAND APPLE DRUGS,covid_vaccination_centres,-111.381502414851,49.870363583162,502 1 ST W,BOW ISLAND,403-545-2929,,Calgary
710,NORTHTOWN PHARMACY,covid_vaccination_centres,-113.481577730473,53.592552175741,9042 132 AVE NW,EDMONTON,780-244-9900,,Calgary
711,SAVE-ON-FOODS PHARMACY #6618,covid_vaccination_centres,-112.855481222862,53.019960879254,4820 66 ST,CAMROSE,780-672-0310,https://saveonfoodspharmacy.medmeapp.com/schedule/,Calgary
712,WAL-MART PHARMACY #1078,covid_vaccination_centres,-112.795517569519,49.729586045992,3195 26 AVE N,LETHBRIDGE,403-380-6807,https://portal.healthmyself.net/walmartab/forms/a66,Calgary
713,LEDUC COMMUNITY PHARMACY & TRAVEL CLINIC,covid_vaccination_centres,-113.547570601416,53.256383639478,105-4809 43A AVE,LEDUC,780-739-7711,https://www.leducpharmacy.ca,Calgary
714,SAFEWAY PHARMACY #8897,covid_vaccination_centres,-113.91219866148,53.542090362278,94 MCLEOD AVE,SPRUCE GROVE,780-962-0705,https://www.safeway.ca/vaccine-registration/,Calgary
715,AQUA RX PHARMACY,covid_vaccination_centres,-113.503351687782,53.548178091921,10608 105 AVE NW,EDMONTON,780-540-3550,https://www.aqua-rx-pharmacy.com,Calgary
716,SAFEWAY PHARMACY #8857,covid_vaccination_centres,-113.548383746145,53.273970957747,6112 50 ST,LEDUC,780-986-0364,https://www.safeway.ca/vaccine-registration/,Calgary
717,DRUGSTORE PHARMACY #4379,covid_vaccination_centres,-110.833255432504,52.841693442872,2601 14 AVE,WAINWRIGHT,780-806-5110,https://www.nofrills.ca/covid19,Calgary
718,BALSAM PHARMACY,covid_vaccination_centres,-113.499536903652,53.498596583526,104-10430 61 AVE NW,EDMONTON,587-499-2622,https://www.balsam-pharmacy.com,Calgary
719,MINT HEALTH + DRUGS SHERWOOD,covid_vaccination_centres,-113.3233360005,53.536153694632,109-65 CHIPPEWA RD,SHERWOOD PARK,780-467-9839,https://www.mintdrugs.com,Calgary
720,LAMONT VALUE DRUG MART,covid_vaccination_centres,-112.783904401404,53.760248558201,5030 50 AVE,LAMONT,780-895-2411,,Calgary
721,REXALL MYROS,covid_vaccination_centres,-113.494026656259,53.550838505265,10646 101 ST NW,EDMONTON,780-426-3839,https://www.rexall.ca/covid-19/alberta-vaccine,Calgary
722,WAL-MART PHARMACY #3010,covid_vaccination_centres,-114.063801971117,50.966817422983,MACLEOD MALL SHOPPING CENTRE,CALGARY,403-252-7835,https://portal.healthmyself.net/walmartab/forms/a66,Calgary
723,REXALL #7289,covid_vaccination_centres,-114.248255795018,51.124940064528,2050-11300 TUSCANY BLVD NW,CALGARY,403-208-1704,https://www.rexall.ca/covid-19/alberta-vaccine,Calgary
724,BONNIE DOON PHARMACY,covid_vaccination_centres,-113.454075864214,53.518328823099,8130 82 AVE NW,EDMONTON,587-521-8251,,Calgary
725,SAFEWAY PHARMACY #8852,covid_vaccination_centres,-114.167019711817,51.014603723611,200 STEWART GREEN SW,CALGARY,403-246-0336,https://www.safeway.ca/vaccine-registration/,Calgary
726,SHOPPERS DRUG MART #2365,covid_vaccination_centres,-113.868920729019,50.580482170755,30 3 AVE SE,HIGH RIVER,403-652-2634,https://www1.shoppersdrugmart.ca/en/health-and-pharmacy/covid-19?ShortURL=covid,Calgary
727,SHOPPERS DRUG MART #2328,covid_vaccination_centres,-113.991660559687,51.270513365842,1200 MARKET ST SE,AIRDRIE,403-948-2475,https://www1.shoppersdrugmart.ca/en/health-and-pharmacy/covid-19?ShortURL=covid,Calgary
728,SHOPPERS DRUG MART #2401,covid_vaccination_centres,-113.974414717059,50.713675022782,171-31 SOUTHRIDGE DR,OKOTOKS,403-995-3798,https://www1.shoppersdrugmart.ca/en/health-and-pharmacy/covid-19?ShortURL=covid,Calgary
729,DRUG + BEAN (KILLARNEY),covid_vaccination_centres,-114.132068223978,51.039421900847,3114 17 AVE SW,CALGARY,403-764-7078,,Calgary
730,CONSORT PHARMACY,covid_vaccination_centres,-110.77588983219,52.007572897978,4906 50 ST,CONSORT,403-577-3644,https://pharmaconnect.ca/appointment/64c9744d-92da-468d-ab0d-0016dec21e5d,Calgary
731,SHOPPERS DRUG MART #2442,covid_vaccination_centres,-113.381387686369,51.039124003363,117-100 RANCH MARKET,STRATHMORE,403-901-2451,https://www1.shoppersdrugmart.ca/en/health-and-pharmacy/covid-19?ShortURL=covid,Calgary
732,SHOPPERS DRUG MART #2443,covid_vaccination_centres,-113.580972672804,53.542080488618,10116 150 ST NW,EDMONTON,780-487-9636,https://www1.shoppersdrugmart.ca/en/health-and-pharmacy/covid-19?ShortURL=covid,Calgary
733,SAVE-ON-FOODS PHARMACY #6645,covid_vaccination_centres,-112.827805795955,49.700537185586,45-1240 2A AVE N,LETHBRIDGE,403-380-6400,https://saveonfoodspharmacy.medmeapp.com/schedule/,Calgary
734,UNIVERSAL HEALTH PHARMACY #11,covid_vaccination_centres,-114.085635730547,50.961707098816,80-10233 ELBOW DR SW,CALGARY,403-255-2354,https://www.universalhealthcentre.com,Calgary
735,CALGARY CO-OP PHARMACY #23,covid_vaccination_centres,-114.007976334925,50.962604069155,410-163 QUARRY PARK BLVD SE,CALGARY,403-203-4838,https://www.calgarycoop.com/covid19vaccination,Calgary
736,HEALTH HUB PHARMACY,covid_vaccination_centres,-118.799908058906,55.189159525333,106B-10127 121 AVE,GRANDE PRAIRIE,587-495-0058,https://www.healthhubpharmacy.info,Calgary
737,WAL-MART PHARMACY #3650,covid_vaccination_centres,-113.96562605045,50.929341211945,4705 130 AVE SE,CALGARY,403-726-0433,https://portal.healthmyself.net/walmartab/forms/a66,Calgary
738,SHOPPERS DRUG MART 2380,covid_vaccination_centres,-114.159778381232,51.181135815894,231 SAGE VALLEY COMMON NW,CALGARY,587-619-0843,https://www.shoppersdrugmart.ca/covid19,Calgary
739,WAL-MART PHARMACY #1187,covid_vaccination_centres,-113.41892460751,53.422545761515,110 WATT COMMON SW,EDMONTON,780-670-3453,https://portal.healthmyself.net/walmartab/forms/a66,Calgary
740,WAL-MART PHARMACY #1084,covid_vaccination_centres,-114.138344200154,51.797998141359,400-6900 46 ST,OLDS,403-556-7202,https://portal.healthmyself.net/walmartab/forms/a66https://portal.healthmyself.net/walmartab/forms/a66,Calgary
741,PHARMA-CURE1 PHARMACY,covid_vaccination_centres,-113.53609115072,53.549007837353,10536 124 ST NW,EDMONTON,780-756-3020,,Calgary
742,MILLET PHARMACY,covid_vaccination_centres,-113.471627932283,53.094498122205,4818 50 ST,MILLET PHARMACY,780-393-0066,,Calgary
743,STRATHMORE REMEDY'S RX PHARMACY,covid_vaccination_centres,-113.395554815204,51.041667225116,216 FOURTH AVE,STRATHMORE,403-902-0402,https://www.strathmorepharmacy.com,Calgary
744,SAVE-ON-FOODS PHARMACY #6619,covid_vaccination_centres,-113.564010778673,53.452800335125,14161 23 AVE,EDMONTON,780-434-4085,https://saveonfoodspharmacy.medmeapp.com/schedule/,Calgary
745,SOBEYS PHARMACY #1110,covid_vaccination_centres,-114.248543199861,51.124878884982,2020-11300 TUSCANY BLVD NW,CALGARY,403-375-0577,https://www.safeway.ca/vaccine-registration/,Calgary
746,TIPASKAN PHARMACY,covid_vaccination_centres,-113.457610896841,53.464935653227,3236 82 ST NW,EDMONTON,780-761-3336,,Calgary
747,SHOPPERS DRUG MART #357,covid_vaccination_centres,-113.575279628653,52.67674757527,5015 50 ST,PONOKA,403-783-3240,https://www1.shoppersdrugmart.ca/en/health-and-pharmacy/covid-19?ShortURL=covid,Calgary
748,WAL-MART PHARMACY #3157,covid_vaccination_centres,-111.357534517772,56.72236276274,2 HOSPITAL ST,FORT MCMURRAY,780-790-6080,https://portal.healthmyself.net/walmartab/forms/a66,Calgary
749,SEVEN DAYS PHARMACY,covid_vaccination_centres,-113.404872094564,53.570194476716,4121 118 AVE NW,EDMONTON,780-244-3300,https://pharmaconnect.ca/appointment/9901804e-36f8-41b7-833d-026197dbeea5,Calgary
750,CALGARY CO-OP PHARMACY #13,covid_vaccination_centres,-114.200851845407,51.123551576416,35 CROWFOOT WAY NW,CALGARY,403-299-5350,https://www.calgarycoop.com/covid19vaccination,Calgary
751,SAVE-ON-FOODS PHARMACY #6632,covid_vaccination_centres,-113.958765782434,50.8813257549,130-19489 SETON CRES SE,CALGARY,403-278-8252,https://saveonfoodspharmacy.medmeapp.com/schedule/,Calgary
752,BLACKFALDS PHARMACY,covid_vaccination_centres,-113.795760316676,52.378993749347,4916 BROADWAY AVE,BLACKFALDS,403-600-1000,https://www.bookmyshot.com/covidshot/4036001000,Calgary
753,RX HEALTHMED CITY CENTRE PHARMACY,covid_vaccination_centres,-113.591657600625,53.542215765076,10125 157 ST NW,EDMONTON,780-705-5705,,Calgary
754,JJ'S VALUE DRUG MART,covid_vaccination_centres,-112.065780274291,53.49867242921,205-5341 50 AVE,VEGREVILLE,587-790-7777,,Calgary
755,Village Square Leisure Centre,covid_vaccination_centres,-113.953370442617,51.076130885364,2623 56 Street NE,CALGARY,811,https://www.albertahealthservices.ca/topics/Page17295.aspx,Calgary
756,IGA PHARMACY #8805,covid_vaccination_centres,-115.571601659002,51.179489619966,318 MARTEN ST,BANFF,403-762-5370,,Calgary
757,LOBLAW PHARMACY #4953,covid_vaccination_centres,-113.20979657257,53.698233021623,100-8802 100 ST,FORT SASKATCHEWAN,780-997-2615,https://www.nofrills.ca/covid19,Calgary
758,PHARMASAVE LEGACY,covid_vaccination_centres,-112.829156459587,49.728141970479,20-2667 SCENIC DR N,LETHBRIDGE,403-328-3011,,Calgary
759,MEDICINE POINT PHARMACY #102,covid_vaccination_centres,-113.593679945962,53.266080643825,103-200 AWENTIA DR,LEDUC,780-980-3684,https://medicinepointida.medmeapp.ca/schedule,Calgary
760,COSTCO PHARMACY #154,covid_vaccination_centres,-113.579878786113,53.579195305377,12450 149 ST,EDMONTON,780-488-3483,https://www.costcopharmacy.ca/appointment,Calgary
761,SHOPPERS DRUG MART #378,covid_vaccination_centres,-113.216672086294,53.695066970257,9360 SOUTHFORT DR,FORT SASKATCHEWAN,780-998-2236,https://www1.shoppersdrugmart.ca/en/health-and-pharmacy/covid-19?ShortURL=covid,Calgary
762,SAVE-ON-FOODS PHARMACY #6603 - AIRDRIE WEST,covid_vaccination_centres,-114.021053265234,51.25705871104,601-401 COOPERS BLVD SW,AIRDRIE,587-254-5810,https://saveonfoodspharmacy.medmeapp.com/schedule/,Calgary
763,STONY PHARMACY,covid_vaccination_centres,-113.58886695931,53.541800517855,15506 STONY PLAIN RD,EDMONTON,780-341-9980,,Calgary
764,NOTTINGHAM PHARMASAVE,covid_vaccination_centres,-113.32572675931,53.535719213374,140-80 CHIPPEWA RD,SHERWOOD PARK,780-467-7114,https://nottinghampharmasave.medmeapp.ca/schedule,Calgary
765,26 AVE PHARMACY,covid_vaccination_centres,-113.965997469044,51.076998710454,4801 26 AVE NE,CALGARY,403-764-9212,,Calgary
766,CALGARY CO-OP PHARMACY #6,covid_vaccination_centres,-114.158989103186,51.019119463384,4940 RICHMOND RD SW,CALGARY,403-299-4487,https://www.calgarycoop.com/covid19vaccination,Calgary
767,SANDSTONE PHARMACIES SIMONS VALLEY,covid_vaccination_centres,-114.063369308984,51.107884923476,6213 CENTRE ST NW,CALGARY,403-274-2444,,Calgary
768,SHOPPERS DRUG MART #2361,covid_vaccination_centres,-114.070369000172,51.031371178609,2412 4 ST SW,CALGARY,403-228-2129,https://www1.shoppersdrugmart.ca/en/health-and-pharmacy/covid-19?ShortURL=covid,Calgary
769,ACME DRUG MART,covid_vaccination_centres,-113.58896658513,53.519958233811,103-8708 155 ST NW,EDMONTON,780-443-0202,,Calgary
770,CAPSULE PHARMACY IDA,covid_vaccination_centres,-114.066101101535,51.042888874911,110-1011 1 ST SW,CALGARY,403-475-4366,,Calgary
771,SAVE-ON-FOODS PHARMACY #6615,covid_vaccination_centres,-113.667198159632,53.495542598967,6260 199 ST NW,EDMONTON,780-483-8216,https://saveonfoodspharmacy.medmeapp.com/schedule/,Calgary
772,SUPER M DRUGS (2018),covid_vaccination_centres,-114.062406272874,51.050785158409,216 CENTRE ST SE,CALGARY,403-233-7788,,Calgary
773,RX DRUG MART #2018,covid_vaccination_centres,-115.571376443432,51.178833273554,317 BANFF AVE,BANFF,403-762-2245,,Calgary
774,SHOPPERS SIMPLY PHARMACY #3895,covid_vaccination_centres,-111.299969086286,53.992292743571,5014 51 ST,ST PAUL,780-615-3020,https://www1.shoppersdrugmart.ca/en/health-and-pharmacy/covid-19?ShortURL=covid,Calgary
775,SHOPPERS DRUG MART #2373,covid_vaccination_centres,-113.424448627101,53.423172846483,250 WATT COMMON SW,EDMONTON,780-461-4433,https://www1.shoppersdrugmart.ca/en/health-and-pharmacy/covid-19?ShortURL=covid,Calgary
776,REXALL #7288,covid_vaccination_centres,-113.95667485155,51.064015441769,152-1440 52 ST NE,CALGARY,403-207-8884,https://www.rexall.ca/covid-19/alberta-vaccine,Calgary
777,RUTHERFORD PHARMACY,covid_vaccination_centres,-113.523761527101,53.415287448282,11460 17 AVE SW,EDMONTON,780-988-3640,,Calgary
778,PROGRESSIVE HEALTH PHARMACY,covid_vaccination_centres,-113.903936288467,53.542035488753,100-210 MCLEOD AVE,SPRUCE GROVE,780-571-2121,,Calgary
779,CALGARY CO-OP PHARMACY #11,covid_vaccination_centres,-114.028882575038,50.929273912082,95-1221 CANYON MEADOWS DR SE,CALGARY,403-299-4348,https://www.calgarycoop.com/covid19vaccination,Calgary
780,HOPE MEDICARE PHARMACY,covid_vaccination_centres,-113.981214508483,51.07766885939,3705 26 AVE NE,CALGARY,403-452-8222,,Calgary
781,GUARDIAN PHARMACY - TRAIL SOUTH,covid_vaccination_centres,-113.498330458947,53.487532338441,10415 51 AVE NW,EDMONTON,780-430-1995,,Calgary
782,SOUTHVIEW PHARMACY,covid_vaccination_centres,-110.662839088243,50.010558035555,109-1424 SOUTHVIEW DR SE,MEDICINE HAT,403-487-6131,,Calgary
783,AIRDRIE MEDICAL REMEDY'S RX PHARMACY,covid_vaccination_centres,-114.022767028665,51.29317759854,10-620 1 AVE NW,AIRDRIE,403-980-3848,,Calgary
784,MEDLIFE PHARMACY,covid_vaccination_centres,,,16534 59 A ST NW,EDMONTON,780-457-6704,,Calgary
785,SAVE-ON-FOODS PHARMACY #6602,covid_vaccination_centres,-113.990517221056,51.270295454017,1400 MARKET ST SE,AIRDRIE,587-254-6570,https://saveonfoodspharmacy.medmeapp.com/schedule/,Calgary
786,PHARMASAVE #356,covid_vaccination_centres,-112.837910662575,49.691305573872,601 6 AVE S,LETHBRIDGE,403-328-6133,,Calgary
787,SAFEWAY PHARMACY #8906,covid_vaccination_centres,-113.599263830798,53.434462532938,5110 WINDERMERE BLVD NW,EDMONTON,780-436-4065,https://www.safeway.ca/vaccine-registration/,Calgary
788,LOBLAW PHARMACY #1537,covid_vaccination_centres,-113.537048805679,53.408085840837,11839 26 AVE SW,EDMONTON,780-988-8145,https://www.realcanadiansuperstore.ca/covid19,Calgary
789,SOBEYS PHARMACY #3101,covid_vaccination_centres,-113.628443645812,53.643970422326,392 ST. ALBERT RD,ST ALBERT,780-459-8727,https://www.safeway.ca/vaccine-registration/,Calgary
790,SAFEWAY PHARMACY #8844,covid_vaccination_centres,-114.161293392224,51.105493554312,100-5005 DALHOUSIE DR NW,CALGARY,403-202-0444,https://www.safeway.ca/vaccine-registration/,Calgary
791,SHOPPERS DRUG MART #3034,covid_vaccination_centres,-113.493365756128,53.543579102918,10010 102A AVE NW,EDMONTON,780-634-0374,https://www1.shoppersdrugmart.ca/en/health-and-pharmacy/covid-19?ShortURL=covid,Calgary
792,OLDS COMMUNITY PHARMACY,covid_vaccination_centres,-114.10650880109,51.789691315481,5014 53 ST,OLDS,587-872-8384,,Calgary
793,COSTCO PHARMACY #1112,covid_vaccination_centres,-113.684818033912,53.510108940937,7259 WINTERBURN RD NW,EDMONTON,780-341-2801,https://www.costcopharmacy.ca/appointment,Calgary
794,HILL PHARMACY,covid_vaccination_centres,-110.6937910167,50.035487170211,107-266 4 ST SW,MEDICINE HAT,403-487-4143,,Calgary
795,LOBLAW PHARMACY #1538,covid_vaccination_centres,-113.617699959083,53.437438624313,1155 WINDERMERE WAY SW,EDMONTON,780-438-3553,https://www.realcanadiansuperstore.ca/covid19,Calgary
796,MIDTOWN APOTHECARY,covid_vaccination_centres,-113.625985430608,53.63282884896,100-41 ST. THOMAS ST,ST ALBERT,780-470-5672,https://www.midtownapothecary.com,Calgary
797,REXALL #7271,covid_vaccination_centres,-113.810614082705,52.269322807101,4826 ROSS ST,RED DEER,403-342-6535,https://www.rexall.ca/covid-19/alberta-vaccine,Calgary
798,HAVEN IDA PHARMACY,covid_vaccination_centres,-113.604874402184,53.423836381173,16426 ELLERSLIE RD SW,EDMONTON,780-540-8929,,Calgary
799,UNIVERSAL HEALTH RANCHLANDS PHARMACY #4,covid_vaccination_centres,-114.197580432389,51.123240860114,137-1829 RANCHLANDS BLVD NW,CALGARY,403-452-5554,https://www.universalhealthcentre.com,Calgary
800,REXALL #7521,covid_vaccination_centres,-118.384877489701,56.067673867633,10216 110 ST,FAIRVIEW,780-835-2355,https://www.rexall.ca/covid-19/alberta-vaccine,Calgary
801,MIDLAKE PHARMACY,covid_vaccination_centres,-114.067550044203,50.916381486277,15233 BANNISTER RD SE,CALGARY,587-350-8747,,Calgary
802,SOBEYS PHARMACY #5172,covid_vaccination_centres,-114.024576372867,51.290682407582,100-65 MACKENZIE WAY SW,AIRDRIE,403-945-8903,https://pharmacyappointments.ca,Calgary
803,GOOD HEALTH DISPENSARY,covid_vaccination_centres,-112.617801025814,49.728081394778,1917 17 ST,COALDALE,403-345-5189,,Calgary
804,RIVERVIEW SERVICES PHARMACY,covid_vaccination_centres,-113.390273551684,53.571622341603,135-3210 118 AVE NW,EDMONTON,780-249-8913,,Calgary
805,SHOPPERS DRUG MART #324,covid_vaccination_centres,-113.374212672628,52.968922616138,4825 50 ST,WETASKIWIN,780-352-9225,https://www1.shoppersdrugmart.ca/en/health-and-pharmacy/covid-19?ShortURL=covid,Calgary
806,REXALL #7211,covid_vaccination_centres,-115.400522076793,54.718065032068,4912 PLAZA AVE,SWAN HILLS,780-333-2722,https://www.rexall.ca/covid-19/alberta-vaccine,Calgary
807,LONDON DRUGS #60,covid_vaccination_centres,-110.661516430331,50.009186580515,104-3201 13 AVE SE,MEDICINE HAT,403-580-4103,https://www.londondrugs.com/covid19,Calgary
808,PRIMROSE IDA PHARMACY,covid_vaccination_centres,-113.636527219152,53.518333382562,8462 182 ST,EDMONTON,780-487-7270,https://www.primrosepharmacy.ca,Calgary
809,MEDICINE SHOPPE PHARMACY 158,covid_vaccination_centres,-114.064326934255,51.045922366913,312-401 9 AVE SW,CALGARY,403-221-4383,https://www.medicineshoppe.ca/en/alberta/calgary/the-medicine-shoppe-pharmacy-158-7004123,Calgary
810,SAVANNA MARKET COMMUNITY RX PHARMACY,covid_vaccination_centres,-113.965161722908,51.134313596677,206-9036 46 ST NE,CALGARY,403-454-4549,https://www.travelcliniccalgary.ca,Calgary
811,LOBLAW PHARMACY #4683,covid_vaccination_centres,-111.460852543656,56.756609329749,251 POWDER DR,FORT MCMURRAY,780-788-1415,https://www.yourindependentgrocer.ca/covid19,Calgary
812,LOBLAW PHARMACY #1578,covid_vaccination_centres,-114.067497972638,50.909814329713,100-15915 MACLEOD TR SE,CALGARY,403-254-3635,https://www.realcanadiansuperstore.ca/covid19,Calgary
813,WINTER'S PHARMACY,covid_vaccination_centres,-114.97627865779,53.221826186223,1-5004 50 AVE,DRAYTON VALLEY,780-542-2895,,Calgary
814,LANSDOWNE PHARMASAVE,covid_vaccination_centres,-113.54252974374,53.489453330436,101-5124 122 ST NW,EDMONTON,780-437-9910,https://www.lansdownepharmasave.com,Calgary
815,SHOPPERS DRUG MART #375,covid_vaccination_centres,-113.487537665218,53.627330313931,16504 95 ST NW,EDMONTON,780-456-5557,https://www1.shoppersdrugmart.ca/en/health-and-pharmacy/covid-19?ShortURL=covid,Calgary
816,ROYAL CARE MUNDARE PHARMACY,covid_vaccination_centres,-112.338115252234,53.593772229923,5119 50 ST,MUNDARE,780-764-3036,,Calgary
817,COSTCO PHARMACY #1217,covid_vaccination_centres,-113.917596586796,51.042957448833,75 EAST HILLS BLVD SE,CALGARY,587-470-4460,https://www.costcopharmacy.ca/appointment,Calgary
818,MINT HEALTH + DRUGS: STERLING,covid_vaccination_centres,-118.847234576781,55.171670494356,106-11601 101 AVE,GRANDE PRAIRIE,587-299-9555,https://www.mintdrugs.com,Calgary
819,REXALL #7226,covid_vaccination_centres,-113.417151040122,53.361414462887,5910 50 ST NW,BEAUMONT,780-929-8808,https://www.rexall.ca/covid-19/alberta-vaccine,Calgary
820,REXALL #7249,covid_vaccination_centres,-113.627431225698,53.642790707871,100-10 MCKENNEY AVE,ST ALBERT,780-458-2337,https://www.rexall.ca/covid-19/alberta-vaccine,Calgary
821,SAVE-ON-FOODS PHARMACY #6672-LEWIS ESTATES,covid_vaccination_centres,-113.686020763329,53.529887034451,1264 WEBBER GREENS DR NW,EDMONTON,780-489-5097,https://saveonfoodspharmacy.medmeapp.com/schedule/,Calgary
822,ROYAL CARE PHARMACY,covid_vaccination_centres,-114.048027823747,53.226560397058,4902 HANKIN ST,THORSBY,780-789-3686,,Calgary
823,CENTRAL ALBERTA CO-OP PHARMACY #1,covid_vaccination_centres,-113.805390924062,52.272225049022,140-4707 50 ST,RED DEER,403-342-6775,https://pharmaconnect.ca/appointment/64f4a10c-3274-4b30-ad50-7acdb5c292a3,Calgary
824,ANDERSON'S PHARMACY,covid_vaccination_centres,-112.818844886019,49.686963096936,1609 9 AVE S,LETHBRIDGE,403-328-3822,,Calgary
825,WAL-MART PHARMACY #1034,covid_vaccination_centres,-112.73843400352,52.323467087406,4721 70 ST,STETTLER,403-742-4275,https://portal.healthmyself.net/walmartab/forms/a66,Calgary
826,CARSTAIRS REMEDYS PHARMACY,covid_vaccination_centres,-114.098355994786,51.567587209287,1-219 10 AVE S,CARSTAIRS,403-337-3313,,Calgary
827,SOBEYS PHARMACY #3143,covid_vaccination_centres,-113.421821018829,53.453973029613,5011 23 AVE NW,EDMONTON,780-485-6627,https://www.safeway.ca/vaccine-registration/,Calgary
828,LOBLAW PHARMACY #1579,covid_vaccination_centres,-113.817328297887,52.270077917453,5016 51 AVE,RED DEER,403-350-3530,https://www.realcanadiansuperstore.ca/covid19,Calgary
829,FORBES PHARMACY COLD LAKE,covid_vaccination_centres,-110.207063987761,54.413610135895,101-5016 50 AVE,COLD LAKE,780-594-3579,https://www.forbespharmacy.ca,Calgary
830,TAYLOR PHARMASAVE 310,covid_vaccination_centres,-113.838806090027,52.291653924162,150-6900 TAYLOR DR,RED DEER,403-342-2292,,Calgary
831,BLUE QUILL PHARMACY,covid_vaccination_centres,-113.50923961662,53.459953526101,108-2841 109 ST NW,EDMONTON,780-437-7553,,Calgary
832,PENNY + FAUSTA PHARMACY,covid_vaccination_centres,-114.10568732291,51.0542198594,101-217 19 ST NW,CALGARY,403-455-6580,https://www.pennyfausta.com,Calgary
833,GLAMORGAN REMEDY'S RX,covid_vaccination_centres,-114.143319345513,51.020881147354,14-3919 RICHMOND RD SW,CALGARY,403-457-9000,https://www.glamorganpharmacy.com,Calgary
834,SHOPPERS DRUG MART #365,covid_vaccination_centres,-113.523715570958,53.541376417379,11720 JASPER AVE NW,EDMONTON,780-482-1011,https://www1.shoppersdrugmart.ca/en/health-and-pharmacy/covid-19?ShortURL=covid,Calgary
835,WAL-MART PHARMACY #1049,covid_vaccination_centres,-113.38217061705,51.039907777612,200 RANCH MARKET,STRATHMORE,403-934-3338,https://portal.healthmyself.net/walmartab/forms/a66,Calgary
836,SAVE-ON-FOODS PHARMACY #6612,covid_vaccination_centres,-113.465791834493,53.562518137617,8124 112 AVE NW,EDMONTON,780-471-6723,https://saveonfoodspharmacy.medmeapp.com/schedule/,Calgary
837,WEMBLEY REMEDY'S RX PHARMACY,covid_vaccination_centres,-119.139838220959,55.155761418619,102-9927 97 ST,WEMBLEY,587-803-1438,https://bookyourvisit.ca/rrxwembley,Calgary
838,CALGARY CO-OP PHARMACY #2,covid_vaccination_centres,-114.050385030603,51.067255178046,540 16 AVE NE,CALGARY,403-299-4274,https://www.calgarycoop.com/covid19vaccination,Calgary
839,RX DRUG MART #2022,covid_vaccination_centres,-112.824639590378,53.020933643616,4911 50 ST,CAMROSE,780-672-2222,,Calgary
840,MILLCREEK PHARMACY,covid_vaccination_centres,-113.417878444108,53.476548493257,4012 50 ST NW,EDMONTON,780-450-6429,,Calgary
841,APOLLO DRUG STORE,covid_vaccination_centres,-113.97773873011,53.538940753564,800-4305 SOUTH PARK DR,STONY PLAIN,780-968-0066,,Calgary
842,HIGHWAY 16A IPHARMACY,covid_vaccination_centres,-113.91084033011,53.54186334404,10 98 MCLEOD AVE,SPRUCE GROVE,780-571-3000,,Calgary
843,SOBEYS PHARMACY #3132,covid_vaccination_centres,-113.514510930473,53.615833023689,15367 CASTLEDOWNS RD NW,EDMONTON,780-472-0100,https://www.safeway.ca/vaccine-registration/,Calgary
844,ST. ALBERT PHARMACHOICE,covid_vaccination_centres,-113.626323243966,53.651341177248,102-24 INGLEWOOD DR,ST ALBERT,780-569-3434,,Calgary
845,ELK POINT PHARMACY,covid_vaccination_centres,-110.900661858937,53.896595896487,4902 50 ST,ELK POINT,780-724-3866,,Calgary
846,Genesis Centre,covid_vaccination_centres,-113.948671716908,51.120404700902,10 7555 Falconridge Boulevard NE,CALGARY,811,https://www.albertahealthservices.ca/topics/Page17295.aspx,Calgary
847,COSTCO PHARMACY #1270,covid_vaccination_centres,-113.558033626221,53.307720764317,2584 46 AVE E,NISKU,825-319-2071,https://www.costcopharmacy.ca/appointment,Calgary
848,SHOPPERS DRUG MART #2393,covid_vaccination_centres,-114.063255986369,51.04698782119,100-317 7 AVE SW,CALGARY,403-266-7328,https://www1.shoppersdrugmart.ca/en/health-and-pharmacy/covid-19?ShortURL=covid,Calgary
849,DEVON CENTRAL PHARMACY,covid_vaccination_centres,-113.727916501278,53.35208467223,1-102 ERIE ST S,DEVON,780-738-1122,https://www.yegtravelclinic.com/,Calgary
850,WAL-MART PHARMACY #3194,covid_vaccination_centres,-113.817895071308,52.236587976097,2010 50 AVE,RED DEER,403-358-5849,https://portal.healthmyself.net/walmartab/forms/a66,Calgary
851,WAL-MART PHARMACY #3048,covid_vaccination_centres,-112.796201763423,49.657806558167,3700 MAYOR MAGRATH DR S,LETHBRIDGE,403-328-8151,https://portal.healthmyself.net/walmartab/forms/a66,Calgary
852,SHOPPERS DRUG MART #364,covid_vaccination_centres,-112.873698043541,49.677875951255,110 COLUMBIA BLVD W,LETHBRIDGE,403-381-1777,https://www1.shoppersdrugmart.ca/en/health-and-pharmacy/covid-19?ShortURL=covid,Calgary
853,SAVE-ON-FOODS PHARMACY #6616,covid_vaccination_centres,-111.439293671193,56.759098503484,106-100 RIVERSTONE RIDGE,FORT MCMURRAY,780-743-5440,https://saveonfoodspharmacy.medmeapp.com/schedule/,Calgary
854,TAMARACK COMMUNITY PHARMACY,covid_vaccination_centres,-113.365891202901,53.477766367268,2373 MAPLE RD NW,EDMONTON,780-760-2873,,Calgary
855,WAL-MART PHARMACY #1146,covid_vaccination_centres,-113.488317272572,53.598395352851,9402 135 AVE NW,EDMONTON,780-478-9415,https://portal.healthmyself.net/walmartab/forms/a66,Calgary
856,MEDVITE PHARMACY,covid_vaccination_centres,-114.063682273032,51.088960671902,120 40 AVE NW,CALGARY,403-452-5333,https://www.medvite.ca,Calgary
857,PHARMASAVE #317 JASPER,covid_vaccination_centres,-118.081191606225,52.87534518979,610A PATRICIA ST,JASPER,780-852-5993,,Calgary
858,PRESCRIPTION CENTRE WEST,covid_vaccination_centres,-112.886257565271,49.679600423862,30 JERRY POTTS BLVD W,LETHBRIDGE,403-381-7712,,Calgary
859,SHOPPERS DRUG MART #2312,covid_vaccination_centres,-117.337326051616,56.23492316623,9925 78 ST,PEACE RIVER,780-624-2555,https://www1.shoppersdrugmart.ca/en/health-and-pharmacy/covid-19?ShortURL=covid,Calgary
860,CASTOR VALUE DRUG MART,covid_vaccination_centres,-111.904144088005,52.218395891069,5106 50 AVE,CASTOR,403-882-3055,,Calgary
861,SAFEWAY PHARMACY #8835,covid_vaccination_centres,-113.982928644349,51.082885036069,3550 32 AVE NE,CALGARY,403-291-2032,https://www.safeway.ca/vaccine-registration/,Calgary
862,CORONATION VALUE DRUG MART,covid_vaccination_centres,-111.448908728489,52.092454196831,4926 VICTORIA AVE,CORONATION,403-578-3588,,Calgary
863,EVANSBURG PHARMACY,covid_vaccination_centres,-115.017171628256,53.602521902566,5107 50 ST,EVANSBURG,780-727-2732,,Calgary
864,MEDICINE SHOPPE PHARMACY 199,covid_vaccination_centres,-114.201165273032,51.08913208282,4-7930 BOWNESS RD NW,CALGARY,403-288-4041,https://www.medicineshoppe.ca/en/alberta/calgary/the-medicine-shoppe-pharmacy-199-7013693,Calgary
865,COMMUNICARE PHARMACY,covid_vaccination_centres,-113.540839816798,53.558851810912,11049 127 ST,EDMONTON,780-452-9740,,Calgary
866,MEADOWS COMMUNITY PHARMACY,covid_vaccination_centres,-114.083500188378,50.938832771639,1041 CANYON MEADOWS DR SW,CALGARY,587-349-0233,,Calgary
867,SOBEYS PHARMACY #5169,covid_vaccination_centres,-113.514503816984,53.422914147962,1109 JAMES MOWATT TR SW,EDMONTON,780-430-9812,https://www.safeway.ca/vaccine-registration/,Calgary
868,REXALL #7264,covid_vaccination_centres,-114.089828525562,51.16779199667,500-1110 PANATELLA BLVD NW,CALGARY,403-275-5409,https://www.rexall.ca/covid-19/alberta-vaccine,Calgary
869,EDMONTON DRUGS,covid_vaccination_centres,-113.493898239722,53.55784868543,111-11010 101 ST NW,EDMONTON,587-523-3003,,Calgary
870,SAFEWAY PHARMACY #8816,covid_vaccination_centres,-114.156889113765,51.084728621009,32 AVE & SHAGANNAPI TR NW,CALGARY,403-288-8804,https://www.safeway.ca/vaccine-registration/,Calgary
871,MINT HEALTH + DRUGS MERIDIAN,covid_vaccination_centres,-113.982551903622,53.538217384183,2-4402 37 ST,STONY PLAIN,780-963-9792,https://www.mintdrugs.com,Calgary
872,MEDSCHECK PHARMACY,covid_vaccination_centres,-113.547638572951,53.277595069857,102-6207 50 ST,LEDUC,780-769-0466,,Calgary
873,PHARMEDIC PHARMACY #4,covid_vaccination_centres,-114.014569188208,51.301381678008,506-3 STONEGATE DR NW,AIRDRIE,403-899-8551,https://www.pharmedicpharmacy.com,Calgary
874,MEDICINE SHOPPE PHARMACY 181,covid_vaccination_centres,-114.177131807195,51.130015244593,11-555 HAWKWOOD BLVD NW,CALGARY,403-547-1600,https://www.medicineshoppe.ca/en/alberta/calgary/the-medicine-shoppe-pharmacy-181-7009407,Calgary
875,NORTHWEST PHARMACY,covid_vaccination_centres,-114.207567301706,51.150863007649,110-9 ROYAL VISTA DR NW,CALGARY,403-452-7136,,Calgary
876,LONDON DRUGS #31,covid_vaccination_centres,-113.982859830305,51.080741763131,3545 32 AVE NE,CALGARY,403-250-8492,https://www.londondrugs.com/covid19,Calgary
877,ERX PHARMACY,covid_vaccination_centres,-114.100337772497,51.0442948701,1715 10 AVE SW,CALGARY,403-460-7766,,Calgary
878,WARBURG FAMILY DRUG STORE,covid_vaccination_centres,-114.31987305946,53.180233201405,5020 51 ST,WARBURG,780-848-2270,,Calgary
879,BALWIN PHARMACY,covid_vaccination_centres,-113.4657818436,53.584177738187,17-8103 127 AVE NW,EDMONTON,780-710-8282,,Calgary
880,LOBLAW PHARMACY #4397,covid_vaccination_centres,-113.594503760749,52.672467863419,5561 HWY 53,PONOKA,403-783-9160,https://www.nofrills.ca/covid19,Calgary
881,LACOMBE IDA PHARMACY,covid_vaccination_centres,-113.731907747463,52.463997859651,B-5019 51 ST,LACOMBE,403-789-3333,https://www.lacombeida.intakeq.com/booking,Calgary
882,PIDSADOWSKI'S IDA PHARMACY,covid_vaccination_centres,-113.859210505643,54.156042249523,103-10030 106 ST,WESTLOCK,780-349-6320,https://westlockida.medmeapp.ca/schedule/,Calgary
883,ROCKYVIEW PHARMACY,covid_vaccination_centres,-114.028494663381,51.42702146032,1106 RAILWAY ST,CROSSFIELD,403-946-2342,,Calgary
884,SAFEWAY PHARMACY #8918,covid_vaccination_centres,-114.071935863939,51.1019627203,5607 4 ST NW,CALGARY,403-730-5080,https://www.safeway.ca/vaccine-registration/,Calgary
885,REXALL #7276,covid_vaccination_centres,-113.386988914901,53.598647382876,BELMONT TOWN CENTER,EDMONTON,780-478-1967,https://www.rexall.ca/covid-19/alberta-vaccine,Calgary
886,MEDICINE SHOPPE PHARMACY 397,covid_vaccination_centres,-113.379825815292,52.970326667567,5214B 50 AVE,WETASKIWIN,780-352-2272,https://www.medicineshoppe.ca/en/alberta/wetaskiwin/the-medicine-shoppe-pharmacy-397-7032675,Calgary
887,UNIVERSAL HEALTH PHARMACY #5,covid_vaccination_centres,-113.841600039261,51.025319321241,103-100 RAINBOW RD,CHESTERMERE,403-453-6685,https://www.universalhealthcentre.com,Calgary
888,SUMMERSIDE PHARMACY,covid_vaccination_centres,-113.462192701643,53.42399881006,3-1109 SUMMERSIDE DR SW,EDMONTON,780-758-7769,https://www.summersidepharmacy.ca,Calgary
889,WAL-MART PHARMACY #1102,covid_vaccination_centres,-114.040097409259,52.309743332719,3420 47 AVE,SYLVAN LAKE,403-887-7640,https://portal.healthmyself.net/walmartab/forms/a66,Calgary
890,CALGARY CO-OP PHARMACY #1,covid_vaccination_centres,-114.087954216451,51.043482562754,1130 11 AVE SW,CALGARY,403-299-4255,https://www.calgarycoop.com/covid19vaccination,Calgary
891,PHARMASAVE CHAPPELLE PHARMACY,covid_vaccination_centres,-113.565934059451,53.40530541016,3134 141 ST SW,EDMONTON,780-250-2494,https://www.chappellepharmasave.com,Calgary
892,MEDICINE SHOPPE PHARMACY 266,covid_vaccination_centres,-113.614127459448,53.50391903175,6837 170 ST NW,EDMONTON,780-481-0535,https://www.medicineshoppe.ca/en/alberta/edmonton/the-medicine-shoppe-pharmacy-266-7041910,Calgary
893,SAFEWAY PHARMACY #8803,covid_vaccination_centres,-113.984964443199,51.054224356019,399 36 ST NE,CALGARY,403-235-4510,https://www.safeway.ca/vaccine-registration/,Calgary
894,REXALL #7224,covid_vaccination_centres,-113.735864987337,52.463327073587,5010 53 ST,LACOMBE,403-782-2900,https://www.rexall.ca/covid-19/alberta-vaccine,Calgary
895,DRUGSTORE PHARMACY #4390,covid_vaccination_centres,-114.074806357123,52.305744614464,70 HEWLETT PARK LANDNG,SYLVAN LAKE,403-887-1310,https://www.nofrills.ca/covid19,Calgary
896,CORNER PHARMACY,covid_vaccination_centres,-113.590615082102,53.543270279424,10118 156 ST NW,EDMONTON,780-489-5526,,Calgary
897,WAL-MART PHARMACY #5726,covid_vaccination_centres,-114.212794296472,51.153603533628,200-8888 COUNTRY HILLS BLVD NW,CALGARY,403-567-1512,https://portal.healthmyself.net/walmartab/forms/a66,Calgary
898,WAL-MART PHARMACY #3011,covid_vaccination_centres,-114.143243857842,51.097084121251,5005 NORTHLAND DR NW,CALGARY,403-288-0711,https://portal.healthmyself.net/walmartab/forms/a66,Calgary
899,LOBLAW PHARMACY #4952,covid_vaccination_centres,-113.393246401471,51.036008652398,101-900 PINE RD,STRATHMORE,403-934-6510,https://www.nofrills.ca/covid19,Calgary
900,DRAYTON VALLEY VALUE DRUG MART,covid_vaccination_centres,-114.977828628265,53.2285670438,5014 56 AVE,DRAYTON VALLEY,780-542-5366,https://form.jotform.com/210627749764264,Calgary
901,IMAGINE HEALTH PHARMACY - EDMONTON,covid_vaccination_centres,-113.476005899423,53.452872146019,2316 96 ST NW,EDMONTON,780-468-5999,,Calgary
902,KINGSTON PHARMACY,covid_vaccination_centres,-113.494315986067,53.559237382649,10108 111 AVE NW,EDMONTON,780-474-4443,,Calgary
903,MEDICINE SHOPPE PHARMACY 237,covid_vaccination_centres,-111.385670050092,56.729099124507,9914 MORRISON ST,FORT MCMURRAY,780-792-0708,https://www.medicineshoppe.ca/en/alberta/fort-mcmurray/the-medicine-shoppe-pharmacy-237-7002896,Calgary
904,BEACON PHARMACY,covid_vaccination_centres,-114.071746218297,51.041331583591,107-1213 4 ST SW,CALGARY,403-767-9060,https://www.bookmyshot.com/4037679060,Calgary
905,PHARMASAVE MARTINDALE,covid_vaccination_centres,-113.951884861264,51.113972780022,79 MARTINDALE BLVD NE,CALGARY,403-453-9210,,Calgary
906,REXALL #7510,covid_vaccination_centres,-118.837295184162,55.777796738139,4508 50 ST,SPIRIT RIVER,780-864-3872,https://www.rexall.ca/covid-19/alberta-vaccine,Calgary
907,PHARMASELECT PHARMACY,covid_vaccination_centres,-113.984958763941,51.037505768773,1808 33 ST SE,CALGARY,403-272-1160,,Calgary
908,EDMONTON TRAIL PHARMASAVE #392,covid_vaccination_centres,-114.054491070644,51.059225074643,103-805 EDMONTON TR NE,CALGARY,403-536-3463,http://www.edmontontrailpharmasave.com,Calgary
909,SHOPPERS DRUG MART #2321,covid_vaccination_centres,-114.103176440634,51.79375242283,4607 50 AVE,OLDS,403-556-3326,https://www1.shoppersdrugmart.ca/en/health-and-pharmacy/covid-19?ShortURL=covid,Calgary
910,PLAZA 160 PHARMACY,covid_vaccination_centres,-113.465014504358,53.620823514287,8103 160 AVE NW,EDMONTON,780-457-3305,,Calgary
911,SHOPPERS DRUG MART #346,covid_vaccination_centres,-113.429282047817,53.456112949017,417-2331 66 ST NW,EDMONTON,780-461-1121,https://www1.shoppersdrugmart.ca/en/health-and-pharmacy/covid-19?ShortURL=covid,Calgary
912,LOBLAW PHARMACY #1546,covid_vaccination_centres,-113.966800570633,50.933566133417,4700 130 AVE SE,CALGARY,403-257-6530,https://www.realcanadiansuperstore.ca/covid19,Calgary
913,EVERGREEN CO-OP PHARMACY RIMBEY,covid_vaccination_centres,-114.240283480293,52.636626299283,4625 51 ST,RIMBEY,403-843-1119,,Calgary
914,SAFEWAY PHARMACY #8886,covid_vaccination_centres,-113.629239101961,53.500065959936,600-6655 178 ST NW,EDMONTON,780-481-7646,https://www.safeway.ca/vaccine-registration/,Calgary
915,PHARMACY ON 34TH,covid_vaccination_centres,-113.47062840621,53.466042360223,9220 34 AVE NW,EDMONTON,780-988-3700,https://www.thevaccinationclinic.com,Calgary
916,MEDICINE SHOPPE PHARMACY 405,covid_vaccination_centres,-113.494834188281,53.559425741267,10130 111 AVE NW,EDMONTON,780-479-5646,https://pharmaconnect.ca/Appointment/ffb8a810-48fe-4170-8ccc-2dcc34db034d,Calgary
917,AXIS PHARMACY CLINIC,covid_vaccination_centres,-114.109653976713,51.023756708395,3503 20 ST SW,CALGARY,403-300-2997,,Calgary
918,HERITAGE POINTE PHARMASAVE & COMPOUNDING #367,covid_vaccination_centres,-114.001418343665,50.835455768144,320 PINE CREEK RD,HERITAGE POINTE,403-873-7530,,Calgary
919,MEDICINE CHEST GUARDIAN DRUGS,covid_vaccination_centres,-113.644459823725,53.802930021213,10013 100 ST,MORINVILLE,780-939-2898,,Calgary
920,CORNERSTONE PHARMACY,covid_vaccination_centres,-113.961124259206,51.07209737282,1-5102 RUNDLEHORN DR NE,CALGARY,403-280-0305,https://www.cornerstonedrugs.ca,Calgary
921,LOBLAW PHARMACY #4619,covid_vaccination_centres,-114.151691859139,51.170038967557,10 SAGE HILL PLAZA NW,CALGARY,587-755-8730,https://www.loblaws.ca/covid19,Calgary
922,PHARMASAVE HAMPTONS,covid_vaccination_centres,-113.665047344107,53.488492407693,5244 199 ST NW,EDMONTON,780-705-6660,,Calgary
923,BON ACCORD PHARMACY,covid_vaccination_centres,-113.41208832825,53.836524748206,4948 50 AVE,BON ACCORD,780-565-0033,,Calgary
924,SHOPPERS DRUG MART #2388,covid_vaccination_centres,-113.248114545811,53.682275111676,100 WESTPARK BLVD,FORT SASKATCHEWAN,780-998-1821,https://www1.shoppersdrugmart.ca/en/health-and-pharmacy/covid-19?ShortURL=covid,Calgary
925,STRATHCONA PRESCRIPTION CENTRE,covid_vaccination_centres,-113.49999460164,53.518949173975,8225 105 ST NW,EDMONTON,780-432-0394,,Calgary
926,SETON REMEDY'S RX PHARMACY,covid_vaccination_centres,-113.954447905723,50.88069445646,117-3815 FRONT ST SE,CALGARY,587-393-3895,https://setonpharmacy.medmeapp.ca/schedule,Calgary
927,MEDISTAR PHARMACY SKYVIEW,covid_vaccination_centres,-113.957589629941,51.154859571337,180-5305 COUNTRY HILLS BLVD NE,CALGARY,587-356-6334,,Calgary
928,PHARMASAVE TIMBERLANDS,covid_vaccination_centres,-113.747891209387,52.274321910709,5101-20 THOMLISON AVE,RED DEER,403-986-3755,,Calgary
929,SHOPPERS DRUG MART #8869,covid_vaccination_centres,-111.360827747956,56.720867571699,500-8600 FRANKLIN AVE,FORT MCMURRAY,780-743-1251,https://www1.shoppersdrugmart.ca/en/health-and-pharmacy/covid-19?ShortURL=covid,Calgary
930,NULIFE PHARMACY,covid_vaccination_centres,-114.069787687979,50.960513216867,114-10325 BONAVENTURE DR SE,CALGARY,403-271-8160,,Calgary
931,WYCKHAM PHARMACY,covid_vaccination_centres,-114.132337071337,51.01388332723,Z004 WYCKHAM HOUSE,CALGARY,403-720-3784,https://www.wyckhampharmacy.com,Calgary
932,DUNLUCE PHARMACY,covid_vaccination_centres,-113.535004572436,53.622414563215,12118 161 AVE NW,EDMONTON,780-756-6223,,Calgary
933,HEALTH PLUS IDA PHARMACY,covid_vaccination_centres,-113.493980103127,53.517733941042,8132 102 ST NW,EDMONTON,780-433-1575,https://www.bookmyshot.com/(780)433-1575,Calgary
934,VEGREVILLE DRUG MART,covid_vaccination_centres,-112.052006530476,53.493927747063,112-4925 50 AVE,VEGREVILLE,780-632-7660,https://vegrevilledrugmart.medmeapp.com/schedule/,Calgary
935,REXALL #7257,covid_vaccination_centres,-113.56635968978,53.543756020041,10228 142 ST NW,EDMONTON,780-454-6403,https://www.rexall.ca/covid-19/alberta-vaccine,Calgary
936,SAFEWAY PHARMACY #8889,covid_vaccination_centres,-113.544191220999,53.600736778298,12950 137 AVE NE,EDMONTON,780-377-2406,https://www.safeway.ca/vaccine-registration/,Calgary
937,PROVOST IDA PHARMACY,covid_vaccination_centres,-110.263683575553,52.351716172875,5010 50 ST,PROVOST,780-753-2792,,Calgary
938,SHOPPERS DRUG MART #322,covid_vaccination_centres,-110.647157345969,50.004034370235,140-3292 DUNMORE RD SE,MEDICINE HAT,403-526-1426,https://www1.shoppersdrugmart.ca/en/health-and-pharmacy/covid-19?ShortURL=covid,Calgary
939,WAL-MART PHARMACY #3012,covid_vaccination_centres,-113.977466919763,51.053584384882,MARLBOROUGH MALL,CALGARY,403-272-8896,https://portal.healthmyself.net/walmartab/forms/a66,Calgary
940,BEISEKER PHARMACY,covid_vaccination_centres,-113.537899514817,51.384999568064,205 6 ST,BEISEKER,403-947-3875,,Calgary
941,RIMBEY VALUE DRUG MART,covid_vaccination_centres,-114.236480182575,52.639613747678,4917 50 AVE,RIMBEY,403-843-2020,,Calgary
942,MEDICINE SHOPPE PHARMACY 317,covid_vaccination_centres,-113.876327047666,50.575504724132,102-303 9 AVE SW,HIGH RIVER,403-652-4449,,Calgary
943,SOUTH COUNTRY CO-OP LIMITED @ NORTHLANDS PHARMACY,covid_vaccination_centres,-110.685624730571,50.062949050312,10 NORTHLANDS WAY NE,MEDICINE HAT,403-528-6608,https://www.cooprx.ca,Calgary
944,COSTCO PHARMACY #254,covid_vaccination_centres,-118.844345973389,55.168569683908,9901 116 ST,GRANDE PRAIRIE,780-833-7014,https://www.costcopharmacy.ca/appointment,Calgary
945,SAVE-ON-FOODS PHARMACY #6608,covid_vaccination_centres,-113.884012892165,53.542663710115,100-121 CENTURY CROSS,SPRUCE GROVE,780-962-5968,https://saveonfoodspharmacy.medmeapp.com/schedule/,Calgary
946,CALGARY CO-OP PHARMACY #24,covid_vaccination_centres,-113.866888587852,50.571468460633,100-1220 1 ST SE,HIGH RIVER,403-601-8080,https://www.calgarycoop.com/covid19vaccination,Calgary
947,RENAISSANCE DISPENSARY LTD.,covid_vaccination_centres,-113.480785290315,53.549311541188,102-10416 95 ST NW,EDMONTON,780-424-8890,,Calgary
948,PHARMALIFE PHARMACY,covid_vaccination_centres,-114.054853949896,51.061997808228,1106 EDMONTON TR NE,CALGARY,403-769-0972,,Calgary
949,SHOPPERS DRUG MART #354,covid_vaccination_centres,-113.977323442192,51.052898351639,1231-3800 MEMORIAL DR NE,CALGARY,403-272-2848,https://www1.shoppersdrugmart.ca/en/health-and-pharmacy/covid-19?ShortURL=covid,Calgary
950,REXALL #7251,covid_vaccination_centres,-113.417714391589,53.542246789268,10155 50 ST NW,EDMONTON,780-466-1744,https://www.rexall.ca/covid-19/alberta-vaccine,Calgary
951,SLAVE LAKE APPLE DRUGS,covid_vaccination_centres,-114.772342015083,55.287360522033,108 6 AVE NW,SLAVE LAKE,780-849-9443,https://pharmaconnect.ca/appointment/fbaa7876-0a33-4a96-90d3-6d4c33a0d2e7,Calgary
952,SPRUCE PRO PHARMACY,covid_vaccination_centres,-113.927012357463,53.54242488758,50-172 HWY 16A,SPRUCE GROVE,780-948-8998,https://sprucepromedical.ca/covid-19-vaccine/,Calgary
953,NUAID HIGH RIVER PHARMACY,covid_vaccination_centres,-113.878294815216,50.592500632863,300 HIGH COUNTRY DR NW,HIGH RIVER,403-652-2499,,Calgary
954,SHOPPERS DRUG MART #2450,covid_vaccination_centres,-114.07606430438,52.304398603374,800-3715 47 AVE,SYLVAN LAKE,403-887-5392,https://www1.shoppersdrugmart.ca/en/health-and-pharmacy/covid-19?ShortURL=covid,Calgary
955,REXALL #7204,covid_vaccination_centres,-116.805420131398,54.394551457924,14 COMMERCIAL CT,FOX CREEK,780-622-3990,https://www.rexall.ca/covid-19/alberta-vaccine,Calgary
956,SLOANE GUARDIAN PHARMACY,covid_vaccination_centres,-114.066836145886,51.000171972371,280-5920 1A ST SW,CALGARY,403-640-4892,https://www.sloaneguardian.com,Calgary
957,ANDERSON DRUG BY FRESON BROS BARRHEAD,covid_vaccination_centres,-114.402107811094,54.119278503767,5020 49 ST,BARRHEAD,780-674-3784,,Calgary
958,SAM'S PHARMACY,covid_vaccination_centres,-114.006925627098,53.529089905137,5012 50 ST,STONY PLAIN,780-591-4554,https://www.samsdrugmart.com,Calgary
959,DIV'S PHARMACY PHARMACHOICE,covid_vaccination_centres,-118.836484216563,55.778183660017,4517 50 ST,SPIRIT RIVER,587-602-3282,https://www.divspharmacy.ca,Calgary
960,ALIX DRUGS LTD.,covid_vaccination_centres,-113.190913258973,52.400354332466,4904 50 AVE,ALIX,403-747-2405,,Calgary
961,SAVE-ON-FOODS PHARMACY #6631,covid_vaccination_centres,-114.194659517362,51.079013264086,420 NA'A PLAZA SW,CALGARY,587-231-1852,https://saveonfoodspharmacy.medmeapp.com/schedule/,Calgary
962,SAVE-ON-FOODS PHARMACY #6679,covid_vaccination_centres,-113.273731500111,53.5583531396,10-4005 CLOVER BAR RD,SHERWOOD PARK,780-417-0600,https://saveonfoodspharmacy.medmeapp.com/schedule/,Calgary
963,DRUGSTORE PHARMACY #1547,covid_vaccination_centres,-112.888541717735,53.085324517922,7005 48 AVE,CAMROSE,780-608-2235,https://www.realcanadiansuperstore.ca/covid19,Calgary
964,FAMILY DRUGS,covid_vaccination_centres,-113.486281343969,53.544927430066,10233 97 ST NW,EDMONTON,825-440-5296,,Calgary
965,EDMONTON PHARMACY,covid_vaccination_centres,-113.618229420238,53.52698341831,168-17010 90 AVE NW,EDMONTON,780-761-3784,https://www.edmonton-pharmacy.com,Calgary
966,HARDIN PHARMACY,covid_vaccination_centres,-111.377989558867,56.725058742445,SUITE A-UNIT 6 9711 HARDIN ST,FORT MCMURRAY,780-750-4010,,Calgary
967,APPLE PHARMACY,covid_vaccination_centres,-114.015342530163,51.290352589622,229 1 ST SW,AIRDRIE,5877755593,https://www.book.pharmachoice.com/5877755593,Calgary
968,SHOPPERS DRUG MART #347,covid_vaccination_centres,-113.958294686368,51.074840486343,11-200 52 ST NE,CALGARY,403-248-2166,https://www1.shoppersdrugmart.ca/en/health-and-pharmacy/covid-19?ShortURL=covid,Calgary
969,COLEMAN REMEDY'S RX,covid_vaccination_centres,-114.493329001579,49.636766636124,8335 20 AVE,COLEMAN,403-563-3242,,Calgary
970,SOBEYS PHARMACY #5028,covid_vaccination_centres,-114.072159669186,50.878952194738,704-19369 SHERIFF KING ST SW,CALGARY,403-234-9877,https://www.safeway.ca/vaccine-registration/,Calgary
971,REXALL #9807,covid_vaccination_centres,-113.52680460849,53.51944855152,11400 UNIVERSITY AVE NW,EDMONTON,780-407-4881,https://www.rexall.ca/covid-19/vaccines,Calgary
972,PARAMOUNT PHARMACY & TRAVEL CLINIC,covid_vaccination_centres,-114.025795678736,50.875657458991,3101-19605 WALDEN BLVD SE,CALGARY,403-764-3663,https://www.travelcliniccalgary.ca/,Calgary
973,ANDERSON DRUG BY FRESON BROS PEACE RIVER,covid_vaccination_centres,-117.335089457027,56.234934140219,7900 99 AVE,PEACE RIVER,780-624-3784,,Calgary
974,PHARMASAVE LUXSTONE 3023,covid_vaccination_centres,-114.01799474419,51.271463407982,101B-2002 LUXSTONE BLVD SW,AIRDRIE,403-945-1382,,Calgary
975,SHOPPERS DRUG MART 2353,covid_vaccination_centres,,,110-620 MCKENZIE TOWNE DR SE,CALGARY,403-257-1109,,Calgary
976,MEDICINE SHOPPE PHARMACY 341,covid_vaccination_centres,-113.765284644154,52.238229957032,130-2950 22 ST,RED DEER,403-343-8831,https://www.medicineshoppe.ca/en/alberta/red-deer/the-medicine-shoppe-pharmacy-341-7041122,Calgary
977,RIVERBEND PHARMACY,covid_vaccination_centres,-113.572665478998,53.49570035876,5659 RIVERBEND RD NW,EDMONTON,780-988-8896,,Calgary
978,SOLUTIONS CLINICAL PHARMACY INC.,covid_vaccination_centres,-110.642147759408,49.996958002881,1-2020 STRACHAN ROAD SE,MEDICINE HAT,403-528-3900,https://www.solutionspharmacy.ca,Calgary
979,MEDICINE SHOPPE PHARMACY 129,covid_vaccination_centres,-116.479549577131,55.43532689251,4409 PLEASANTVIEW DR,HIGH PRAIRIE,780-523-3138,https://www.medicineshoppe.ca/en/alberta/high-prairie/the-medicine-shoppe-pharmacy-129-7009326,Calgary
980,WAL-MART PHARMACY #3026,covid_vaccination_centres,-113.420753288128,53.5394838369,CAPILANO SHOPPING CENTRE,EDMONTON,780-469-4469,https://portal.healthmyself.net/walmartab/forms/a66,Calgary
981,VALUE DRUG MART,covid_vaccination_centres,-111.977765359274,54.769766618327,10133 101 AVE,LAC LA BICHE,780-623-4370,https://www.pharmaconnect.ca/appointment/5f4c48bd-fbee-4fa6-9c7c-a3ca4b1443ec,Calgary
982,REXALL #7272,covid_vaccination_centres,-113.808612262678,52.26645505508,4705 48 AVE,RED DEER,403-342-6575,https://www.rexall.ca/covid-19/alberta-vaccine,Calgary
983,RENFREW PHARMACY,covid_vaccination_centres,-114.053791749896,51.05967527069,832 EDMONTON TR NE,CALGARY,403-452-1005,,Calgary
984,THE CORNER DRUG STORE INC,covid_vaccination_centres,-114.050428042193,51.045496711176,602 8 AVE SE,CALGARY,403-263-4620,,Calgary
985,CEDARBRAE PHARMACY,covid_vaccination_centres,-114.130112784658,50.954281836878,11211 30 ST SW,CALGARY,403-238-0860,,Calgary
986,SHOPPERS DRUG MART #2335,covid_vaccination_centres,-114.056808154149,50.901944939375,126-40 SUNPARK PLAZA SE,CALGARY,403-256-3700,https://www1.shoppersdrugmart.ca/en/health-and-pharmacy/covid-19?ShortURL=covid,Calgary
987,South Calgary Health Centre,covid_vaccination_centres,-114.058179465184,50.902666077777,31 Sunpark Plaza SE,CALGARY,811,https://www.albertahealthservices.ca/topics/Page17295.aspx,Calgary
988,SAFEWAY PHARMACY #8920,covid_vaccination_centres,-112.888495215615,49.693454172465,1-550 UNIVERSITY DR,LETHBRIDGE,403-320-5669,https://www.safeway.ca/vaccine-registration/,Calgary
989,SOBEYS PHARMACY #1145,covid_vaccination_centres,-114.071628222593,50.914203635356,2000-150 MILLRISE BLVD SW,CALGARY,403-873-5180,https://www.safeway.ca/vaccine-registration/,Calgary
990,SAVE-ON-FOODS PHARMACY #6673,covid_vaccination_centres,-113.566258836896,53.412048889923,3005 HAYS RIDGE DR SW,EDMONTON,825-410-1015,https://saveonfoodspharmacy.medmeapp.com/schedule/,Calgary
991,REXALL #7255,covid_vaccination_centres,-113.515183847487,53.489352389852,11080 51 AVE NW,EDMONTON,780-434-7120,https://www.rexall.ca/covid-19/alberta-vaccine,Calgary
992,WAL-MART PHARMACY #1009,covid_vaccination_centres,-115.666294743952,54.141236695403,4215 52 AVE,WHITECOURT,780-706-3347,https://portal.healthmyself.net/walmartab/forms/a66,Calgary
993,SAFEWAY PHARMACY #8812,covid_vaccination_centres,-114.079720121061,51.042527876275,813 11 AVE SW,CALGARY,403-264-1378,https://www.safeway.ca/vaccine-registration/,Calgary
994,SHOPPERS DRUG MART #319,covid_vaccination_centres,-113.450957543971,53.472038857437,188 MILLBOURNE MALL,EDMONTON,780-462-4704,https://www1.shoppersdrugmart.ca/en/health-and-pharmacy/covid-19?ShortURL=covid,Calgary
995,CARE INC PHARMACY,covid_vaccination_centres,-113.975399593678,51.152871179841,2110-4250 109 AVE NE,CALGARY,403-293-4586,,Calgary
996,SHERWOOD PARK METTRA PHARMACY & TRAVEL CLINIC,covid_vaccination_centres,-113.32850399424,53.510522077341,415-450 ORDZE RD,SHERWOOD PARK,780-570-5316,,Calgary
997,SHOPPERS DRUG MART #308,covid_vaccination_centres,-112.839327379719,49.698574690628,101 PARK PLACE SHOPPING CENTRE,LETHBRIDGE,403-328-8442,https://www1.shoppersdrugmart.ca/en/health-and-pharmacy/covid-19?ShortURL=covid,Calgary
998,SHOPPERS DRUG MART #302,covid_vaccination_centres,-113.444833887708,53.601901961986,101 LONDONDERRY MALL NW,EDMONTON,780-478-2921,https://www1.shoppersdrugmart.ca/en/health-and-pharmacy/covid-19?ShortURL=covid,Calgary
999,FORT PHARMACY,covid_vaccination_centres,-113.407331672666,49.725594228158,240 24 ST,FORT MACLEOD,403-553-3844,,Calgary
1000,PHARMASAVE SOUTHTRAIL,covid_vaccination_centres,-113.494331936895,53.482329099647,A109-4456 CALGARY TR NW,EDMONTON,780-540-4060,https://www.pharmasave.com/edmonton-calgary-trail,Calgary
1001,COSTCO PHARMACY #544,covid_vaccination_centres,-113.317151011932,53.546839028337,2201 BROADMOOR BLVD,SHERWOOD PARK,780-410-2548,https://www.costcopharmacy.ca/appointment,Calgary
1002,CORNERSTONE CO-OP PHARMACY @ VERMILION,covid_vaccination_centres,-110.853736260983,53.35522753999,5008B 51 AVE,VERMILION,780-853-4119,,Calgary
1003,MINT HEALTH + DRUGS: FESTIVAL PLACE,covid_vaccination_centres,-113.297985150215,53.527725332653,165-161 FESTIVAL WAY,SHERWOOD PARK,780-400-8932,https://www.mintdrugs.com,Calgary
1004,SAFEWAY PHARMACY #8894,covid_vaccination_centres,-113.211272530792,53.694416211587,9450 86 AVE,FORT SASKATCHEWAN,780-998-3995,https://www.safeway.ca/vaccine-registration/,Calgary
1005,Richmond Road Diagnostic Treatment Centre,covid_vaccination_centres,-114.109358134648,51.03713768109,1820 Richmond Road SW,CALGARY,811,https://www.albertahealthservices.ca/topics/Page17295.aspx,Calgary
1006,CMRX4 PHARMACY,covid_vaccination_centres,-114.072082759205,51.088786319631,4139 4 ST NW,CALGARY,403-282-0641,https://www.cmrpharma.com,Calgary
1007,SHOPPERS DRUG MART #2452,covid_vaccination_centres,-118.766816898624,55.169830715291,9930 92 ST,GRANDE PRAIRIE,780-357-9301,https://www1.shoppersdrugmart.ca/en/health-and-pharmacy/covid-19?ShortURL=covid,Calgary
1008,GREG'S REMEDY'S RX,covid_vaccination_centres,-110.705740143684,50.033791316843,200-770 6 ST SW,MEDICINE HAT,403-529-0577,,Calgary
1009,DRUGSTORE PHARMACY #1539,covid_vaccination_centres,-114.04399208599,50.987208561995,100-20 HERITAGE MEADOWS WAY SE,CALGARY,403-692-6235,https://www.realcanadiansuperstore.ca/covid19,Calgary
1010,SAFEWAY PHARMACY #8891,covid_vaccination_centres,-113.553648843738,53.559251138698,WESTMOUNT SHOPPING CENTRE,EDMONTON,780-451-4310,https://www.safeway.ca/vaccine-registration/,Calgary
1011,TWO HILLS PHARMACY,covid_vaccination_centres,-111.745086343964,53.712151873452,1-5019 51 ST,TWO HILLS,780-657-3530,,Calgary
1012,MEDX DRUGS PLAZA 124,covid_vaccination_centres,-113.536129489421,53.543637449386,120-10216 124 ST NW,EDMONTON,780-760-6575,,Calgary
1013,DRUG SHOPPE,covid_vaccination_centres,-114.014861659008,50.919869695197,2079 146 AVE SE,CALGARY,403-278-1565,https://www.drugshoppe.ca,Calgary
1014,WAL-MART PHARMACY #3087,covid_vaccination_centres,-113.634319646135,53.659343212867,700 ST. ALBERT RD,ST ALBERT,780-458-3597,https://portal.healthmyself.net/walmartab/forms/a66,Calgary
1015,SHOPPERS DRUG MART #2306,covid_vaccination_centres,-113.767030205689,52.285469310832,1 CHAMBERS AVE,RED DEER,403-342-5548,https://www1.shoppersdrugmart.ca/en/health-and-pharmacy/covid-19?ShortURL=covid,Calgary
1016,SHOPPERS DRUG MART #384,covid_vaccination_centres,-114.062522450812,51.064484086994,100-1323 CENTRE ST NW,CALGARY,403-520-7460,https://www.shoppersdrugmart.ca/covid19,Calgary
1017,WAL-MART PHARMACY #1123,covid_vaccination_centres,-113.278041850386,53.569353849122,400-7000 EMERALD DR,SHERWOOD PARK,780-464-4682,https://portal.healthmyself.net/walmartab/forms/a66,Calgary
1018,PHARMASAVE SIGNATURE DRUG MART #3017,covid_vaccination_centres,-114.167005738803,51.036709203499,509-1851 SIROCCO DR SW,CALGARY,403-455-1119,,Calgary
1019,ROCKY IDA PHARMACY,covid_vaccination_centres,-114.918784322878,52.375733775863,5033B 50 ST,ROCKY MOUNTAIN HOUSE,403-871-5572,,Calgary
1020,MEDICINE SHOPPE PHARMACY 185,covid_vaccination_centres,-113.520563645953,53.518831253408,8219 112 ST NW,EDMONTON,780-702-1803,https://www.bookmyshot.com,Calgary
1021,PARSONS DRUGS,covid_vaccination_centres,-113.478096982923,53.427987287681,101-625 PARSONS RD SW,EDMONTON,587-754-6474,,Calgary
1022,ASPEN PHARMACY,covid_vaccination_centres,-113.293771443601,53.555738241014,955-3890 SHERWOOD DR,SHERWOOD PARK,780-400-9802,,Calgary
1023,ROD'S PHARMACY,covid_vaccination_centres,-113.388016321014,52.971249045944,5520B 50 AVE,WETASKIWIN,780-312-2225,,Calgary
1024,CEDAR PHARMACY,covid_vaccination_centres,-111.984259372581,54.767189285656,10017 ALBERTA AVE,LAC LA BICHE,780-623-4151,,Calgary
1025,WHITEHORN REMEDY'S RX,covid_vaccination_centres,-113.965328554144,51.092800878355,1-4440 44 AVE NE,CALGARY,403-398-4555,https://pharmaconnect.ca/appointment/bb32ff86-fc7b-416f-a9bb-2b33ff1f26d9,Calgary
1026,SCRIPT PHARMACY,covid_vaccination_centres,-114.072283374485,50.990859490633,100-7015 MACLEOD TR SW,CALGARY,403-253-6773,,Calgary
1027,COSTCO PHARMACY #251,covid_vaccination_centres,-114.04624606633,50.989655472409,99 HERITAGE GATE SE,CALGARY,403-253-6152,https://www.costcopharmacy.ca/appointment,Calgary
1028,MAYERTHORPE PHARMACY,covid_vaccination_centres,-115.138335596506,53.953732523647,1-4821 50 ST,MAYERTHORPE,780-786-0185,,Calgary
1029,MIDTOWN PHARMASAVE #363,covid_vaccination_centres,-114.022753108824,51.284918541562,202-1 MIDTOWN BLVD SW,AIRDRIE,403-980-2598,,Calgary
1030,GALAXY PHARMACY,covid_vaccination_centres,-113.467692285929,53.562080752686,11254 82 ST NW,EDMONTON,780-244-0516,,Calgary
1031,GRANDE CACHE PHARMACY,covid_vaccination_centres,-119.119044544658,53.89014394558,1609 ACORN PLAZA,GRANDE CACHE,780-827-2707,,Calgary
1032,CANORA PHARMACY,covid_vaccination_centres,-113.594535909305,53.540393839064,15803 100A AVE NW,EDMONTON,587-523-3264,,Calgary
1033,PHARMASAVE POPLAR CENTRE,covid_vaccination_centres,-114.069364931795,51.005127662608,180-5504 MACLEOD TR SE,CALGARY,403-255-0555,,Calgary
1034,COCHRANE COMPOUNDING PHARMACY AND TRAVEL CLINIC,covid_vaccination_centres,-114.467141186189,51.190500737858,5-118 1 AVE W,COCHRANE,587-493-0551,,Calgary
1035,EDGEMONT PHARMACY,covid_vaccination_centres,-113.674095543603,53.477468383143,20166 LESSARD RD NW,EDMONTON,780-488-8806,https://www.bookmyshot.com/7804888806,Calgary
1036,EDSON PHARMACY REMEDY'S RX,covid_vaccination_centres,-116.431245730109,53.583873208436,4924 4 AVE,EDSON,780-725-0282,,Calgary
1037,Telus Convention Centre,covid_vaccination_centres,-114.061514751294,51.045816576885,136 8 Ave SE,CALGARY,811,https://www.albertahealthservices.ca/topics/Page17295.aspx,Calgary
1038,SHOPPERS DRUG MART #362,covid_vaccination_centres,-112.7993548999,49.672439787563,102-2045 MAYOR MAGRATH DR S,LETHBRIDGE,403-328-5509,https://www1.shoppersdrugmart.ca/en/health-and-pharmacy/covid-19?ShortURL=covid,Calgary
1039,SHOPPERS DRUG MART #370,covid_vaccination_centres,-113.466741170957,53.570351217,8121 118 AVE,EDMONTON,780-477-1540,https://www1.shoppersdrugmart.ca/en/health-and-pharmacy/covid-19?ShortURL=covid,Calgary
1040,ERLTON IDA PHARMACY,covid_vaccination_centres,-114.060678322741,51.030903247668,120-2505 MACLEOD TR SW,CALGARY,403-984-1595,,Calgary
1041,PONOKA IDA DRUGSTORE,covid_vaccination_centres,-113.575696949857,52.676983059619,5020 50 ST,PONOKA,403-790-1970,,Calgary
1042,COMPLETE CARE PHARMACY,covid_vaccination_centres,-113.536880643784,53.570615515984,12418 118 AVE NW,EDMONTON,780-758-9949,https://www.completecarepharmacy.ca,Calgary
1043,SAFEWAY PHARMACY #8991,covid_vaccination_centres,-113.825786509417,51.051269634703,100-135 CHESTERMERE STN WAY,CHESTERMERE,403-410-9626,https://www.safeway.ca/vaccine-registration/,Calgary
1044,CARESTAR PHARMACY,covid_vaccination_centres,-114.13944018804,51.126568115394,217-45 EDENWOLD DR NW,CALGARY,403-239-0722,,Calgary
1045,MARTINDALE PHARMACY #2,covid_vaccination_centres,-113.932202144195,51.124603721173,316-7171 80 AVE NE,CALGARY,403-453-9200,,Calgary
1046,DEER PARK IDA PHARMACY,covid_vaccination_centres,-113.759335870616,52.266463830702,1-255 DAVISON DR,RED DEER,403-343-6700,,Calgary
1047,SAFEWAY PHARMACY #8809,covid_vaccination_centres,-114.140017136403,51.044283651996,1200 37 ST SW,CALGARY,403-240-3223,https://www.safeway.ca/vaccine-registration/,Calgary
1048,NUAID ROYAL VISTA PHARMACY,covid_vaccination_centres,-114.205856459377,51.152852057167,1122 - 12 ROYAL VISTA WAY NW,CALGARY,825-710-8888,,Calgary
1049,WESTBRIDGE PHARMACY,covid_vaccination_centres,-112.892316226159,49.698020211437,20-872 HERITAGE BLVD W,LETHBRIDGE,403-942-0120,,Calgary
1050,SOBEYS PHARMACY #1130,covid_vaccination_centres,-113.973850427567,50.703702602403,700 CORNERSTONE,OKOTOKS,403-995-4123,https://www.safeway.ca/vaccine-registration/,Calgary
1051,CENTRAL ALBERTA CO-OP PHARMACY #5,covid_vaccination_centres,-113.765032685432,52.255410083038,13-69 DUNLOP ST,RED DEER,403-342-6904,,Calgary
1052,SHOPPERS DRUG MART #2303,covid_vaccination_centres,-111.438584392082,56.758542674204,103-112 RIVERSTONE RIDGE,FORT MCMURRAY,780-743-3362,https://www1.shoppersdrugmart.ca/en/health-and-pharmacy/covid-19?ShortURL=covid,Calgary
1053,REXALL #7292,covid_vaccination_centres,-113.962132613738,51.098533611622,120-55 CASTLERIDGE BLVD NE,CALGARY,403-293-6650,https://www.rexall.ca/covid-19/alberta-vaccine,Calgary
1054,MEDICINE SHOPPE PHARMACY 328,covid_vaccination_centres,-113.468570001777,53.518497233174,9122 82 AVE NW,EDMONTON,780-760-1131,https://msp328.medmeapp.com/schedule1366,Calgary
1055,SHOPPERS DRUG MART #1589,covid_vaccination_centres,-113.37958194985,52.969581593179,5215 50 AVE,WETASKIWIN,780-352-5202,https://www1.shoppersdrugmart.ca/en/health-and-pharmacy/covid-19?ShortURL=covid,Calgary
1056,TOWN & COUNTRY PHARMACY,covid_vaccination_centres,-113.376742561172,52.970257894487,5104 50 AVE,WETASKIWIN,780-361-0011,,Calgary
1057,LOBLAW PHARMACY #4950,covid_vaccination_centres,-113.542457116759,53.25286560944,3915 50 ST,LEDUC,780-980-8281,https://www.nofrills.ca/covid19,Calgary
1058,SAFEWAY PHARMACY #8916,covid_vaccination_centres,-114.165533830856,51.075029352977,5048 16 AVE NW,CALGARY,403-286-1110,https://www.safeway.ca/vaccine-registration/,Calgary
1059,MEDICINE SHOPPE PHARMACY 217,covid_vaccination_centres,-113.590982715273,53.459094368605,102-121 HADDOW CLOSE NW,EDMONTON,780-436-4572,https://www.medicineshoppe.ca/en/alberta/edmonton/the-medicine-shoppe-pharmacy-217-7007142,Calgary
1060,SHOPPERS DRUG MART #2418,covid_vaccination_centres,-113.496312015135,53.516812940192,8065 104 ST NW,EDMONTON,780-433-3954,https://www1.shoppersdrugmart.ca/en/health-and-pharmacy/covid-19?ShortURL=covid,Calgary
1061,TIMBERLEA PHARMACY,covid_vaccination_centres,-111.461799001545,56.756418001264,8-122 MILLENNIUM DR,FORT MCMURRAY,780-750-4500,,Calgary
1062,CALGARY CO-OP PHARMACY #26,covid_vaccination_centres,-113.944372631021,50.895438073348,700-100 AUBURN MEADOWS DR SE,CALGARY,403-225-9130,https://www.calgarycoop.com/covid19vaccination,Calgary
1063,UNIVERSAL HEALTH PHARMACY #10,covid_vaccination_centres,-114.211702817048,51.120555237799,113-8555 SCURFIELD DR NW,CALGARY,403-547-4323,https://www.universalhealthcentre.com,Calgary
1064,JASPER METTRA PHARMACY,covid_vaccination_centres,-118.081867890143,52.875921805603,600A PATRICIA ST,JASPER,780-820-1091,,Calgary
1065,LOBLAW PHARMACY #4398,covid_vaccination_centres,-113.843218720175,50.57286302089,1103 18 ST SE,HIGH RIVER,403-652-8650,https://www.nofrills.ca/covid19,Calgary
1066,SAVE-ON-FOODS PHARMACY #6665,covid_vaccination_centres,-113.612652313052,53.62134601325,500-140 ST. ALBERT RD,ST ALBERT,780-460-5493,https://saveonfoodspharmacy.medmeapp.com/schedule/,Calgary
1067,RX DRUG MART #2015,covid_vaccination_centres,-116.491337900593,55.431646446055,5109 49 ST,HIGH PRAIRIE,780-523-5885,,Calgary
1068,WE CARE PHARMACY,covid_vaccination_centres,-113.526730571276,53.541295871037,11912 JASPER AVE,EDMONTON,780-705-0070,,Calgary
1069,VIDA PHARMACY,covid_vaccination_centres,-113.495769257233,53.491061408476,5320 CALGARY TR NW,EDMONTON,780-761-5320,,Calgary
1070,SAFEWAY PHARMACY #8892,covid_vaccination_centres,-113.490231549834,53.598409618897,200-9499 137 AVE NW,EDMONTON,780-472-0907,https://www.safeway.ca/vaccine-registration/,Calgary
1071,DOLAR DRUGS 2,covid_vaccination_centres,-113.548483214764,53.592645236271,13211 132 ST NW,EDMONTON,780-455-0555,https://dolardrugs.simplybook.me/v2/,Calgary
1072,BEVERLY TOWNE PHARMACY,covid_vaccination_centres,-113.395311730109,53.570215744711,11730 34 ST NW,EDMONTON,780-758-7510,,Calgary
1073,SOUTH COUNTRY CO-OP LTD @13 AVE PHARMACY,covid_vaccination_centres,-110.665538652525,50.011214802511,109-3030 13 AVE SE,MEDICINE HAT,403-528-6604,https://www.cooprx.ca,Calgary
1074,REVIVE PHARMACY,covid_vaccination_centres,-114.104644436403,51.070416428938,1905 20 AVE NW,CALGARY,403-764-8020,https://revivepharma.ca/appointment/,Calgary
1075,LOBLAW PHARMACY #1568,covid_vaccination_centres,-113.603754272572,53.62076015152,101 ST. ALBERT RD,ST ALBERT,780-418-6835,https://www.realcanadiansuperstore.ca/covid19,Calgary
1076,IRRICANA REMEDY'S RX PHARMACY,covid_vaccination_centres,-113.60849138459,51.322189544616,309 1 AVE,IRRICANA,403-935-0022,,Calgary
1077,SAFEWAY PHARMACY #8879,covid_vaccination_centres,-113.42286979771,53.601395042906,500 MANNING CROSS NW,EDMONTON,780-475-2736,https://www.safeway.ca/vaccine-registration/,Calgary
1078,HEALTHMED PHARMACY,covid_vaccination_centres,-114.063920601336,50.913918125294,22-240 MIDPARK WAY SE,CALGARY,403-254-8448,,Calgary
1079,PHARMASAVE DELBURNE,covid_vaccination_centres,-113.232601130661,52.197760609584,2102 20 ST,DELBURNE,403-749-2214,,Calgary
1080,SHAWNESSY PHARMACY,covid_vaccination_centres,-114.064696056517,50.906734267458,138-70 SHAWVILLE BLVD SE,CALGARY,403-984-5234,,Calgary
1081,LONDON DRUGS #64,covid_vaccination_centres,-113.967537014966,50.931502878367,4701 130 AVE SE,CALGARY,403-257-6850,https://www.londondrugs.com/covid19,Calgary
1082,MEDICINE SHOPPE PHARMACY 114,covid_vaccination_centres,-113.500109050275,53.480899575053,128-4211 106 ST,EDMONTON,780-438-1040,https://www.medicineshoppe.ca/en/alberta/edmonton/the-medicine-shoppe-pharmacy-114-7016699,Calgary
1083,SHOPPERS DRUG MART #2346,covid_vaccination_centres,-112.7077983229,51.462216561227,41 RAILWAY AVE W,DRUMHELLER,403-823-5955,https://www1.shoppersdrugmart.ca/en/health-and-pharmacy/covid-19?ShortURL=covid,Calgary
1084,SANDSTONE PHARMACIES HENDAY CENTRE,covid_vaccination_centres,-113.946088310025,52.029502701503,127 HENDAY CENTRE,INNISFAIL,403-227-1111,,Calgary
1085,REXALL #7201,covid_vaccination_centres,-115.13897758051,53.955044849972,5006 50 ST,MAYERTHORPE,780-786-2044,https://www.rexall.ca/covid-19/alberta-vaccine,Calgary
1086,SAFEWAY PHARMACY #8905,covid_vaccination_centres,-113.580715897712,53.539977749504,15007 STONY PLAIN RD NW,EDMONTON,780-484-3355,https://www.safeway.ca/vaccine-registration/,Calgary
1087,KINGSRIDGE PHARMACY,covid_vaccination_centres,-113.569685387913,53.64937070233,102-225 CARLETON DR,ST ALBERT,780-458-9007,https://www.pharmachoice.com/locations/kingsridge-pharmacy/,Calgary
1088,PEOPLES PHARMACY 8058,covid_vaccination_centres,-113.615442659078,53.650770956325,120-140 BELLEROSE DR,ST ALBERT,780-312-7575,,Calgary
1089,CARERX COMPOUNDING EDMONTON,covid_vaccination_centres,-113.589831134265,53.531992099781,M5-9509 156 ST NW,EDMONTON,780-484-9595,,Calgary
1090,SHOPPERS DRUG MART #2441,covid_vaccination_centres,-113.378386728631,53.455596702791,2350 24 ST NW,EDMONTON,780-469-3036,https://www1.shoppersdrugmart.ca/en/health-and-pharmacy/covid-19?ShortURL=covid,Calgary
1091,WAL-MART PHARMACY #1135,covid_vaccination_centres,-114.470813890373,51.186599973477,15 QUARRY ST W,COCHRANE,403-851-3043,https://portal.healthmyself.net/walmartab/forms/a66,Calgary
1092,WAL-MART PHARMACY #3657,covid_vaccination_centres,-113.569704709913,53.268683594072,5302 DISCOVERY WAY,LEDUC,780-986-1995,https://portal.healthmyself.net/walmartab/forms/a66,Calgary
1093,HEALTH PLUS PHARMACY,covid_vaccination_centres,-113.484059171171,53.554324849368,10746 95 ST NW,EDMONTON,780-760-7555,https://www.bookmyshot.com/7807607555,Calgary
1094,SHOPPERS DRUG MART #2420,covid_vaccination_centres,-114.474527788211,51.190684154459,100-120 5 AVE W,COCHRANE,403-932-3568,https://www1.shoppersdrugmart.ca/en/health-and-pharmacy/covid-19?ShortURL=covid,Calgary
1095,DRUGSTORE PHARMACY #6716,covid_vaccination_centres,-112.80348868602,49.674890466033,1706 MAYOR MAGRATH DR S,LETHBRIDGE,403-320-2368,https://www.wholesaleclub.ca/covid19,Calgary
1096,MIDTOWN PHARMACY & TRAVEL CLINIC,covid_vaccination_centres,-114.086676815363,51.04334216387,1110 11 AVE SW,CALGARY,403-452-0712,https://travelcliniccalgary.ca/,Calgary
1097,CROSS POINTE PHARMACY,covid_vaccination_centres,-113.969335374349,51.044517123905,7-4527 8 AVE SE,CALGARY,403-248-9600,https://crosspointeremedys.myappts.ca/src/,Calgary
1098,SHOPPERS DRUG MART #368,covid_vaccination_centres,-113.882170261726,53.542272850778,100-131 CENTURY CROSSING RD,SPRUCE GROVE,780-962-3555,https://www1.shoppersdrugmart.ca/en/health-and-pharmacy/covid-19?ShortURL=covid,Calgary
1099,COMMUNITY DRUG MART #2028,covid_vaccination_centres,-110.173837918618,54.463924695621,4-901 10 ST,COLD LAKE,780-639-3393,,Calgary
1100,LOBLAW PHARMACY #4008,covid_vaccination_centres,-113.647206072568,53.786610050955,8901 100 ST,MORINVILLE,780-939-2915,https://www.nofrills.ca/covid19,Calgary
1101,TOWN & COUNTRY MASKWACIS PHARMACY,covid_vaccination_centres,-113.458262730495,52.820587018728,4910 50 ST,MASKWACIS,780-585-6899,,Calgary
1102,SHOPPERS DRUG MART #2375,covid_vaccination_centres,-114.036641527142,50.876165223832,700-151 WALDEN GATE SE,CALGARY,403-254-0382,https://www1.shoppersdrugmart.ca/en/health-and-pharmacy/covid-19?ShortURL=covid,Calgary
1103,SHOPPERS DRUG MART #306,covid_vaccination_centres,-114.104948791957,50.963393697628,1919B SOUTHLAND DR SW,CALGARY,403-253-1477,https://www1.shoppersdrugmart.ca/en/health-and-pharmacy/covid-19?ShortURL=covid,Calgary
1104,LAMONT COUNTY PHARMACY,covid_vaccination_centres,-112.78587573024,53.760224571006,5122 50 AVE,LAMONT,780-579-0017,https://www.book.pharmachoice.com/(780)%20579-0017,Calgary
1105,JOHNSTONE IDA PHARMACY,covid_vaccination_centres,-113.839747814795,52.301971436403,100-2 JEWELL ST,RED DEER,403-348-8203,https://johnstoneida.medmeapp.com/schedule/,Calgary
1106,MEDICINE SHOPPE PHARMACY 365,covid_vaccination_centres,-113.310061374787,53.542081297414,172-270 BASELINE RD,SHERWOOD PARK,780-570-0203,https://www.medicineshoppe.ca/en/alberta/sherwood-park/the-medicine-shoppe-pharmacy-365-7019976,Calgary
1107,SHOPPERS DRUG MART #311,covid_vaccination_centres,-114.079805822735,51.037720401405,100-815 17 AVE SW,CALGARY,403-244-9769,https://www1.shoppersdrugmart.ca/en/health-and-pharmacy/covid-19?ShortURL=covid,Calgary
1108,SHOPPERS DRUG MART #2416,covid_vaccination_centres,-114.125299315201,51.163038467382,20-12192 SYMONS VALLEY RD NW,CALGARY,403-274-0844,https://www1.shoppersdrugmart.ca/en/health-and-pharmacy/covid-19?ShortURL=covid,Calgary
1109,MEDICINE SHOPPE PHARMACY 170,covid_vaccination_centres,-113.449613359449,53.468215290825,127 MILLBOURNE RD E,EDMONTON,780-461-8648,https://www.medicineshoppe.ca/en/alberta/edmonton/the-medicine-shoppe-pharmacy-170-7005390,Calgary
1110,LUKES DRUG MART,covid_vaccination_centres,-114.051347630703,51.053166793038,112 4 STREET NE,CALGARY,403-266-4142,https://www.lukesdrugmart.com,Calgary
1111,LYNNWOOD DRUGS,covid_vaccination_centres,-114.009797730706,50.994021894461,6618 20A ST SE,CALGARY,403-279-3731,,Calgary
1112,LOBLAW PHARMACY #4900,covid_vaccination_centres,-114.773634487872,55.280556091115,100 MAIN ST SW,SLAVE LAKE,780-849-2626,https://www.nofrills.ca/covid19,Calgary
1113,COMMUNITY HEALTH PHARMACY,covid_vaccination_centres,-114.903353357267,53.888656181109,5016 50 ST,SANGUDO,780-785-3784,https://www.communityhealthpharmacy.ca,Calgary
1114,VARSITY PHARMACY,covid_vaccination_centres,-114.131864917049,51.078493929155,291 MACEWAN STUDENT CENTRE,CALGARY,403-282-0100,,Calgary
1115,WETASKIWIN FAMILY PHARMACY,covid_vaccination_centres,-113.373018494028,52.970830341662,5101A 50 ST,WETASKIWIN,780-352-5111,,Calgary
1116,REXALL #7233,covid_vaccination_centres,-113.307043034327,53.541883237354,5-101 BREMNER DR,SHERWOOD PARK,780-417-6951,https://www.rexall.ca/covid-19/alberta-vaccine,Calgary
1117,GUARDIAN PHARMACY TOFIELD,covid_vaccination_centres,-112.667376187786,53.37022761083,5222 50 ST,TOFIELD,780-662-3108,,Calgary
1118,MALONE PHARMACY,covid_vaccination_centres,-114.973069344118,53.212452816979,4955 41 AVE,DRAYTON VALLEY,780-514-3700,,Calgary
1119,TERWILLEGAR PHARMACY,covid_vaccination_centres,-113.577560972807,53.445474299276,1717 TOWNE CENTRE BLVD NW,EDMONTON,587-469-4609,,Calgary
1120,SOBEYS PHARMACY #3105,covid_vaccination_centres,-113.816457928665,52.238052574101,2110 50 AVE,RED DEER,403-348-0858,https://www.safeway.ca/vaccine-registration/,Calgary
1121,MEMORIAL SQUARE REMEDY'S RX,covid_vaccination_centres,-113.956678373033,51.053879744313,4A-5268 MEMORIAL DR NE,CALGARY,403-455-8139,,Calgary
1122,GREG'S VALUE DRUG MART INC.,covid_vaccination_centres,-111.282359285918,53.991867075015,4448 50 AVE,ST PAUL,780-645-3610,,Calgary
1123,SHOPPERS DRUG MART #397,covid_vaccination_centres,-113.546303815132,53.600243880126,13040 137 AVE NW,EDMONTON,780-456-4330,https://www1.shoppersdrugmart.ca/en/health-and-pharmacy/covid-19?ShortURL=covid,Calgary
1124,UNIVERSAL HEALTH PHARMACY #3,covid_vaccination_centres,-114.1618957152,51.16135855943,250-12024 SARCEE TR NW,CALGARY,587-755-7955,https://www.universalhealthcentre.com,Calgary
1125,IPHARMACY,covid_vaccination_centres,-113.4286146,53.45262431657,5708 19A AVE NW,EDMONTON,780-757-3000,https://pharmaconnect.ca/appointment/7ff3b98a-e7e7-493c-b61f-302037ac318f,Calgary
1126,NEWELL DRUG MART IDA,covid_vaccination_centres,-111.901744200288,50.56744677788,220 4 ST W,BROOKS,587-270-4433,bookvaccine.alberta.ca,Calgary
1127,ALBERTA AVE MEDX DRUGS,covid_vaccination_centres,-113.480115716941,53.570627803636,9004 118 AVE NW,EDMONTON,780-760-2535,https://www.medxdrugs.ca,Calgary
1128,SIROCCO REMEDY'S RX PHARMACY,covid_vaccination_centres,-114.166609755687,51.035922612684,220-1919 SIROCCO DR SW,CALGARY,403-685-2883,http://www.siroccopharmacy.ca,Calgary
1129,SOBEYS PHARMACY #3153,covid_vaccination_centres,-113.271875552976,53.512811595453,688 WYE RD,SHERWOOD PARK,780-416-7925,https://www.safeway.ca/vaccine-registration/,Calgary
1130,EASTVIEW APPLE DRUGS,covid_vaccination_centres,-113.788048916981,52.259065321384,3831 40 AVE,RED DEER,403-347-4008,,Calgary
1131,HEALTH+ PHARMACY,covid_vaccination_centres,-113.987968585988,51.05665696501,3149 5 AVE NE,CALGARY,403-455-5514,,Calgary
1132,RUNDLE PHARMACY,covid_vaccination_centres,-113.978870009611,51.071512833051,11-3735 RUNDLEHORN DR NE,CALGARY,403-798-9280,,Calgary
1133,CALGARY CO-OP PHARMACY #19,covid_vaccination_centres,-114.005413487836,51.269052058082,100-2700 MAIN ST,AIRDRIE,403-912-3703,https://www.calgarycoop.com/covid19vaccination,Calgary
1134,PRIMARYMED PHARMACY,covid_vaccination_centres,-114.093045030821,51.060485368702,148-1402 8 AVE NW,CALGARY,403-261-8600,,Calgary
1135,SCONA PHARMACY,covid_vaccination_centres,-113.497989355934,53.51598232595,10429 80 AVE NW,EDMONTON,780-540-7646,,Calgary
1136,SAFEWAY PHARMACY #8831,covid_vaccination_centres,-113.961667203869,51.098671517319,55 CASTLERIDGE BLVD NE,CALGARY,403-293-0223,https://www.safeway.ca/vaccine-registration/,Calgary
1137,DRUGSHORE PHARMACIES AND TRAVEL CLINIC,covid_vaccination_centres,-113.955889043661,51.038426505393,116-5430 17 AVE SE,CALGARY,403-452-9595,,Calgary
1138,MEDICINE SHOPPE PHARMACY 340,covid_vaccination_centres,-113.536579186434,53.57019424872,12411 118 AVE NW,EDMONTON,780-455-0880,https://pharmaconnect.ca/appointment/270774d4-b7d3-4aa8-8cb9-b3488e53a273,Calgary
1139,OYEN PHARMACY,covid_vaccination_centres,-110.482654180706,51.354600106927,101 1 AVE E,OYEN,403-664-3732,,Calgary
1140,HEALTHCARE I.D.A. PHARMACY,covid_vaccination_centres,-113.409252772576,53.467699799176,4416 36 AVE NW,EDMONTON,780-395-0182,,Calgary
1141,SHOPPERS DRUG MART 2368,covid_vaccination_centres,-112.853832323664,53.016261296208,1A-6601 48 AVE,CAMROSE,780-672-4111,https://www.shoppersdrugmart.ca,Calgary
1142,COSTCO PHARMACY #1076,covid_vaccination_centres,-113.983423435913,51.211437469557,300-293020 CROSSIRON COMMON,ROCKY VIEW,403-516-5059,https://www.costcopharmacy.ca/appointment,Calgary
1143,SHOPPERS DRUG MART #2313,covid_vaccination_centres,-113.273127829497,53.557586815013,20-4005 CLOVER BAR RD,SHERWOOD PARK,780-449-3319,https://www1.shoppersdrugmart.ca/en/health-and-pharmacy/covid-19?ShortURL=covid,Calgary
1144,WAL-MART PHARMACY #3112,covid_vaccination_centres,-113.394869144303,52.953551726993,300 DENHAM LANDING,WETASKIWIN,780-352-8494,https://portal.healthmyself.net/walmartab/forms/a66,Calgary
1145,WAL-MART PHARMACY #3028,covid_vaccination_centres,-113.400272354083,53.600242513372,13703 40 ST NW,EDMONTON,780-476-1324,https://portal.healthmyself.net/walmartab/forms/a66,Calgary
1146,EASTSIDE PHARMACY,covid_vaccination_centres,-113.984886657674,51.038320436171,3466 17 AVE SE,CALGARY,403-248-0030,https://www.bookmyshot.com/4032480030,Calgary
1147,MEDICINE SHOPPE PHARMACY 189,covid_vaccination_centres,-113.627232001776,53.534066454371,17715 98A AVE NW,EDMONTON,780-487-1331,https://www.medicineshoppe.ca/en/alberta/edmonton/the-medicine-shoppe-pharmacy-189-7042590,Calgary
1148,CALGARY CO-OP PHARMACY #17,covid_vaccination_centres,-114.12952430849,51.143470286347,400-1000 HAMPTONS DR NW,CALGARY,403-299-6715,https://www.calgarycoop.com/covid19vaccination,Calgary
1149,MEADOWS MILE PHARMACY,covid_vaccination_centres,-114.046635974882,50.976615186473,110-8500 BLACKFOOT TR SE,CALGARY,403-253-5700,https://www.meadowsmilepharmacy.com,Calgary
1150,SAVE-ON-FOODS PHARMACY #6637 - COCHRANE,covid_vaccination_centres,-114.46604521736,51.187031149024,65 BOW ST,COCHRANE,403-932-7257,https://saveonfoodspharmacy.medmeapp.com/schedule/,Calgary
1151,RX DRUG MART #2017,covid_vaccination_centres,-114.440195347512,49.608267853731,12749 20 AVE,BLAIRMORE,403-562-2725,,Calgary
1152,CLARESHOLM PHARMACY,covid_vaccination_centres,-113.582390445745,50.02612077293,4921 1 ST W,CLARESHOLM,403-625-3050,https://www.claresholmpharmacy.com,Calgary
1153,SAFEWAY PHARMACY #8823,covid_vaccination_centres,-114.060808865238,51.068421140675,1818 CENTRE ST NE,CALGARY,403-276-3313,https://www.safeway.ca/vaccine-registration/,Calgary
1154,LYNNWOOD PHARMASAVE,covid_vaccination_centres,-113.578563701777,53.521013141366,8764 149 ST NW,EDMONTON,780-761-0504,https://www.lynnwoodpharmasave.com,Calgary
1155,DENWOOD PHARMACY,covid_vaccination_centres,-110.856058941766,52.837495725372,621 10 ST,WAINWRIGHT,780-806-2200,https://www.denwoodpharmacy.com,Calgary
1156,REVOLUTION REMEDY'SRX,covid_vaccination_centres,-114.174547003871,51.016938572549,5959 SIGNAL HILL CENTRE SW,CALGARY,587-319-0501,https://www.revolutionremedysrx.ca,Calgary
1157,PHARMASAVE #325,covid_vaccination_centres,-110.735693484829,54.267965640814,4812 50 AVE,BONNYVILLE,780-826-4445,,Calgary
1158,SOBEYS PHARMACY #1713,covid_vaccination_centres,-113.960769542193,51.037464386862,5101 17 AVE SE,CALGARY,403-248-8307,https://www.safeway.ca/vaccine-registration/,Calgary
1159,VILLAGE SQUARE PHARMACY,covid_vaccination_centres,-113.956743845884,51.075674201299,107 - 2640 52 ST NE,CALGARY,403-764-1970,,Calgary
1160,LOBLAW PHARMACY #4959,covid_vaccination_centres,-113.935081187953,52.029612101094,5080 43 AVE,INNISFAIL,403-227-5037,https://www.nofrills.ca/covid19,Calgary
1161,RX DRUG MART #2016,covid_vaccination_centres,-113.286252857046,54.720973798331,4923 50 ST,ATHABASCA,780-675-2071,,Calgary
1162,PHARMASAVE CLIVE,covid_vaccination_centres,-113.447587044145,52.478118261778,5108 50 ST,CLIVE,403-784-0421,,Calgary
1163,1230 PHARMACY & TRAVEL CLINIC,covid_vaccination_centres,-113.47612889975,53.422405338965,102-1230 91 ST SW,EDMONTON,780-916-1230,,Calgary
1164,SHOPPERS DRUG MART #343,covid_vaccination_centres,-114.915358328661,52.378668731877,1 GATEWAY CROSSING,ROCKY MOUNTAIN HOUSE,403-845-3066,https://www1.shoppersdrugmart.ca/en/health-and-pharmacy/covid-19?ShortURL=covid,Calgary
1165,TURTLE MOUNTAIN PHARMACY,covid_vaccination_centres,-114.460324472913,49.615892516313,7-11001 20 AVE,BLAIRMORE,403-562-8345,,Calgary
1166,HIGHLAND GREEN REMEDY'S RX PHARMACY,covid_vaccination_centres,-113.836762585959,52.282520832729,3-88 HOWARTH ST,RED DEER,403-986-5531,https://highlandgreenremedysrx.medmeapp.ca/schedule,Calgary
1167,FALCON PHARMACY,covid_vaccination_centres,-113.957576945512,51.097865907528,5425 FALSBRIDGE DR NE,CALGARY,403-568-6065,https://www.bookmyshot.com/4035686065,Calgary
1168,SHOPPERS DRUG MART #358,covid_vaccination_centres,-114.072853913359,50.999013364018,24-6455 MACLEOD TR S,CALGARY,403-253-2424,https://www1.shoppersdrugmart.ca/en/health-and-pharmacy/covid-19?ShortURL=covid,Calgary
