idx,facility_name,facility_type,longitude,latitude,street_addr,provider
0,Archives Nationales,Édifice fédéral,45.487452,-75.676786,625 Boulevard du Carrefour,Gatineau
1,Résidence Cité-Jardin,Résidence pour personnes âgées,45.486385,-75.68749,60 Rue de la Futaie,Gatineau
2,Cinéma 9,Cinéma,45.481,-75.686799,120 Boulevard de l'Hôpital,Gatineau
3,Centre de réadaptation en dépendance,Autres services médicaux et de santé,45.422431,-75.748249,25 Rue Saint-François,Gatineau
4,Centre d'hébergement Bon Séjour,C.H.S.L.D.,45.481621,-75.647589,134 Rue Jean-René-Monette,Gatineau
5,Usine de filtration Secteur Hull,Usine de traitement des eaux,45.419376,-75.753116,291 Boulevard de Lucerne,Gatineau
6,Édifice Jos-Monferrand,Édifice municipal,45.426872,-75.711457,170 Rue de l'Hôtel-de-Ville,Gatineau
7,Centre communautaire Saint-Jean-De Brébeuf,Centre communautaire,45.46431,-75.707064,70 Rue Moreau,Gatineau
8,Parc Apollo,Parc récréatif,45.487214,-75.670275,520 Rue Carle,Gatineau
9,La Fonderie,Centre sportif,45.430451,-75.731136,211 Rue Montcalm,Gatineau
10,Plaza Glenwood,Centre commercial,45.394896,-75.832427,210 Chemin d'Aylmer,Gatineau
11,Galeries Aylmer,Centre commercial,45.396974,-75.836098,181 Rue Principale,Gatineau
12,Édifice Louis-St-Laurent,Immeuble à bureaux,45.444997,-75.729356,555 Boulevard de la Carrière,Gatineau
13,Édifice Vincent-Massey,Immeuble à bureaux,45.442749,-75.733061,351 Boulevard Saint-Joseph,Gatineau
14,Terrasse de la Chaudière - Édifice Nord,Immeuble à bureaux,45.425592,-75.721814,10 Rue Wellington,Gatineau
15,Terrasse de la Chaudière - Édifice Sud,Immeuble à bureaux,45.425709,-75.720285,15 Rue Eddy,Gatineau
16,Édifice Fontaine,Immeuble à bureaux,45.436946,-75.709264,200 Boulevard Sacré-Coeur,Gatineau
17,La porte de Gatineau,Centre commercial,45.475072,-75.704559,25 Chemin de la Savane,Gatineau
18,Galeries Gatineau,Centre commercial,45.47815,-75.689222,920 Boulevard Maloney Ouest,Gatineau
19,Les Promenades Gatineau,Centre commercial,45.476019,-75.697666,1100 Boulevard Maloney Ouest,Gatineau
20,Place Lucerne,Centre commercial,45.395,-75.834372,200 Rue Principale,Gatineau
21,Centre Grande-Rivière,Centre commercial,45.396696,-75.833637,203 Chemin d'Aylmer,Gatineau
22,Garderie éducative Le petit Caneton 2,Service de garderie,45.483364,-75.611297,814 Boulevard Maloney Est,Gatineau
23,Garderie Pré maternelle Touraine,Service de garderie,45.476454,-75.729573,13 Avenue Gatineau,Gatineau
24,Pavillon Marcel D'amour,Autre centre de services sociaux,45.424816,-75.740669,30 Rue Pharand,Gatineau
25,Résidence de Hull,"Résidence pour personnes âgées(Type ""Familiale"")",45.462816,-75.749229,46 Rue Lucien-Brault,Gatineau
26,Résidence Corbeil,Résidence pour personnes âgées,45.451052,-75.75075,63 Rue Corbeil,Gatineau
27,Résidence de Gatineau,Résidence pour personnes âgées,45.473574,-75.691922,20 Rue Laferrière,Gatineau
28,CPE Chez Cornemuse (Vision-avenir),Service de garderie,45.447455,-75.737776,48 Boulevard Saint-Raymond,Gatineau
29,CPE Petit Felix,Service de garderie,45.482028,-75.684438,812 Boulevard de la Gappe,Gatineau
30,Caserne 4 Jean-Claude-Charbonneau,Incendie,45.437883,-75.723271,315 Rue Saint-Rédempteur,Gatineau
31,Résidence Chartwell Domaine Notre-Dame,Résidence pour personnes âgées,45.433963,-75.734505,39 Rue Amherst,Gatineau
32,CPE Aux Nids des Petits,Service de garderie,45.436598,-75.731588,138 Rue Lois,Gatineau
33,CPE Chez Cornemuse,Service de garderie,45.447453,-75.737802,46 Boulevard Saint-Raymond,Gatineau
34,Centre communautaire Saga Jeunesse,Édifice communautaire,45.494261,-75.755369,23(A) Rue Saint-Alexandre,Gatineau
35,CPE des Hautes-Plaines,Service de garderie,45.471666,-75.762455,475 Boulevard des Hautes-Plaines,Gatineau
36,CPE des Premiers Pas (Atmosphère),Service de garderie,45.438816,-75.783867,165 Rue de l'Atmosphère,Gatineau
37,Centre communautaire du Plateau,Centre communautaire,45.439406,-75.781822,145 Rue de l'Atmosphère,Gatineau
38,Église Saint-Columban,Lieu de culte,45.53538,-75.690104,311 Chemin Saint-Columban,Gatineau
39,Église Saint-François-de-Salle,Lieu de culte,45.457497,-75.699224,799 Rue Jacques-Cartier,Gatineau
40,Église Anglicane de Saint-George,Lieu de culte,45.484841,-75.649403,111 Rue Broadway Est,Gatineau
41,Église Saint-Mathieu,Lieu de culte,45.475065,-75.725279,69 Rue de Provence,Gatineau
42,Église Sainte-Trinité,Lieu de culte,45.492086,-75.650292,400 Rue Raymond,Gatineau
43,Église Sainte-Maria-Goretti,Lieu de culte,45.482309,-75.62585,664 Rue de Duberger,Gatineau
44,Église Sainte-Rose-de-Lima,Lieu de culte,45.498963,-75.607869,861 Boulevard Saint-René Est,Gatineau
45,Église Templeton United,Lieu de culte,45.486422,-75.601839,942 Rue Notre-Dame,Gatineau
46,Chapelle des Servantes de Jésus-Marie,Lieu de culte,45.436566,-75.708188,210 Rue Laurier,Gatineau
47,Chapelle des Soeurs de la Charité,Lieu de culte,45.431401,-75.710666,172 Rue de Notre-Dame-de-l'Île,Gatineau
48,Domaine des Trembles,Résidence pour personnes âgées,45.428943,-75.763016,250 Boulevard Saint-Raymond,Gatineau
49,Les Jardins Notre-Dame,Résidence pour personnes âgées,45.433939,-75.733596,195 Boulevard Saint-Joseph,Gatineau
50,Caserne 5 Aldoria-Dumulong,Incendie,45.490424,-75.702059,535 Boulevard Gréber,Gatineau
51,Collège Nouvelles-Frontières (collègial),Collège,45.428148,-75.738346,101 Rue Saint-Jean-Bosco,Gatineau
52,École intermédiaire Symmes,École secondaire,45.42236,-75.805956,925 Boulevard du Plateau,Gatineau
53,École secondaire D'Arcy McGee,École secondaire,45.421897,-75.806317,925 Boulevard du Plateau,Gatineau
54,Pont Brabant-Philippe (piste cyclable),Pont,45.498357,-75.594198,Rue Leclerc,Gatineau
55,Résidence Sérénité J.D.K.,Résidence pour personnes âgées,45.587783,-75.429123,244 Rue Maclaren Ouest,Gatineau
56,Résidence Shayla,Résidence pour personnes âgées,45.47756,-75.677304,283 Rue de Melbourne,Gatineau
57,Manoir Sainte-Marie,Résidence pour personnes âgées,45.499707,-75.607934,156 Boulevard Lorrain,Gatineau
58,Caserne 7 Joseph-Roy,Incendie,45.498217,-75.581197,475 Avenue du Cheval-Blanc,Gatineau
59,Centre communautaire Frank-Robinson,Centre communautaire,45.393687,-75.843306,96 Rue du Patrimoine,Gatineau
60,École des Trois-Portages,École primaire,45.406373,-75.844382,120 Rue Broad,Gatineau
61,Centre de services Aylmer,Édifice municipal,45.395235,-75.844885,115 Rue Principale,Gatineau
62,École secondaire Grande-Rivière,École secondaire,45.403717,-75.843769,100 Rue Broad,Gatineau
63,Pavillon du Parc (Hull-Aylmer),Autres services médicaux et de santé,45.406681,-75.848516,200 Rue Robert-Wright,Gatineau
64,École internationale du Village Immeuble Limoges,École primaire,45.395619,-75.851105,19 Rue Symmes,Gatineau
65,École Lord Aylmer Campus senior,École primaire,45.391427,-75.83967,116 Avenue Frank-Robinson,Gatineau
66,C.L.S.C de Gatineau (LeGuerrier),C.L.S.C.,45.39946,-75.836049,425 Rue LeGuerrier,Gatineau
67,Parc des Trembles,Parc récréatif,45.426779,-75.767335,150 Boulevard des Trembles,Gatineau
68,École Euclide-Lanthier,École primaire,45.392361,-75.831162,50 Rue Elizabeth,Gatineau
69,École Lord Aylmer Campus junior,École primaire,45.393401,-75.840264,130 Avenue Frank-Robinson,Gatineau
70,Centre hospitalier Pierre-Janet,Centre hospitalier,45.425276,-75.739988,20 Rue Pharand,Gatineau
71,École Jean-de-Brébeuf,École primaire,45.42061,-75.748419,360 Boulevard de Lucerne,Gatineau
72,U.Q.O. Pavillon Alexandre-Taché,Université,45.421916,-75.738094,283 Boulevard Alexandre-Taché,Gatineau
73,Centre communautaire Tétreau,Centre communautaire,45.419419,-75.748688,361 Boulevard de Lucerne,Gatineau
74,École du Lac-des-Fées,École primaire,45.438205,-75.745175,4 Rue Camille-Gay,Gatineau
75,Centre récréatif Saint-Joseph,Centre communautaire,45.43543,-75.734891,122 Rue Berri,Gatineau
76,École Saint-Jean-Bosco,École primaire,45.428695,-75.736712,71 Rue Saint-Jean-Bosco,Gatineau
77,École Pierre-Elliott-Trudeau,École primaire,45.425476,-75.7294,2 Rue Millar,Gatineau
78,U.Q.O. Pavillon Lucien-Brault,Université,45.428736,-75.738269,101 Rue Saint-Jean-Bosco,Gatineau
79,Parc Saint-Jean-Bosco,Parc récréatif,45.428161,-75.732433,70 Boulevard Saint-Joseph,Gatineau
80,Hôpital de Hull,Centre hospitalier,45.444341,-75.745987,116 Boulevard Lionel-Émond,Gatineau
81,Centre d'hébergement Foyer du Bonheur,C.H.S.L.D.,45.445323,-75.748442,125 Boulevard Lionel-Émond,Gatineau
82,Bibliothèque Lucien-Lalonde,Bibliothèque,45.442477,-75.735515,225 Rue Berri,Gatineau
83,Parc Laurent-Groulx,Parc récréatif,45.445746,-75.739741,1 Rue Lévesque,Gatineau
84,Parc Montpetit,Parc récréatif,45.446745,-75.742665,97 Boulevard Saint-Raymond,Gatineau
85,Collège Saint-Joseph,École secondaire,45.431612,-75.710656,174 Rue de Notre-Dame-de-l'Île,Gatineau
86,École Notre-Dame,École primaire,45.429894,-75.71688,170 Rue Papineau,Gatineau
87,Place du Portage I,Édifice fédéral,45.427832,-75.714565,105 Rue de l'Hôtel-de-Ville,Gatineau
88,Parc Sainte-Bernadette,Parc récréatif,45.428032,-75.722179,40 Rue Pilon,Gatineau
89,Maison du Citoyen,Édifice municipal,45.427857,-75.710935,25 Rue Laurier,Gatineau
90,Place du Portage II,Édifice fédéral,45.428026,-75.712776,165 Rue de l'Hôtel-de-Ville,Gatineau
91,Place du Portage III,Édifice fédéral,45.425573,-75.713082,11 Rue Laurier,Gatineau
92,Place du Portage IV,Édifice fédéral,45.425558,-75.71555,140 Promenade du Portage,Gatineau
93,Bibliothèque Maison du Citoyen,Bibliothèque,45.428106,-75.711068,25 Rue Laurier,Gatineau
94,Centre Robert-Guertin,Aréna,45.434264,-75.724392,125 Rue de Carillon,Gatineau
95,École Saint-Paul,École primaire,45.459465,-75.746706,145 Rue Isabelle,Gatineau
96,Centre communautaire Eugène-Sauvageau,Centre communautaire,45.455331,-75.738724,179 Rue Mutchmore,Gatineau
97,École du Dôme,École primaire,45.47283,-75.750331,40 Rue du Dôme,Gatineau
98,Poste police secteur de Hull,Police municipale,45.452291,-75.730326,777 Boulevard de la Carrière,Gatineau
99,Gare d'Autobus et d'Entretien STO,Atelier et garage municipaux,45.465524,-75.734494,111 Rue Jean-Proulx,Gatineau
100,Sureté du Québec,Police provincial,45.467489,-75.741263,85 Rue Jean-Proulx,Gatineau
101,Bibliothèque Bernard-Lonergan,Bibliothèque,45.590917,-75.411036,181 Rue Joseph,Gatineau
102,C.L.S.C Vallée-de-la-Lièvre,C.L.S.C.,45.588029,-75.402762,578 Rue Maclaren Est,Gatineau
103,École secondaire Hormisdas-Gamelin,École secondaire,45.587275,-75.400107,580 Rue Maclaren Est,Gatineau
104,Musée Canadien de la Nature,Musée,45.444363,-75.811461,1740 Chemin Pink,Gatineau
105,École secondaire Mont-Bleu,École secondaire,45.461833,-75.771125,389 Boulevard de la Cité-des-Jeunes,Gatineau
106,Cabane en bois rond,Édifice communautaire,45.457858,-75.767525,331 Boulevard de la Cité-des-Jeunes,Gatineau
107,Poste police secteur de Buckingham,Police municipale,45.573417,-75.423343,830 Rue Georges,Gatineau
108,École du Boisé,École primaire,45.587746,-75.405793,231 Rue Dorchester,Gatineau
109,Parc de Lucerne-Nord,Parc récréatif,45.458372,-75.878278,674 Rue des Écureuils,Gatineau
110,Poste police secteur d'Aylmer,Police municipale,45.400174,-75.80762,625 Chemin d'Aylmer,Gatineau
111,Centre communautaire André-Touchet,Centre communautaire,45.383825,-75.80397,57 Chemin Vanier,Gatineau
112,École South Hull,École primaire,45.397347,-75.804044,86 Promenade Crescent,Gatineau
113,Résidence de la Gappe Phase 1,Résidence pour personnes âgées,45.47956,-75.699063,465 Boulevard de la Gappe,Gatineau
114,La Cité-Jardin plus,Résidence pour personnes âgées,45.486747,-75.686447,90 Rue de la Futaie,Gatineau
115,Garderie éducative Parfaitement Petit,Service de garderie,45.437324,-75.803738,201 Rue du Prado,Gatineau
116,CPE Les petits Fripons (Lépine),Service de garderie,45.576035,-75.398472,195 Avenue Lépine,Gatineau
117,Garderie éducative Le petit Caneton,Service de garderie,45.440098,-75.734439,39 Boulevard Montclair,Gatineau
118,Garderie Imagine 2,Service de garderie,45.45483,-75.751586,104 Rue Bédard,Gatineau
119,Garderie éducative Parfaitement plus Grand,Service de garderie,45.437232,-75.803604,201(A) Rue du Prado,Gatineau
120,Garderie Maison d'enfants Montessori Gatineau,Service de garderie,45.48422,-75.718776,123 Avenue Gatineau,Gatineau
121,Centre de plein air Hélène-Larochelle,Centre récréatif,45.491536,-75.622567,741 Boulevard Maloney Est,Gatineau
122,Parc John-R.-Luck,Autre parc,45.483555,-75.645652,172 Rue Fernand-Arvisais,Gatineau
123,Parc Racicot,Parc récréatif,45.479637,-75.632136,77 Rue Sabourin,Gatineau
124,Parc Hector-Aubin,Parc récréatif,45.522561,-75.627025,27 Rue Thérèse,Gatineau
125,Parc Irène,Parc récréatif,45.527679,-75.640359,1307 Rue Gilles,Gatineau
126,Parc Gérard-Marchand,Parc récréatif,45.523283,-75.498863,101 Rue d'Arizona,Gatineau
127,Parc Gilles-Maisonneuve,Parc récréatif,45.526499,-75.488459,1100 Rue Yvon-Pichette,Gatineau
128,Parc Valpin,Parc récréatif,45.528662,-75.493347,39(A) Rue de Grandpré,Gatineau
129,Parc des Jardins-Lavigne,Parc récréatif,45.417686,-75.838583,250 Avenue du Bois-Franc,Gatineau
130,Réservoir McConnell,Réservoir d'eau potable,45.412412,-75.824681,401 Chemin McConnell,Gatineau
131,Parc des Petits-Seigneurs,Parc récréatif,45.399902,-75.829564,237(A) Avenue des Explorateurs,Gatineau
132,Parc Prospérine,Parc récréatif,45.38803,-75.820304,125 Chemin Foley,Gatineau
133,Parc Victor-Beaudry,Autre parc,45.389972,-75.817275,107 Rue Victor-Beaudry,Gatineau
134,Parc-école South Hull,Parc récréatif,45.397212,-75.805435,86 Promenade Crescent,Gatineau
135,Parc Kenneth-Lloyd,Parc récréatif,45.383054,-75.807734,26 Rue Arthur-Whelan,Gatineau
136,Parc Madaire,Parc récréatif,45.383627,-75.803699,57 Chemin Vanier,Gatineau
137,Parc Émile-Zola,Parc récréatif,45.409114,-75.795373,15 Rue Émile-Zola,Gatineau
138,Parc Allen,Parc récréatif,45.410493,-75.785168,100 Chemin Allen,Gatineau
139,Parc de Saint-Malo,Parc récréatif,45.423874,-75.79575,41 Rue de Saint-Malo,Gatineau
140,Parc des Jonquilles,Parc récréatif,45.42504,-75.758964,83 Avenue des Jonquilles,Gatineau
141,Parc Cholette,Autre parc,45.447914,-75.751097,156 Boulevard de la Cité-des-Jeunes,Gatineau
142,Parc Moncion,Parc récréatif,45.45331,-75.746283,43 Rue St-Onge,Gatineau
143,Parc de la Guadeloupe,Parc récréatif,45.455139,-75.752662,14 Rue Thérien,Gatineau
144,Parc des Ormes,Parc récréatif,45.458458,-75.763748,32 Rue des Ormes,Gatineau
145,Parc Décosse,Parc récréatif,45.462009,-75.767151,15 Rue Décosse,Gatineau
146,Parc des Spiritains,Autre parc,45.496813,-75.755502,10 Rue des Spiritains,Gatineau
147,Parc Maisonneuve,Autre parc,45.469017,-75.693746,42 Rue de l'Abbé-Desautels,Gatineau
148,Parc Laflèche,Parc récréatif,45.47709,-75.684457,181 Rue de Lausanne,Gatineau
149,Parc Tecumseh,Parc récréatif,45.474958,-75.678576,280 Chemin de la Savane,Gatineau
150,Parc du Spoutnik,Parc récréatif,45.487727,-75.672865,10 Ruelle du Spoutnik,Gatineau
151,Parc Émile-Nelligan,Autre parc,45.480223,-75.694973,100 Rue Nelligan,Gatineau
152,Parc Joseph-H.-Maloney,Parc récréatif,45.505048,-75.635255,548 Rue A.-Gibeault,Gatineau
153,Parc Lauzon,Parc récréatif,45.510387,-75.639015,191 Rue de Castagnier,Gatineau
154,Parc Marlene-Goyet,Parc récréatif,45.501516,-75.601374,102 Rue Marlene-Goyet,Gatineau
155,Parc des Marguerites,Parc récréatif,45.508582,-75.60381,11 Rue des Marguerites,Gatineau
156,Parc des Oiseaux,Parc récréatif,45.50234,-75.576777,528 Rue de la Blanche,Gatineau
157,Parc de Laverdière,Parc récréatif,45.499982,-75.569825,24 Rue de Fréville,Gatineau
158,Parc Williams,Autre parc,45.497016,-75.593868,165 Rue des Sables,Gatineau
159,Parc Bisson,Parc récréatif,45.456161,-75.756092,36(A) Rue Thérien,Gatineau
160,Parc Bisson,Parc récréatif,45.454807,-75.755395,36(A) Rue Thérien,Gatineau
161,Parc des Trembles,Parc récréatif,45.426456,-75.769272,180 Boulevard des Trembles,Gatineau
162,Parc de l'Érablière,Parc récréatif,45.55928,-75.438875,185 Rue des Samares,Gatineau
163,École du Ruisseau,École primaire,45.558637,-75.439002,175 Rue des Samares,Gatineau
164,Parc de l'Église,Autre parc,45.543911,-75.419507,1 Chemin de Montréal Est,Gatineau
165,Parc des Becs-Scie,Parc récréatif,45.522477,-75.485944,100 Rue des Becs-Scie,Gatineau
166,Parc Mallish,Parc récréatif,45.592947,-75.410737,431 Rue de la Scierie,Gatineau
167,Parc Acres,Autre parc,45.577656,-75.423488,695 Rue Allaire,Gatineau
168,Parc Légion,Parc récréatif,45.589623,-75.410994,481 Rue James,Gatineau
169,M-Ado jeunes (Buckingham),Autre centre de services sociaux,45.56849,-75.423281,948 Rue Georges,Gatineau
170,Parc de Beauchampville,Parc récréatif,45.568941,-75.423839,930 Rue Georges,Gatineau
171,Parc des Lions,Autre parc,45.57927,-75.423585,120 Rue Gérard-Gauthier,Gatineau
172,Parc R.-W.-Scullion,Autre parc,45.593354,-75.418828,265 Avenue de Buckingham,Gatineau
173,Parc du Château-d'Eau,Autre parc,45.589576,-75.420529,60 Rue Fall,Gatineau
174,Centre communautaire de Buckingham,Centre communautaire,45.591076,-75.411174,181 Rue Joseph,Gatineau
175,Parc Pearson,Parc récréatif,45.590267,-75.427996,490 Rue Costello,Gatineau
176,Centre communautaire Ernest-Lattion,Centre communautaire,45.393354,-75.844788,30 Rue Court,Gatineau
177,Parc des Abénaquis,Autre parc,45.415346,-75.805295,50(A) Rue des Hurons,Gatineau
178,École des Rapides-Deschènes Immeuble Saint-Médard,École primaire,45.389085,-75.803704,125 Chemin Vanier,Gatineau
179,Chalet Chénier,Centre communautaire,45.4006,-75.847468,515 Rue Jean-Chénier,Gatineau
180,Chalet des Jardins-Lavigne,Centre communautaire,45.417322,-75.839373,250 Avenue du Bois-Franc,Gatineau
181,Centre communautaire Kenneth-Lloyd,Centre communautaire,45.383731,-75.807578,26 Rue Arthur-Whelan,Gatineau
182,Parc Beaumont,Parc récréatif,45.455317,-75.861476,940 Chemin Cook,Gatineau
183,École intermédiaire Hadley,École secondaire,45.466626,-75.747742,80 Rue Daniel-Johnson,Gatineau
184,Centre communautaire d'Anger,Centre communautaire,45.526071,-75.489217,1100 Rue Yvon-Pichette,Gatineau
185,Centre communautaire de Lucerne-Nord,Centre communautaire,45.458162,-75.878028,674 Rue des Écureuils,Gatineau
186,Chalet de services Plage des Cèdres,Édifice communautaire,45.398105,-75.860042,15 Rue Raoul-Roy,Gatineau
187,Centre communautaire Portugais Les Ami Unis,Centre communautaire,45.42716,-75.72677,42 Rue Hanson,Gatineau
188,Centre de services Hull,Édifice municipal,45.452057,-75.730293,777 Boulevard de la Carrière,Gatineau
189,Centre de plein air du Lac-Leamy,Centre récréatif,45.452635,-75.726929,100 Rue Atawe,Gatineau
190,Parc Louis-Roy,Autre parc,45.384669,-75.831873,5 Rue Louis-Roy,Gatineau
191,Parc des Rapides-Deschênes,Autre parc,45.380357,-75.804912,6 Chemin Vanier,Gatineau
192,Parc des Anciens-Combattants,Autre parc,45.586265,-75.420107,95 Rue Maclaren Ouest,Gatineau
193,Parc Polyvalente le Carrefour,Parc récréatif,45.473536,-75.695631,50 Chemin de la Savane,Gatineau
194,Place D'Or 1,Résidence pour personnes âgées,45.466388,-75.698002,26 Rue Claire,Gatineau
195,Place D'Or 2,Résidence pour personnes âgées,45.466033,-75.698556,25 Rue Guertin,Gatineau
196,Place D'Or 3,Résidence pour personnes âgées,45.466013,-75.697751,20 Rue Claire,Gatineau
197,Résidence Maisonneuve,Résidence pour personnes âgées,45.52472,-75.492543,225 Rue du Progrès,Gatineau
198,Résidence du Bassin,Résidence pour personnes âgées,45.54485,-75.416849,23 Rue Saint-Pierre,Gatineau
199,École du Marais,École primaire,45.426324,-75.806759,200 Rue du Marigot,Gatineau
200,Garderie Ami calin garderie,Service de garderie,45.522211,-75.693735,36 (B) Rue de Lotbinière,Gatineau
201,Parc-o-bus Saint-Luc,Parc-o-bus,45.578392,-75.423765,680 Rue Bergeron,Gatineau
202,Garderie éducative Enfantastique,Service de garderie,45.499258,-75.729118,226 Rue de la Plaine,Gatineau
203,Garderie éducative Enfantastique du Plateau,Service de garderie,45.436306,-75.77544,118 Boulevard du Plateau,Gatineau
204,Garderie Futur Einstein,Service de garderie,45.456376,-75.749747,179 Boulevard Riel,Gatineau
205,Garderie éducative Les petites Coccinelles,Service de garderie,45.426081,-75.733747,39 Boulevard Saint-Joseph,Gatineau
206,Centre de formation professionelle Vision-Avenir,Centre de formation,45.44753,-75.73674,30 Boulevard Saint-Raymond,Gatineau
207,Centre d'éducation des adultes de Hull,Centre de formation,45.450825,-75.744205,185 Rue Archambault,Gatineau
208,Centre de formation Compétences Outaouais,Centre de formation,45.485269,-75.661883,361 Boulevard Maloney Ouest,Gatineau
209,Centre Administration Commerce et Secrétariat de Gatineau,Centre de formation,45.48484,-75.652656,183 Rue Broadway Ouest,Gatineau
210,Place de la Francophonie,Autre parc,45.425315,-75.7239,11 Rue Montcalm,Gatineau
211,École du Nouveau-Monde Édifice Renaud,École primaire,45.471246,-75.689928,25 Rue Saint-Arthur,Gatineau
212,Maison du Vélo,Centre récréatif,45.441898,-75.707568,350 Rue Laurier,Gatineau
213,Parc Chalifoux,Parc récréatif,45.579336,-75.437292,115 Rue Walker,Gatineau
214,Parc-o-bus Rivermead,Parc-o-bus,45.403869,-75.79414,852 Chemin d'Aylmer,Gatineau
215,Parc-o-bus Centre Robert-Guertin,Parc-o-bus,45.434802,-75.722999,125 Rue de Carillon,Gatineau
216,Parc-o-bus Georges/Route 148,Parc-o-bus,45.542337,-75.431293,Rue Georges,Gatineau
217,Parc-o-bus De l'Encan,Parc-o-bus,45.553692,-75.436069,110 Rue Georges,Gatineau
218,Réservoir Main,Réservoir d'eau potable,45.500199,-75.653947,611 Rue Main,Gatineau
219,Poste communautaire des Promenades,Police municipale,45.475632,-75.697857,1100 Boulevard Maloney Ouest,Gatineau
220,Bibliothèque Manise-Morin,Bibliothèque,45.543919,-75.415683,36 Chemin de Montréal Est,Gatineau
221,Ateliers municipaux Saint-Albert,Atelier et garage municipaux,45.547445,-75.413649,1 Rue Saint-Albert,Gatineau
222,Entrepôt Cousineau,Édifice municipal,45.438291,-75.730107,5 Rue Émile-Bond,Gatineau
223,Entrepôt Vanier,Édifice municipal,45.40088,-75.807434,625 Chemin d'Aylmer,Gatineau
224,Centre communautaire Bisson,Centre communautaire,45.455421,-75.755549,36(A) Rue Thérien,Gatineau
225,Centre communautaire Desjardins,Centre communautaire,45.443342,-75.715581,1 Rue Goyette,Gatineau
226,Centre de formation générale adulte La Cité,Centre de formation,45.54577,-75.416502,50 Rue des Servantes,Gatineau
227,Centre Asticou,Centre de formation,45.452552,-75.765023,241 Boulevard de la Cité-des-Jeunes,Gatineau
228,Centre Nouvel-Horizon,Centre de formation,45.4612,-75.696139,100 Rue de la Baie,Gatineau
229,Port de Plaisance d'Aylmer,Marina,45.395133,-75.858171,1 Rue Principale,Gatineau
230,Port de Plaisance Kitchissipi,Marina,45.476727,-75.639857,5 Rue Sanscartier,Gatineau
231,Chalet Lakeview,Centre communautaire,45.391723,-75.799958,39 Promenade Crescent,Gatineau
232,Galerie Montcalm,Galerie d'art,45.427559,-75.710995,25 Rue Laurier,Gatineau
233,Résidence Du Portage,Résidence pour personnes âgées,45.437578,-75.709356,310 Rue de Notre-Dame-de-l'Île,Gatineau
234,Les Habitations Sanscartiers,Résidence pour personnes âgées,45.47997,-75.642702,94 Rue Saint-Denis,Gatineau
235,Résidence Manoir Gatineau,Résidence pour personnes âgées,45.44548,-75.74989,100 Boulevard de la Cité-des-Jeunes,Gatineau
236,Résidence et Château de l'Ile,Résidence pour personnes âgées,45.433568,-75.722429,223 Rue Saint-Rédempteur,Gatineau
237,Résidence Villa des Brises,Résidence pour personnes âgées,45.429348,-75.716911,79 Rue Frontenac,Gatineau
238,Logements Jean-Marie Séguin,Résidence pour personnes âgées,45.4364,-75.719242,40 Boulevard Sacré-Coeur,Gatineau
239,Maison Mgr. Paul-Émile Charbonneau,Résidence pour personnes âgées,45.435968,-75.719095,50 Boulevard Sacré-Coeur,Gatineau
240,Quai des Artistes,Marina,45.456907,-75.699353,804 Rue Jacques-Cartier,Gatineau
241,Les Galeries de Buckingham,Centre commercial,45.57594,-75.408754,999 Rue Dollard,Gatineau
242,Marché Larose,Centre commercial,45.554267,-75.434896,110 Rue Georges,Gatineau
243,Plaza Gatineau,Centre commercial,45.48528,-75.641887,381 Boulevard Maloney Est,Gatineau
244,Les Galeries de Hull,Centre commercial,45.441346,-75.731899,320 Boulevard Saint-Joseph,Gatineau
245,École internationale du Village Immeuble Saint-Paul,École primaire,45.398193,-75.849796,45 Chemin Eardley,Gatineau
246,École Aux Quatre-Vents,École primaire,45.536374,-75.484399,1115 Rue de Neuville,Gatineau
247,Centre Jeunesse d'Aylmer,Édifice communautaire,45.392502,-75.843845,92 Rue du Patrimoine,Gatineau
248,Centre culturel du Vieux-Aylmer,Centre culturel,45.394537,-75.843931,120 Rue Principale,Gatineau
249,Parc Commémoratif,Autre parc,45.395396,-75.844049,121 Rue Principale,Gatineau
250,Parc Broad,Parc récréatif,45.398657,-75.843539,140 Rue Brook,Gatineau
251,Parc Chénier,Parc récréatif,45.401119,-75.847494,515 Rue Jean-Chénier,Gatineau
252,Parc des Trois-Portages,Parc récréatif,45.407931,-75.84652,170 Rue Broad,Gatineau
253,Parc Mulligan,Parc récréatif,45.407998,-75.851034,30 Rue Mulligan,Gatineau
254,Parc Bourgeau,Parc récréatif,45.404448,-75.850613,221 Rue Bourgeau Sud,Gatineau
255,Parc Lattion,Parc récréatif,45.405962,-75.872275,201 Chemin Lattion,Gatineau
256,Usine de filtration Secteur Aylmer,Usine de traitement des eaux,45.3966,-75.858256,1 Rue Raoul-Roy,Gatineau
257,Auberge Symmes,Centre culturel,45.394603,-75.85492,1 Rue Front,Gatineau
258,Parc du Lac-Beauchamp,Parc récréatif,45.488908,-75.618174,741 Boulevard Maloney Est,Gatineau
259,Parc du Lac-Beauchamp,Parc récréatif,45.494441,-75.618354,741 Boulevard Maloney Est,Gatineau
260,Corridor des ruisseaux Moore,Autre parc,45.435572,-75.78584,Boulevard d'Europe,Gatineau
261,Parc du Lac-des-Fées,Autre parc,45.441296,-75.753162,387 Rue Gamelin,Gatineau
262,Corridor Philemon-Wright,Autre parc,45.4693,-75.754563,60 Rue Charles-Albanel,Gatineau
263,Corridor du Ruisseau-des-Fées,Autre parc,45.439664,-75.783787,Rue de l'Atmosphère,Gatineau
264,Parc du Plateau,Autre parc,45.439199,-75.782659,155 Rue de l'Atmosphère,Gatineau
265,Réservoir Gamelin,Réservoir d'eau potable,45.443188,-75.749969,260 Rue Gamelin,Gatineau
266,Station Labrosse,Station Rapibus,45.490793,-75.642555,351 Boulevard Labrosse,Gatineau
267,Station Gouin,Station Rapibus,45.486218,-75.66189,356 Rue Gouin,Gatineau
268,Station de la Gappe,Station Rapibus,45.469494,-75.71629,119 Boulevard de la Gappe,Gatineau
269,Station les Promenades,Station Rapibus,45.478105,-75.69723,2 Rue de l'Alliance,Gatineau
270,École Internationale du Mont-Bleu,École primaire,45.457876,-75.755951,45 Rue Boucher,Gatineau
271,École du Parc-de-la-Montagne,École primaire,45.450427,-75.747729,15 Rue Doucet,Gatineau
272,Bibliothèque Aurélien-Doucet,Bibliothèque,45.460289,-75.766708,207 Boulevard du Mont-Bleu,Gatineau
273,École la Source,École primaire,45.487061,-75.704271,22 Rue de l'Acadie,Gatineau
274,École le Tremplin Édifice Le Coteau,École primaire,45.470847,-75.708835,31 Rue de l'Abbé-Ginguet,Gatineau
275,École du Nouveau-Monde Édifice Saint-Rosaire,École primaire,45.471739,-75.688789,9 Rue Sainte-Yvonne,Gatineau
276,École de l'Escalade,École primaire,45.505859,-75.635896,605 Rue Davidson Est,Gatineau
277,CPE Marie-Soleil,Service de garderie,45.503425,-75.651207,185 Rue P.-Labine,Gatineau
278,École de l'Odyssée Édifice Jean-XXII,École primaire,45.493857,-75.653637,180 Rue Magnus Ouest,Gatineau
279,École de l'Odyssée Édifice Saint-René-Goupil,École primaire,45.492409,-75.653707,179 Boulevard Saint-René Ouest,Gatineau
280,École Carle,École primaire,45.488357,-75.663199,306 Rue Jacques-Buteux,Gatineau
281,École des Trois-Saisons Édifice Saint-Pie X,École primaire,45.486222,-75.649357,114 Rue de la Reine-Élisabeth Est,Gatineau
282,Usine de filtration Secteur Gatineau,Usine de traitement des eaux,45.475767,-75.666538,437 Rue Saint-Louis,Gatineau
283,Édifice John-R Luck,Édifice municipal,45.483989,-75.645674,280 Boulevard Maloney Est,Gatineau
284,Centre communautaire de la Riviera,Centre communautaire,45.470267,-75.724063,12 Rue de Picardie,Gatineau
285,Centre communautaire Gérard-Pezzani,Centre communautaire,45.4744,-75.725905,22 Rue d'Auvergne,Gatineau
286,Ateliers municipaux Eugène-Beaudoin,Atelier et garage municipaux,45.492561,-75.636966,476 Boulevard Saint-René Est,Gatineau
287,Centre communautaire Le Baron,Centre communautaire,45.484277,-75.710749,104 Rue du Barry,Gatineau
288,Parc de la Côte-des-Neiges,Parc récréatif,45.50176,-75.699834,187 Rue Louis-Colin,Gatineau
289,Parc de l'Hôpital,Autre parc,45.494821,-75.693588,217 Rue Jules-Bordet,Gatineau
290,Parc des Vendanges,Parc récréatif,45.500962,-75.67355,72 Rue de Saint-Émilion,Gatineau
291,Parc de Boisbriand,Parc récréatif,45.507951,-75.656819,80 Rue de Boisbriand,Gatineau
292,Parc D'Aoust,Autre parc,45.502854,-75.655543,15 Rue D'Aoust,Gatineau
293,Parc de Lotbinière,Autre parc,45.520577,-75.695575,24 Rue de Terrebonne,Gatineau
294,Parc Victoria,Parc récréatif,45.486757,-75.662071,328 Rue de la Reine-Victoria,Gatineau
295,Parc Bélisle,Parc récréatif,45.486172,-75.656168,255 Rue Broadway Ouest,Gatineau
296,Parc Broadway,Parc récréatif,45.485682,-75.652703,182 Rue de la Reine-Élisabeth Ouest,Gatineau
297,Parc de la Reine-Élisabeth,Parc récréatif,45.485726,-75.6492,122 Rue de la Reine-Élisabeth Est,Gatineau
298,Parc Lavictoire,Autre parc,45.480412,-75.647286,95 Rue East,Gatineau
299,Parc Hétu,Parc récréatif,45.489434,-75.654943,333 Rue Hétu,Gatineau
300,Parc Hilltop,Autre parc,45.49935,-75.658139,140 Rue du Versant-Nord,Gatineau
301,Parc Fernand-Béland,Parc récréatif,45.501517,-75.647533,268 Rue F.-Béland,Gatineau
302,Parc de Mingan,Parc récréatif,45.508527,-75.648131,99 Rue de Mingan,Gatineau
303,Parc du Voilier,Parc récréatif,45.500113,-75.562401,67 Rue du Voilier,Gatineau
304,Aéroport Exécutif Gatineau-Ottawa,Aéroport,45.518642,-75.561024,1717 Rue Arthur-Fecteau,Gatineau
305,Parc de la Colline,Autre parc,45.495123,-75.646941,231 Rue Magnus Est,Gatineau
306,Parc des Noisetiers,Autre parc,45.42854,-75.761378,241 Boulevard Saint-Raymond,Gatineau
307,Parc des Lutins,Autre parc,45.444245,-75.756352,21 Rue des Lutins,Gatineau
308,Parc Jacques-Cartier Nord,Autre parc,45.440808,-75.706519,350 Rue Laurier,Gatineau
309,Parc Dupuis,Parc récréatif,45.435215,-75.71827,50 Rue Isidore-Ostiguy,Gatineau
310,Parc Jean-Paul-Sabourin,Autre parc,45.469556,-75.742843,70 Rue Jean-Proulx,Gatineau
311,Parc Raymond-Madore,Parc récréatif,45.506113,-75.606619,160 Rue des Fleurs,Gatineau
312,Parc Généreux,Parc récréatif,45.493078,-75.670201,436 Rue Généreux,Gatineau
313,Centre d'hébergement Vallée-de-la-Lièvre,C.H.S.L.D.,45.580317,-75.422972,111 Rue Gérard-Gauthier,Gatineau
314,Caserne 8 Cadieux-Laflamme,Incendie,45.572217,-75.412702,850 Avenue de Buckingham,Gatineau
315,École des Tournesols,École primaire,45.411054,-75.858435,45 Rue de la Fabrique,Gatineau
316,Relais plein air du parc de la Gatineau,Centre récréatif,45.46232,-75.774298,397 Boulevard de la Cité-des-Jeunes,Gatineau
317,La Maison de la famille Vallée-de-la-Lièvre,Autre centre de services sociaux,45.591958,-75.417889,321 Avenue de Buckingham,Gatineau
318,Maison d'accueil Mutchmore,Autre centre de services sociaux,45.454813,-75.73771,142 Rue Mutchmore,Gatineau
319,Commission scolaire Western Quebec,Commission scolaire,45.42152,-75.805883,15 Rue Katimavik,Gatineau
320,CPE Bébéjou (Sillery),Service de garderie,45.475464,-75.709454,35 Rue de Sillery,Gatineau
321,Parc des Draveurs,Parc récréatif,45.474915,-75.710161,205 Boulevard de la Gappe,Gatineau
322,M-Ado jeunes,Autre centre de services sociaux,45.474293,-75.725846,22 Rue d'Auvergne,Gatineau
323,Parc du Côteau,Parc récréatif,45.470437,-75.706898,60 Rue Louis-Riel,Gatineau
324,Association récréative de Templeton,Centre récréatif,45.491821,-75.605597,13 Rue du Curé-Labelle,Gatineau
325,Casino du Lac-Leamy,Édifice provincial,45.446136,-75.724975,5 Boulevard du Casino,Gatineau
326,Théâtre IMAX,Cinéma,45.429282,-75.709682,100 Rue Laurier,Gatineau
327,Parc-o-bus Saint-Dominique,Parc-o-bus,45.419869,-75.753832,495 Boulevard Alexandre-Taché,Gatineau
328,CPE Aux Trois Pommes (Labelle),Service de garderie,45.433009,-75.741187,30 Rue Labelle,Gatineau
329,Piscine Desjardins,Piscine,45.443158,-75.715801,1 Rue Goyette,Gatineau
330,Parc de la Rosée,Parc récréatif,45.438618,-75.78868,15 Rue de la Rosée,Gatineau
331,Parc-o-bus Galeries Aylmer,Parc-o-bus,45.398425,-75.835118,420 Boulevard Wilfrid-Lavigne,Gatineau
332,Place Aubry,Aménagement public,45.426941,-75.715544,Rue Aubry,Gatineau
333,Garderie Petits Créatifs,Service de garderie,45.409966,-75.853257,30 Rue du Vison,Gatineau
334,CPE La Grande Envolée (Buckingham),Service de garderie,45.545501,-75.412601,75 Chemin de Montréal Est,Gatineau
335,Garderie Au Jardin des Petits Amis,Service de garderie,45.461179,-75.750757,2 Rue du Père-Béland,Gatineau
336,Parc Moussette,Parc récréatif,45.419645,-75.749612,361 Boulevard de Lucerne,Gatineau
337,Parc de Lucerne,Parc récréatif,45.463856,-75.720793,33 Rue Olida,Gatineau
338,"Centre d'éducation des adultes des Portages de-l'outaouais, Centre L'Arrimage",Centre de formation,45.399811,-75.835209,450 Rue LeGuerrier,Gatineau
339,Centre de formation professionelle de l'Outatouais,Centre de formation,45.451615,-75.765004,249 Boulevard de la Cité-des-Jeunes,Gatineau
340,"Centre d'éducation des adultes des Portages de-l'outaouais,Centre La Génération",Centre de formation,45.431626,-75.739205,35 Rue Davies,Gatineau
341,CPE Les Petits Fripons (des Bouleaux),Service de garderie,45.55793,-75.440048,375 Rue des Bouleaux,Gatineau
342,Garderie éducative les ptits coeurs de lorrain,Service de garderie,45.495235,-75.607276,106 Boulevard Lorrain,Gatineau
343,CPE Alakazou (Joseph-Demontigny),Service de garderie,45.495249,-75.669231,454 Rue Joseph-Demontigny,Gatineau
344,CPE La Ciboulette,Service de garderie,45.482241,-75.650482,155 Rue Vianney,Gatineau
345,CPE La Jonglerie (Cheval-Blanc),Service de garderie,45.498686,-75.581314,479 Avenue du Cheval-Blanc,Gatineau
346,Parc Martin-Perrier,Parc récréatif,45.407552,-75.83747,578 Rue Martin-Perrier Nord,Gatineau
347,Parc du Vieux-Verger,Parc récréatif,45.404557,-75.835682,510 Rue du Caveau,Gatineau
348,Parc Tibérius,Parc récréatif,45.395332,-75.852114,12 Rue Tiberius,Gatineau
349,Parc des Cèdres,Parc récréatif,45.399238,-75.860458,15 Rue Raoul-Roy,Gatineau
350,Cégep Heritage College,Collège,45.455248,-75.764822,325 Boulevard de la Cité-des-Jeunes,Gatineau
351,Cégep de l'Outaouais Campus Gabrielle-Roy,Collège,45.459303,-75.769209,333 Boulevard de la Cité-des-Jeunes,Gatineau
352,Parc de la Riviera,Parc récréatif,45.474289,-75.724539,22 Rue d'Auvergne,Gatineau
353,École Côte-du-Nord,École primaire,45.461428,-75.762579,15 Rue Des Groseilliers,Gatineau
354,Parc des Chevaliers,Autre parc,45.515181,-75.737653,94 Rue de Fleurimont,Gatineau
355,Parc Saint-René,Parc récréatif,45.492022,-75.64672,238 Boulevard Saint-René Est,Gatineau
356,Parc Queen,Autre parc,45.413817,-75.888837,1145 Chemin Queen's Park,Gatineau
357,Résidences Wilfrid-Lavigne 1,"Résidence pour personnes âgées(Type ""Familiale"")",45.39829,-75.838163,433 Boulevard Wilfrid-Lavigne,Gatineau
358,Centre d'hébergement Renaissance,C.H.S.L.D.,45.39923,-75.838422,445 Boulevard Wilfrid-Lavigne,Gatineau
359,Place Lavigne,Centre commercial,45.398702,-75.836491,420 Boulevard Wilfrid-Lavigne,Gatineau
360,Église Aylmer united,Lieu de culte,45.395028,-75.838782,164 Rue Principale,Gatineau
361,Église Christ church Aylmer,Lieu de culte,45.396271,-75.841369,101 Rue Symmes,Gatineau
362,Église Saint-Mark the evangelist,Lieu de culte,45.394858,-75.839749,160 Rue Principale,Gatineau
363,Église Saint-Andrew,Lieu de culte,45.395838,-75.845364,1 Chemin Eardley,Gatineau
364,Église L'Ange-Gardien,Lieu de culte,45.524536,-75.491823,255 Rue du Progrès,Gatineau
365,Église Notre-Dame-des-neiges,Lieu de culte,45.544474,-75.419281,3 Rue Donat-Saint-Amour,Gatineau
366,Centre communautaire Marengère,Centre communautaire,45.459512,-75.702238,5 Rue Marengère,Gatineau
367,Théâtre de l'Île,Salle de spectacle,45.425613,-75.724788,1 Rue Wellington,Gatineau
368,Parc du Ruisseau,Parc récréatif,45.520593,-75.491882,132(A) Rue du Ruisseau,Gatineau
369,Parc de l'Écorce,Parc récréatif,45.559392,-75.430077,95 Rue de l'Écorce,Gatineau
370,Terrasse de la Chaudière - Édifice Central,Immeuble à bureaux,45.425169,-75.721837,1 Promenade du Portage,Gatineau
371,Pont Alonzo-Wright,Pont,45.487222,-75.748566,1 Avenue du Pont,Gatineau
372,Pont Cartier-Macdonald,Pont,45.437093,-75.703305,2 Autoroute de la Gatineau,Gatineau
373,Pont Alexandra,Pont,45.430333,-75.704854,2 Boulevard des Allumettières,Gatineau
374,Pont du Portage,Pont,45.422688,-75.713766,2 Boulevard Maisonneuve,Gatineau
375,Pont des Chaudières,Pont,45.421678,-75.718672,2 Rue Eddy,Gatineau
376,StarCité Hull,Cinéma,45.43381,-75.775281,115 Boulevard du Plateau,Gatineau
377,Parc Nobert,Parc récréatif,45.502312,-75.680245,56 Rue Laflamme,Gatineau
378,Maison Charron,Édifice fédéral,45.434208,-75.707566,164 Rue Laurier,Gatineau
379,Maison Gilmour Hughson,Édifice fédéral,45.441842,-75.707583,350 Rue Laurier,Gatineau
380,Pavillon du Lac-Leamy,Centre récréatif,45.45179,-75.719434,100 Promenade du Lac-Leamy,Gatineau
381,CPE Au Pays des Anges,Service de garderie,45.448436,-75.736594,11 Rue Roy,Gatineau
382,Garderie Centre d'Éveil devenir Grand,Service de garderie,45.52226,-75.693841,36 Rue de Lotbinière,Gatineau
383,Garderie éducative les ptits coeurs de Mont-Bleu,Service de garderie,45.462578,-75.746161,34 Boulevard du Mont-Bleu,Gatineau
384,Garderie Imagine,Service de garderie,45.431327,-75.713959,89 Rue Dollard-Des Ormeaux,Gatineau
385,Caserne 1 Roland-Guertin,Incendie,45.397593,-75.83841,425 Boulevard Wilfrid-Lavigne,Gatineau
386,Aréna Paul-et-Isabelle-Duchesnay,Aréna,45.392951,-75.843865,92 Rue du Patrimoine,Gatineau
387,Ateliers municipaux de Buckingham,Atelier et garage municipaux,45.594991,-75.417603,250 Rue Charles,Gatineau
388,Salle La Basoche,Salle de spectacle,45.394509,-75.843806,120 Rue Principale,Gatineau
389,Réservoir de la Côte d'Azur,Réservoir d'eau potable,45.49191,-75.738545,459(A) Rue de Cannes,Gatineau
390,Entrepôt Montcalm,Édifice municipal,45.429694,-75.728274,185 Rue Montcalm,Gatineau
391,Commission scolaire au Coeur-des Vallées,Commission scolaire,45.587027,-75.400761,582 Rue Maclaren Est,Gatineau
392,Centre de formation Relais de la Lièvre-Seigneurie,Centre de formation,45.58625,-75.400102,584 Rue Maclaren Est,Gatineau
393,Centre aquatique Lucien-Houle,Piscine,45.58789,-75.40098,580(A) Rue Maclaren Est,Gatineau
394,Centre de retraite Temple Pastures,Lieu de culte,45.549414,-75.662647,286 Chemin Fogarty,Gatineau
395,École de Touraine Édifice Riviera,École primaire,45.473672,-75.723132,59 Rue de Provence,Gatineau
396,École de L'Oiseau-Bleu,École primaire,45.485322,-75.694676,184 Rue Nelligan,Gatineau
397,Centre d'hébergement La Pietà,C.H.S.L.D.,45.439331,-75.70879,273 Rue Laurier,Gatineau
398,Parc Larocque,Parc récréatif,45.436163,-75.736392,2 Rue Fortier,Gatineau
399,Piscine Larocque,Piscine,45.436458,-75.736626,2 Rue Fortier,Gatineau
400,Piscine Laurent-Groulx,Piscine,45.446016,-75.739076,1 Rue Lévesque,Gatineau
401,Maison-Wright-Scott,Édifice municipal,45.424806,-75.725635,28 Boulevard Alexandre-Taché,Gatineau
402,Atelier Leduc,Édifice municipal,45.431518,-75.718271,160 Rue Leduc,Gatineau
403,Pont Champlain,Pont,45.411363,-75.762259,2 Place Samuel-De Champlain,Gatineau
404,Pont des Draveurs,Pont,45.457147,-75.716087,1500 Rue Saint-Louis,Gatineau
405,Pont Lady-Aberdeen,Pont,45.456858,-75.701222,1 Boulevard Gréber,Gatineau
406,Pont Brady,Pont,45.585952,-75.418751,1 Rue Maclaren Ouest,Gatineau
407,Usine d'épuration des eaux usées (Masson),Usine de traitement des eaux,45.535249,-75.421171,150 Chemin de la Rive,Gatineau
408,Parc-o-bus Gréber/Saint-Louis,Parc-o-bus,45.460489,-75.700323,42 Boulevard Gréber,Gatineau
409,CPE Grande Rivière,Service de garderie,45.392758,-75.831027,44 Rue Elizabeth,Gatineau
410,CPE L'Arche des Petits (Vauquelin),Service de garderie,45.492306,-75.645265,24 Rue de Vauquelin,Gatineau
411,Garderie Les petits Explorateurs,Service de garderie,45.413204,-75.807823,80 Rue des Attikameks,Gatineau
412,Parc de l'Imaginaire,Autre parc,45.395299,-75.855308,9(A) Rue Front,Gatineau
413,Parc Riverain,Autre parc,45.383576,-75.818104,1 Rue Lamoureux,Gatineau
414,Parc Robert-Stewart,Autre parc,45.398196,-75.800627,56 Rue Lynn,Gatineau
415,Parc Antoine-Boucher,Autre parc,45.422526,-75.85745,215 Rue du Raton-Laveur,Gatineau
416,Parc Nadon,Autre parc,45.593501,-75.401132,Chemin Belter,Gatineau
417,Parc de la Ferme-Dalton,Parc récréatif,45.506791,-75.590604,199 Montée Dalton,Gatineau
418,Corridor Beauvallon-Beausoleil,Autre parc,45.488903,-75.729904,19 Rue de Brignoles,Gatineau
419,Parc René-Lévesque,Parc récréatif,45.497381,-75.739112,288 Chemin Lebaudy,Gatineau
420,Parc Louis-Taché,Parc récréatif,45.495641,-75.744472,163 Chemin Lebaudy,Gatineau
421,Corridor de l'Hopital-Côtes des neiges,Autre parc,45.499617,-75.701823,Rue de la Côte-des-Neiges,Gatineau
422,Corridor des Grands-Ravins,Autre parc,45.504625,-75.661758,Rue Davidson Ouest,Gatineau
423,Parc des Bouleaux,Autre parc,45.506382,-75.657388,155 Rue de l'Orée-des-Bois,Gatineau
424,Corridor des Vendanges,Autre parc,45.499874,-75.67174,Rue Nobert,Gatineau
425,Corridor du Ruisseau Desjardins,Autre parc,45.480857,-75.730946,Avenue Gatineau,Gatineau
426,Corridor Laflamme-Nobert,Autre parc,45.500933,-75.681021,Rue Laflamme et Rue Nobert,Gatineau
427,Corridor Père-Bériault,Autre parc,45.490778,-75.743945,Rue du Père-Bériault,Gatineau
428,Parc Lamarche,Parc récréatif,45.497775,-75.719631,13 Rue Stéphane,Gatineau
429,Parc en Mémoire-d'Elles,Parc récréatif,45.458593,-75.700203,10 Rue Bruyère,Gatineau
430,Parc des Résineux,Autre parc,45.509854,-75.583822,36 Rue des Résineux,Gatineau
431,Parc Sanscartier,Parc récréatif,45.478586,-75.640941,5 Rue Sanscartier,Gatineau
432,Parc de la Sucrerie,Autre parc,45.500263,-75.747519,77 Chemin des Érables,Gatineau
433,Parc de l'Arc-en-Ciel,Autre parc,45.442137,-75.788006,81 Rue de l'Arc-en-Ciel,Gatineau
434,Résidence Diane L'Ecuyer,"Résidence pour personnes âgées(Type ""Familiale"")",45.495399,-75.583911,1205 Rue Alexandre,Gatineau
435,Résidence Dion inc,"Résidence pour personnes âgées(Type ""Familiale"")",45.468929,-75.724873,1799 Rue Saint-Louis,Gatineau
436,Résidence Ma Maison,"Résidence pour personnes âgées(Type ""Familiale"")",45.451006,-75.740388,3 Rue Boulay,Gatineau
437,Église baptiste évangélique de la Lièvre,Lieu de culte,45.586465,-75.421803,117 Rue Maclaren Ouest,Gatineau
438,Église Our Lady of Victory,Lieu de culte,45.588034,-75.415053,490 Rue Charles,Gatineau
439,Église Saint-Andrew,Lieu de culte,45.584904,-75.415197,570 Avenue de Buckingham,Gatineau
440,Église Saint-Grégoire-de-Nazianze,Lieu de culte,45.587538,-75.413395,150 Rue Maclaren Est,Gatineau
441,Église Notre-Dame-de-Fatima,Lieu de culte,45.427228,-75.726833,42 Rue Hanson,Gatineau
442,Église Notre-Dame-de-l'Ile,Lieu de culte,45.437605,-75.714378,115 Boulevard Sacré-Coeur,Gatineau
443,Église Notre-Dame-de-la-Guadeloupe,Lieu de culte,45.45163,-75.748155,30 Rue St-Onge,Gatineau
444,Église Notre-Dame-de-Lorette,Lieu de culte,45.419712,-75.744498,45 Rue Prévost,Gatineau
445,Église Oméga,Lieu de culte,45.4258,-75.726331,20 Rue Hanson,Gatineau
446,Église Saint-Esprit,Lieu de culte,45.427721,-75.723714,13 Rue Sainte-Bernadette,Gatineau
447,Église Saint-James,Lieu de culte,45.424787,-75.7188,60 Promenade du Portage,Gatineau
448,Église Orthodoxe Roumaine de Gatineau,Lieu de culte,45.428449,-75.735559,45 Rue Saint-Jean-Bosco,Gatineau
449,Our Lady of the Annunciation,Lieu de culte,45.451828,-75.744575,189 Rue Archambault,Gatineau
450,Église Saint-Pierre-Chanel,Lieu de culte,45.46186,-75.762441,17 Rue Des Groseilliers,Gatineau
451,Église Saint-Médard,Lieu de culte,45.385394,-75.806523,23 Rue Saint-Médard,Gatineau
452,Église Le Chemin,Lieu de culte,45.444228,-75.799676,480 Rue de Vernon,Gatineau
453,Parc de la Gatineau,Autre parc,45.451614,-75.774861,Promenade de la Gatineau,Gatineau
454,Parc de Cherbourg,Autre parc,45.386891,-75.806034,10 Rue de Cherbourg,Gatineau
455,Parc de Sainte-Maxime,Autre parc,45.487002,-75.721422,280 Rue de Sainte-Maxime,Gatineau
456,Parc-école Jean-De Brébeuf,Autres lieux d'assemblée pour les loisirs,45.420576,-75.74931,370 Boulevard de Lucerne,Gatineau
457,Parc-école du Lac-des-Fées,Parc récréatif,45.438805,-75.745223,165 Rue Bisson,Gatineau
458,Parc des Servantes,Parc récréatif,45.54565,-75.417223,46 Rue des Servantes,Gatineau
459,Parc Wellington,Autre parc,45.426055,-75.718739,120 Rue Wellington,Gatineau
460,Parc Ravin-Bleu,Autre parc,45.465994,-75.769188,96 Rue du Ravin-Bleu,Gatineau
461,Parc Pharand,Autre parc,45.424487,-75.739317,11 Rue Pharand,Gatineau
462,Parc Morley-Walters,Autre parc,45.406368,-75.80292,55 Chemin Morley-Walters,Gatineau
463,Église Alliance Chrétienne et Missionnaire,Lieu de culte,45.509141,-75.542951,1907 Boulevard Maloney Est,Gatineau
464,Garderie Excelsiori Daycare,Service de garderie,45.442856,-75.734385,23 Rue Bourque,Gatineau
465,Garderie La Maisonnette Bleue,Service de garderie,45.443601,-75.74237,198 Rue Gamelin,Gatineau
466,Garderie Nos p'tits coeurs,Service de garderie,45.484618,-75.648509,97 Rue Broadway Est,Gatineau
467,Garderie Les petits Sourires,Service de garderie,45.44665,-75.750447,162 Boulevard Saint-Raymond,Gatineau
468,Édifice Jean-René-Monette,Édifice communautaire,45.479599,-75.648241,89 Rue Jean-René-Monette,Gatineau
469,Centre communautaire Saint-Jean-Bosco,Centre communautaire,45.428695,-75.7356,100 Rue Scott,Gatineau
470,M-Ado jeunes (Masson),Autre centre de services sociaux,45.546454,-75.406137,106 Chemin de Montréal Est,Gatineau
471,C.L.S.C de Gatineau (avenue Gatineau),C.L.S.C.,45.480103,-75.72304,80 Avenue Gatineau,Gatineau
472,C.L.S.C de Gatineau (du Mont-Bleu),C.L.S.C.,45.460137,-75.76648,207 Boulevard du Mont-Bleu,Gatineau
473,C.L.S.C de Gatineau (Saint-Raymond),C.L.S.C.,45.447175,-75.742227,92 Boulevard Saint-Raymond,Gatineau
474,C.L.S.C de Gatineau (Alexandre-Taché),C.L.S.C.,45.421806,-75.746559,400 Boulevard Alexandre-Taché,Gatineau
475,C.L.S.C de Gatineau (Saint-Rédempteur),C.L.S.C.,45.42701,-75.72171,85 Rue Saint-Rédempteur,Gatineau
476,Maison-Scott,Monument et site historique,45.444402,-75.740413,100 Rue Gamelin,Gatineau
477,Fondation Québécoise du Cancer,Autres services médicaux et de santé,45.494886,-75.69068,555 Boulevard de l'Hôpital,Gatineau
478,CPE La Jonglerie (Hôpital),Service de garderie,45.494862,-75.689844,551 Boulevard de l'Hôpital,Gatineau
479,Place du Centre,Centre commercial,45.426708,-75.714546,200 Promenade du Portage,Gatineau
480,Centre L'Escale,Centre de formation,45.481986,-75.710003,85 Rue Du Barry,Gatineau
481,Entrepôt Buckingham,Édifice municipal,45.590344,-75.417486,389 Avenue de Buckingham,Gatineau
482,Garderie Les petits Shakits,Service de garderie,45.410408,-75.808575,350 Chemin Vanier,Gatineau
483,Garderie Les Racines de vie Montessori,Service de garderie,45.442968,-75.745114,225 Rue Gamelin,Gatineau
484,Garderie La pré-maternelle du village,Service de garderie,45.400735,-75.852689,70 Chemin Eardley,Gatineau
485,Parc-école de la Traversée,Parc récréatif,45.486652,-75.630355,257 Rue Luck,Gatineau
486,Parc de Trigance,Autre parc,45.492457,-75.731395,36 Rue de Trigance,Gatineau
487,Parc du Grand-Ruisseau,Parc récréatif,45.508881,-75.627159,116 Rue du Grand-Ruisseau,Gatineau
488,Parc Saint-Bernardin,Autre parc,45.442764,-75.736016,51 Rue Bourque,Gatineau
489,Corridor des Grands-Ravins,Autre parc,45.506743,-75.667654,Rue Davidson Ouest,Gatineau
490,Parc des Deux-Ravins,Autre parc,45.507452,-75.663632,81 Rue Nobert,Gatineau
491,Parc de la Baie,Autre parc,45.468394,-75.682236,988 Rue Saint-Louis,Gatineau
492,Centre communautaire Front,Centre communautaire,45.405215,-75.855041,175 Rue Front,Gatineau
493,Parc Front,Parc récréatif,45.405108,-75.85629,175 Rue Front,Gatineau
494,Centre sportif de Gatineau,Centre sportif,45.483098,-75.682297,850 Boulevard de la Gappe,Gatineau
495,Centre de services Gatineau,Édifice municipal,45.481726,-75.687011,144 Boulevard de l'Hôpital,Gatineau
496,Édifice Pierre-Papin,Édifice municipal,45.481756,-75.687342,144 Boulevard de l'Hôpital,Gatineau
497,Résidence Church,"Résidence pour personnes âgées(Type ""Familiale"")",45.585758,-75.408327,195 Rue Church,Gatineau
498,Garderie Académie Trivium,Service de garderie,45.479607,-75.64748,88 Rue Jean-René-Monette,Gatineau
499,CPE Petits Pieds,Service de garderie,45.504585,-75.590923,1174 Boulevard Saint-René Est,Gatineau
500,Garderie École Montessori de Gatineau,Service de garderie,45.474781,-75.728944,1915 Rue Saint-Louis,Gatineau
501,Garderie École Montessori de l'Outaouais,Service de garderie,45.396213,-75.838966,161 Rue Principale,Gatineau
502,Garderie de la Marina,Service de garderie,45.394347,-75.850495,44 Rue Principale,Gatineau
503,Garderie Planète kids(Gatineau),Service de garderie,45.485216,-75.639551,405 Boulevard Maloney Est,Gatineau
504,Garderie Le Paradis des amis,Service de garderie,45.423156,-75.804133,77 Rue de la Boussole,Gatineau
505,Garderie Pouponnière Rêve d'enfance,Service de garderie,45.402688,-75.801156,745 Chemin d'Aylmer,Gatineau
506,Garderie Le Royaume du petit,Service de garderie,45.569571,-75.424419,916 Rue Georges,Gatineau
507,Garderie Petit Jacob,Service de garderie,45.450029,-75.74489,38 Rue Isabelle,Gatineau
508,Place Wal-Mart,Centre commercial,45.48124,-75.677667,640 Boulevard Maloney Ouest,Gatineau
509,École des Trois-Saisons Édifice Lavictoire,École primaire,45.484758,-75.64874,212 Rue Cedar,Gatineau
510,Centre Administration Commerce et Secrétariat de Gatineau Édifice Raymond,Centre de formation,45.491245,-75.659306,385 Rue Brébeuf,Gatineau
511,La Maison Mathieu-Froment-Savoie,Autres services médicaux et de santé,45.438308,-75.742928,170 Rue Sherbrooke,Gatineau
512,Écocentre de l'Aéroparc,Centre de récupération,45.507836,-75.559157,26 Rue Pierre-Ménard,Gatineau
513,Parc de l'Île,Parc récréatif,45.437465,-75.724251,305 Rue Saint-Rédempteur,Gatineau
514,Corridor des Grands-Jardins,Autre parc,45.508123,-75.759004,Rue de la Pointe-Pelée,Gatineau
515,Pont Noir,Pont,45.463318,-75.724937,1700 Rue Saint-Louis,Gatineau
516,Pont Prince-de-Galles,Pont,45.418427,-75.729614,1495 Boulevard Alexandre-Taché,Gatineau
517,Pont Quevillon,Pont,45.551743,-75.427681,Autoroute de l'Outaouais,Gatineau
518,Garderie Le Jardin des Copains,Service de garderie,45.506718,-75.762293,2947 Rue Saint-Louis,Gatineau
519,Garderie des Jardins,Service de garderie,45.487609,-75.744432,2299 Rue Saint-Louis,Gatineau
520,Église Saint-Paul,Lieu de culte,45.397674,-75.847369,61 Rue du Couvent,Gatineau
521,Caserne 6 James-John-O'Farrell,Incendie,45.493344,-75.641965,325 Boulevard Saint-René Est,Gatineau
522,Marais de Masson,Autres étendues d'eau,45.531031,-75.440233,,Gatineau
523,Marais Trépanier,Autres étendues d'eau,45.555606,-75.354814,,Gatineau
524,Marais des Sarcelles,Autres étendues d'eau,45.524227,-75.423941,,Gatineau
525,Marais de Touraine,Autres étendues d'eau,45.493633,-75.734411,,Gatineau
526,Marais McLaurin,Autres étendues d'eau,45.496378,-75.562378,,Gatineau
527,Marais du Canard Branchu,Autres étendues d'eau,45.380041,-75.807716,,Gatineau
528,Petite rivière Blanche,Rivière et ruisseau,45.505267,-75.520887,,Gatineau
529,Rivière Gatineau,Rivière et ruisseau,45.457982,-75.710532,,Gatineau
530,Rivière du Lièvre,Rivière et ruisseau,45.535029,-75.428468,,Gatineau
531,Rivière des Outaouais,Rivière et ruisseau,45.392076,-75.773275,,Gatineau
532,Lac Deschênes,Lac,45.374052,-75.838312,,Gatineau
533,Lac des Fées,Lac,45.438179,-75.752459,,Gatineau
534,Lac Mulvihill,Lac,45.483655,-75.85517,,Gatineau
535,Lac Pink,Lac,45.46838,-75.808175,,Gatineau
536,Lac Leamy,Lac,45.451499,-75.722276,,Gatineau
537,Lac Beauchamp,Lac,45.490163,-75.621624,,Gatineau
538,Ruisseau Desjardins,Rivière et ruisseau,45.479073,-75.734534,,Gatineau
539,Ruisseau Wabassee,Rivière et ruisseau,45.482171,-75.637253,,Gatineau
540,Ruisseau Burke,Rivière et ruisseau,45.516145,-75.492454,,Gatineau
541,Ruisseau Charbonneau,Rivière et ruisseau,45.517652,-75.523272,,Gatineau
542,Ruisseau Clément,Rivière et ruisseau,45.530895,-75.469506,,Gatineau
543,Ruisseau Joanisse,Rivière et ruisseau,45.533127,-75.453782,,Gatineau
544,Hôpital de jour gériatrique,Centre hospitalier,45.493517,-75.676739,455 Montée Paiement,Gatineau
545,Parc-o-bus de l'Église,Parc-o-bus,45.497829,-75.704887,770 Boulevard Gréber,Gatineau
546,Parc-o-bus Branchaud-Brière,Parc-o-bus,45.498162,-75.642909,499 Boulevard Labrosse,Gatineau
547,École de l'Amérique-Francaise,École primaire,45.436498,-75.81205,125 Boulevard de l'Amérique-Française,Gatineau
548,Hydro-Québec,Service électrique,45.461094,-75.733292,200 Rue Jean-Proulx,Gatineau
549,Ateliers municipaux Edmonton,Atelier et garage municipaux,45.451906,-75.733556,100 Rue d'Edmonton,Gatineau
550,Aréna Beaudry,Aréna,45.494397,-75.756913,23 Rue Saint-Alexandre,Gatineau
551,École Massé,École primaire,45.49396,-75.754233,1 Rue Saint-Alexandre,Gatineau
552,Collège Saint-Alexandre,École secondaire,45.492974,-75.74977,2425 Rue Saint-Louis,Gatineau
553,Aréna Campeau,Aréna,45.497357,-75.592894,165 Rue des Sables,Gatineau
554,École la Sablonnière,École primaire,45.496241,-75.59304,143 Rue des Sables,Gatineau
555,CPE Trois Petits Points (Neuville),Service de garderie,45.536053,-75.483132,1105 Rue de Neuville,Gatineau
556,CPE Les Enfants d'abord,Service de garderie,45.501635,-75.63708,291 Rue de Malartic,Gatineau
557,CPE La Nacelle,Service de garderie,45.460959,-75.719548,1579 Rue Saint-Louis,Gatineau
558,CPE Coup de Pouce inc,Service de garderie,45.480599,-75.69471,110 Rue Nelligan,Gatineau
559,CPE Coop Libelle,Service de garderie,45.460813,-75.768661,355 Boulevard de la Cité-des-Jeunes,Gatineau
560,CPE L'Univers des Petits,Service de garderie,45.422099,-75.740588,325 Boulevard Alexandre-Taché,Gatineau
561,Garderie Unik 2,Service de garderie,45.425354,-75.762026,300 Boulevard Saint-Raymond,Gatineau
562,Garderie Unik,Service de garderie,45.42551,-75.762043,300 Boulevard Saint-Raymond,Gatineau
563,CPE Aux Petits Lurons (Front),Service de garderie,45.403282,-75.855194,115 Rue Front,Gatineau
564,CPE Aux Petits Lurons (Eardley),Service de garderie,45.402826,-75.856122,104 Chemin Eardley,Gatineau
565,CPE La Maison des Petits Castors,Service de garderie,45.41007,-75.794656,30 Chemin Rivermead,Gatineau
566,Parc-o-bus Freeman,Parc-o-bus,45.473327,-75.741066,1163 Boulevard Saint-Joseph,Gatineau
567,Centre sportif Robert-Rochon,Aréna,45.547325,-75.408597,97 Rue de l'Aréna,Gatineau
568,Centre de services de Masson-Angers,Édifice municipal,45.544839,-75.414128,57 Chemin de Montréal Est,Gatineau
569,École Saint-Jean-de-Brébeuf,École primaire,45.543742,-75.416369,32 Chemin de Montréal Est,Gatineau
570,École Monseigneur-Charbonneau,École primaire,45.578441,-75.423082,661 Rue Allaire,Gatineau
571,École primaire Buckingham,École primaire,45.582147,-75.422626,615 Rue Georges,Gatineau
572,Centre sportif de Buckingham,Aréna,45.589066,-75.410852,485 Rue James,Gatineau
573,École Saint-Laurent,École primaire,45.590233,-75.412945,402 Rue Bélanger,Gatineau
574,Centre de services Buckingham,Édifice municipal,45.587188,-75.415722,515 Rue Charles,Gatineau
575,École des Rapides-Deschênes Immeuble Notre-Dame,École primaire,45.388724,-75.804745,113 Chemin Vanier,Gatineau
576,Musée de l'Auberge Symmes,Musée,45.394495,-75.854945,1 Rue Front,Gatineau
577,Ateliers municipaux Eardley,Atelier et garage municipaux,45.39951,-75.849784,44 Chemin Eardley,Gatineau
578,Parc Guertin,Autre parc,45.39249,-75.853189,33 Rue Oscar-Guertin,Gatineau
579,Parc Woods,Parc récréatif,45.390113,-75.84708,81 Rue Woods,Gatineau
580,Parc Aquamarine,Parc récréatif,45.38567,-75.846688,15 Rue du Tamarac,Gatineau
581,Parc Gérald-Millar,Parc récréatif,45.382574,-75.840982,1 Rue Lake,Gatineau
582,Parc du Tourbillon,Parc récréatif,45.386519,-75.841233,39 Rue Lake,Gatineau
583,Résidence de Buckingham s.e.n.c.,"Résidence pour personnes âgées(Type ""Familiale"")",45.589419,-75.404762,512 Rue Brewer,Gatineau
584,Résidence Michel L'Écuyer,"Résidence pour personnes âgées(Type ""Familiale"")",45.520997,-75.501743,1515 Chemin de Montréal Ouest,Gatineau
585,Village Riviera,Résidence pour personnes âgées,45.483825,-75.736445,2199 Rue Saint-Louis,Gatineau
586,Château Symmes,Résidence pour personnes âgées,45.401069,-75.840386,255 Rue North,Gatineau
587,Centre Aydelu,"Association civique, sociale et fraternelle",45.393861,-75.843864,94 Rue du Patrimoine,Gatineau
588,Association Récréative Les Jardins du Château,Autres lieux d'assemblée pour les loisirs,45.420092,-75.759941,100 Rue du Château,Gatineau
589,Centre aquatique Paul-Pelletier,Piscine,45.397047,-75.825233,325 Chemin d'Aylmer,Gatineau
590,Centre Loblaws,Centre commercial,45.397706,-75.823009,375 Chemin d'Aylmer,Gatineau
591,Résidence Chartwell Le Monastère d'Aylmer,Résidence pour personnes âgées,45.396393,-75.839728,161 Rue Principale,Gatineau
592,Parc Elgin,Parc récréatif,45.39362,-75.832819,65(A) Rue Elgin,Gatineau
593,Parc Yvette-Debain Ouest,Autre parc,45.394298,-75.833853,53(A) Rue de la Terrasse,Gatineau
594,Centre communautaire Belmont,Centre communautaire,45.392299,-75.830112,26 Rue Belmont,Gatineau
595,Parc Eastern,Autre parc,45.389918,-75.828998,43 Rue Glenwood,Gatineau
596,Parc Magique,Autre parc,45.389446,-75.835887,64(A) Rue du Claret,Gatineau
597,Parc de Lausanne,Parc récréatif,45.401967,-75.836677,504 Rue de Neuchâtel,Gatineau
598,Parc du Relais,Parc récréatif,45.400842,-75.833727,433 Rue des Caravelles,Gatineau
599,Parc des Paysans,Parc récréatif,45.408458,-75.832501,261 Avenue des Paysans,Gatineau
600,Parc Clétrem,Autre parc,45.416023,-75.846775,60 Rue du Lys,Gatineau
601,Parc des Coquelicots,Parc récréatif,45.414803,-75.842551,25 Rue des Coquelicots,Gatineau
602,Parc des Mineurs,Autre parc,45.476024,-75.786999,1024 Boulevard de la Cité-des-Jeunes,Gatineau
603,Parc du Silex,Autre parc,45.476472,-75.783128,8 Rue du Silex,Gatineau
604,Parc du Gabbro,Parc récréatif,45.480101,-75.790255,79 Rue du Gabbro,Gatineau
605,Parc Jolicoeur,Parc récréatif,45.462614,-75.756523,110 Rue Jolicoeur,Gatineau
606,Parc des Pins,Autre parc,45.462528,-75.75357,61 Rue Lavallée,Gatineau
607,Parc Lanctôt,Parc récréatif,45.459891,-75.749022,61 Rue Lanctôt,Gatineau
608,Parc Riel,Parc récréatif,45.457544,-75.749261,27(A) Avenue du Parc,Gatineau
609,Parc Eugène-Sauvageau,Parc récréatif,45.455681,-75.739147,179 Rue Mutchmore,Gatineau
610,Parc Saint-Jean,Parc récréatif,45.433394,-75.74085,40 Rue Labelle,Gatineau
611,Parc Jean-Dallaire,Autre parc,45.426562,-75.727371,31 Rue Hanson,Gatineau
612,Parc des Chars-de-Combat,Parc récréatif,45.426386,-75.732422,52 Boulevard Saint-Joseph,Gatineau
613,Parc Baker,Autre parc,45.423146,-75.730589,62 Rue Millar,Gatineau
614,Parc Sainte-Thérèse,Parc récréatif,45.423687,-75.748637,116 Rue Sainte-Thérèse,Gatineau
615,Parc du Cosmos,Parc récréatif,45.442193,-75.782608,2 Rue de l'Hémisphère,Gatineau
616,Parc du Méridien,Parc récréatif,45.442715,-75.776081,16 Rue du Méridien,Gatineau
617,Palais des Congrès,Centre de conférence et congrès,45.427075,-75.712831,160 Rue de l'Hôtel-de-Ville,Gatineau
618,Parc Mont-Luc,Parc récréatif,45.49373,-75.718626,14 Rue du Mont-Luc,Gatineau
619,Parc Le Roy,Autre parc,45.497732,-75.747767,81 Rue Le Roy,Gatineau
620,Corridor de la Vigne,Parc récréatif,45.498411,-75.745146,Rue Dumont,Gatineau
621,Parc Achbar,Parc récréatif,45.487189,-75.633507,525 Rue Léveillé,Gatineau
622,Parc Beauvais,Parc récréatif,45.501891,-75.66577,375 Rue Beauvais,Gatineau
623,École du Bois Joli,École primaire,45.505449,-75.591719,1165 Boulevard Saint-René Est,Gatineau
624,Parc du Vallon,Parc récréatif,45.497586,-75.726669,80 Rue de Cannes,Gatineau
625,Parc Louis-Taché,Parc récréatif,45.495413,-75.747647,62 Rue Le Roy,Gatineau
626,CPE de L'Érablière,Service de garderie,45.499625,-75.750391,45 Chemin des Érables,Gatineau
627,Parc Gilbert-Garneau,Parc récréatif,45.464792,-75.70807,80 Rue Moreau,Gatineau
628,Parc-o-bus Pierre-Lafontaine,Parc-o-bus,45.470959,-75.699684,255 Rue Saint-Antoine,Gatineau
629,Parc Pierre-Lafontaine,Parc récréatif,45.471137,-75.69798,251 Rue Saint-Antoine,Gatineau
630,Aréna Stade-Pierre-Lafontaine,Aréna,45.471887,-75.69903,255 Rue Saint-Antoine,Gatineau
631,Parc La Vérendrye,Parc récréatif,45.504561,-75.651152,730 Rue Main,Gatineau
632,Pataugeoire La Vérendrye,Piscine,45.504623,-75.652156,730 Rue Main,Gatineau
633,Parc Pierre-Laporte,Parc récréatif,45.494577,-75.67047,489 Rue Antoine,Gatineau
634,Parc Saint-Gérard,Parc récréatif,45.495097,-75.581079,1259 Boulevard Maloney Est,Gatineau
635,Parc des Grands-Jardins,Autre parc,45.506972,-75.750825,192 Avenue des Grands-Jardins,Gatineau
636,Parc de Roberval,Parc récréatif,45.526417,-75.628505,140 Rue de Roberval,Gatineau
637,Parc Limbour,Parc récréatif,45.494078,-75.755935,23(A) Rue Saint-Alexandre,Gatineau
638,Parc Joseph,Autre parc,45.591405,-75.411524,181 Rue Joseph,Gatineau
639,Parc McAndrew,Parc récréatif,45.582301,-75.409142,170 Rue John F.-Kennedy,Gatineau
640,École Saint-Michel,École primaire,45.586491,-75.413778,146(B) Rue Maclaren Est,Gatineau
641,Place Normand-Racicot,Autre parc,45.484238,-75.648794,193 Boulevard Maloney Est,Gatineau
642,Parc de l'Oiseau-Bleu,Parc récréatif,45.48629,-75.69285,110 Avenue de la Drave,Gatineau
643,Parc Vignan,Autre parc,45.496776,-75.700462,205 Rue Albert-Einstein,Gatineau
644,Parc Berthiaume,Parc récréatif,45.498262,-75.599424,36 Rue Berthiaume,Gatineau
645,Parc George-Étienne-Cartier,Parc récréatif,45.475709,-75.716655,36 Rue de Savoie,Gatineau
646,École de Touraine Édifice George-Étienne Cartier,École primaire,45.476277,-75.717684,30 Rue de Savoie,Gatineau
647,Parc Saint-Rosaire,Parc récréatif,45.470519,-75.688672,52 Rue Saint-Rosaire,Gatineau
648,Parc Édouard-Mercier,Parc récréatif,45.486109,-75.669854,555 Rue Gouin,Gatineau
649,Parc Schingh,Parc récréatif,45.494789,-75.6049,8 Rue Schingh,Gatineau
650,Parc de la Sablonnière,Parc récréatif,45.491315,-75.597688,930 Rue Bel-Air,Gatineau
651,CPE L'Arche des Petits (Baie),Service de garderie,45.460861,-75.697066,96 Rue de la Baie,Gatineau
652,Réservoir Charles,Réservoir d'eau potable,45.594294,-75.418146,100 Rue Charles,Gatineau
653,Usine de filtration Secteur Buckingham,Usine de traitement des eaux,45.594398,-75.41847,100 Rue Charles,Gatineau
654,Parc de Neuville,Autre parc,45.532159,-75.490412,1178 Rue de Neuville,Gatineau
655,Parc Marc-Gosselin,Parc récréatif,45.537016,-75.484153,1109 Rue de Neuville,Gatineau
656,Parc Jack-Eyamie,Parc récréatif,45.542364,-75.413694,40 Rue du Bassin,Gatineau
657,Parc de l'Aréna,Parc récréatif,45.548041,-75.408872,97 Rue de l'Aréna,Gatineau
658,Parc Gaston-Renaud,Parc récréatif,45.568196,-75.432975,18 Rue Racan,Gatineau
659,Parc Plouffe,Parc récréatif,45.565088,-75.423362,945 Rue Grandmaison,Gatineau
660,Parc Périard,Autre parc,45.570904,-75.428942,870 Rue Albert-Fillion,Gatineau
661,Parc Gratton,Autre parc,45.57026,-75.425922,904 Rue Arthur-Gratton,Gatineau
662,Parc Guitard,Parc récréatif,45.576081,-75.425581,150 Rue Elzéar-Lafleur,Gatineau
663,Parc Robitaille,Parc récréatif,45.580883,-75.409288,145 Rue Churchill,Gatineau
664,Parc Laframboise,Parc récréatif,45.588353,-75.405074,555 Rue Laframboise,Gatineau
665,Parc Brady,Autre parc,45.584232,-75.393294,620 Rue Matte,Gatineau
666,Parc Gendron,Parc récréatif,45.596434,-75.417205,130 Rue Judge,Gatineau
667,Parc du Landing,Autre parc,45.595708,-75.419834,261 Avenue de Buckingham,Gatineau
668,Parc Polyvalente Nicolas-Gatineau,Parc récréatif,45.498083,-75.646427,360 Boulevard La Vérendrye Est,Gatineau
669,Parc du Dôme,Parc récréatif,45.473381,-75.750367,60 Rue du Dôme,Gatineau
670,Parc Saint-Jean-de-Brébeuf,Autre parc,45.543426,-75.416798,32 Chemin de Montréal Est,Gatineau
671,Parc des Vignobles,Parc récréatif,45.503887,-75.671635,449 Rue Nobert,Gatineau
672,Station du Lac-Leamy,Station Rapibus,45.45192,-75.729313,730 Boulevard de la Carrière,Gatineau
673,Station Taché-UQO,Station Rapibus,45.423724,-75.732027,100 Boulevard Alexandre-Taché,Gatineau
674,Station du Casino,Station Rapibus,45.445937,-75.727711,600 Boulevard de la Carrière,Gatineau
675,Station les Galeries de Hull,Station Rapibus,45.441943,-75.72804,200 Boulevard de la Carrière,Gatineau
676,Station Montcalm,Station Rapibus,45.430562,-75.729388,196 Rue Montcalm,Gatineau
677,Parc-o-bus de la Gappe,Parc-o-bus,45.468186,-75.716956,109 Boulevard de la Gappe,Gatineau
678,Parc-o-bus Labrosse,Parc-o-bus,45.49111,-75.643264,266 Boulevard Saint-René Est,Gatineau
679,Station de la Cité,Station Rapibus,45.481506,-75.682779,459 Boulevard de la Cité,Gatineau
680,Parc-o-bus Cheval-Blanc,Parc-o-bus,45.504502,-75.58263,615 Avenue du Cheval-Blanc,Gatineau
681,Place de la Cité,Autre parc,45.484754,-75.680524,570 Boulevard de la Cité,Gatineau
682,Salle Odyssée,Salle de spectacle,45.484711,-75.681988,855 Boulevard de la Gappe,Gatineau
683,Maison de la Culture,Galerie d'art,45.484452,-75.68186,855 Boulevard de la Gappe,Gatineau
684,Bibliothèque Guy-Sanche,Bibliothèque,45.48427,-75.682333,855 Boulevard de la Gappe,Gatineau
685,Cégep de l'Outaouais Campus Felix-Leclerc,Collège,45.483154,-75.683581,820 Boulevard de la Gappe,Gatineau
686,Parc de Londres,Autre parc,45.439208,-75.80116,70 Rue de Londres,Gatineau
687,Parc de la Forêt-Boucher,Autre parc,45.423819,-75.824235,1151 Chemin Antoine-Boucher,Gatineau
688,Parc d'Andromède,Autre parc,45.440492,-75.800068,220 Rue d'Andromède,Gatineau
689,Parc Camille,Autre parc,45.49694,-75.577531,1395 Rue Camille,Gatineau
690,Parc de Bruxelles,Autre parc,45.431852,-75.794382,75 Rue de Bruxelles,Gatineau
691,Parc des Deux-Ravins,Autre parc,45.506754,-75.666913,3 Rue Nobert,Gatineau
692,Parc Belmont,Parc récréatif,45.392487,-75.829467,26 Rue Belmont,Gatineau
693,Parc D'Arcy-McGee–Symmes,Autre parc,45.421973,-75.803478,100 Rue de la Boussole,Gatineau
694,Parc de Batiscan,Autre parc,45.499165,-75.576931,179 Rue de Batiscan,Gatineau
695,Place Aubry,Autre parc,45.426918,-75.715535,1(A) Rue Aubry,Gatineau
696,Parc Robinson,Parc récréatif,45.461265,-75.697454,98 Rue de la Baie,Gatineau
697,Place des Pionniers,Édifice municipal,45.39507,-75.844855,115 Rue Principale,Gatineau
698,Mosquée d'Aylmer,Lieu de culte,45.395582,-75.844725,21 Rue Park,Gatineau
699,Résidence Notre Chez-nous,"Résidence pour personnes âgées(Type ""Familiale"")",45.58494,-75.404079,238 Rue Church,Gatineau
700,Parc des Pêcheurs,Autre parc,45.49232,-75.580039,1234 Rue Notre-Dame,Gatineau
701,Parc Alphonse-Dutil,Parc récréatif,45.461441,-75.709346,1347 Rue Saint-Louis,Gatineau
702,Parc Marcel-Gladu,Parc récréatif,45.483925,-75.710282,104 Rue du Barry,Gatineau
703,Parc Émard,Autre parc,45.500942,-75.73612,15 Rue Major,Gatineau
704,Parc Desnoyers,Parc récréatif,45.49705,-75.662866,534 Rue Jacques-Poulin,Gatineau
705,Parc de Laperrière,Parc récréatif,45.520271,-75.737009,63 Rue de Laperrière,Gatineau
706,Parc de la Citadelle,Parc récréatif,45.474382,-75.758961,67 Avenue de la Citadelle,Gatineau
707,Parc Saint-Dominique,Autre parc,45.424912,-75.754327,50 Rue Gabriel-Lacasse,Gatineau
708,Parc Marcel-Chaput,Parc récréatif,45.420158,-75.762472,26 Rue Marcel-Chaput,Gatineau
709,École des Rapides-Deschènes Immeuble Arc-en-Ciel,École primaire,45.387899,-75.804675,107 Chemin Vanier,Gatineau
710,Parc de Brignoles,Parc récréatif,45.484494,-75.724962,19 Rue de Brignoles,Gatineau
711,Parc de l'Oasis,Autre parc,45.496133,-75.687389,883(A) Rue de l'Oasis,Gatineau
712,Parc du Havre,Autre parc,45.475191,-75.739175,1 Rue de l'Anse-aux-Bateaux,Gatineau
713,Parc Wilfrid-Latour,Autre parc,45.46033,-75.744661,159 Rue Isabelle,Gatineau
714,Parc Frank-Robinson,Autre parc,45.394992,-75.84118,150(A) Rue Principale,Gatineau
715,Garderie Maison d'enfants Montessori,Service de garderie,45.422421,-75.74737,14 Rue Saint-François,Gatineau
716,Garderie Montessori Mavie,Service de garderie,45.428052,-75.735365,25 Rue Booth,Gatineau
717,Parc du Drakkar,Parc récréatif,45.499685,-75.584551,126 Rue du Drakkar,Gatineau
718,Parc de la Fabrique,Autre parc,45.410173,-75.865294,180 Rue de la Fabrique,Gatineau
719,Parc Claude-Rioux,Autre parc,45.403599,-75.863552,201 Rue des Hautes-Rives,Gatineau
720,Parc de la Baie,Autre parc,45.462192,-75.691498,988 Rue Saint-Louis,Gatineau
721,Parc Roger-St-Onge,Parc récréatif,45.550686,-75.420571,114 Rue Roger-St-Onge,Gatineau
722,Parc Armand-Daddy-Lacelle,Autre parc,45.546856,-75.422011,850 Chemin de Masson,Gatineau
723,Parc Saint-Benoît,Autre parc,45.437276,-75.746624,198 Rue Dumas,Gatineau
724,Parc Jeannine-Grégoire-Ross,Autre parc,45.496772,-75.570127,431 Rue Jeannine-Grégoire-Ross,Gatineau
725,Parc de la Pointe-Pelée,Autre parc,45.510205,-75.762857,208 Rue de la Pointe-Pelée,Gatineau
726,Parc de la Vaudaire,Autre parc,45.447413,-75.793169,210 Rue de la Vaudaire,Gatineau
727,Parc des Vieux-Moulins,Autre parc,45.412088,-75.859802,60 Rue des Vieux-Moulins,Gatineau
728,Garderie Nana Papillon,Service de garderie,45.396851,-75.810115,1 Rue Shortley,Gatineau
729,Garderie Ponpon,Service de garderie,45.404111,-75.855465,117 Rue Front,Gatineau
730,Parc des Ravin-Boisés,Parc récréatif,45.497785,-75.680207,153 Rue Lacombe,Gatineau
731,Parc Lemoyne,Parc récréatif,45.495364,-75.655698,480 Rue Bigué,Gatineau
732,Parc de Côtéville,Parc récréatif,45.482975,-75.63045,155 Rue de Côtéville,Gatineau
733,Parc Atholl-Doune,Autre parc,45.405477,-75.786617,1010 Chemin d'Aylmer,Gatineau
734,Parc du Languedoc,Autre parc,45.388333,-75.83263,50 Rue du Languedoc,Gatineau
735,Parc Paul-Pelletier,Autre parc,45.397941,-75.826729,325 Chemin d'Aylmer,Gatineau
736,Parc Aydelu,Parc récréatif,45.391656,-75.844227,20 Rue Court,Gatineau
737,Parc des Deux-Ruisseaux,Autre parc,45.437138,-75.795166,22 Rue du Tropique,Gatineau
738,Parc du Renard,Autre parc,45.413427,-75.856335,35 Rue du Renard,Gatineau
739,Parc de la Bastide,Autre parc,45.381592,-75.824112,119 Impasse de la Bastide,Gatineau
740,Parc de Fronsac,Autre parc,45.381232,-75.831581,30 Rue de Fronsac,Gatineau
741,Parc Jean-Louis-Morin,Autre parc,45.423776,-75.843639,51 Rue Jean-Louis-Morin,Gatineau
742,Parc du Luxembourg,Autre parc,45.439605,-75.80748,106 Rue du Luxembourg,Gatineau
743,Parc Central,Autre parc,45.433626,-75.80139,205 Rue de Bruxelles,Gatineau
744,Parc de la Petite-Nation,Autre parc,45.414543,-75.802248,50 Rue Alphonse-Daudet,Gatineau
745,Pavillon Robert-Middlemiss,Édifice communautaire,45.395949,-75.85793,1 Rue Principale,Gatineau
746,Parc des Cèdres,Parc récréatif,45.395465,-75.85637,1 Rue Principale,Gatineau
747,Parc du Manoir-Champlain,Autre parc,45.426016,-75.797545,62 Rue Robert-Pilon,Gatineau
748,Parc du Marigot,Autre parc,45.426409,-75.809325,100 Rue du Marigot,Gatineau
749,Parc d'Orsay,Autre parc,45.43522,-75.811483,195 Rue d'Orsay,Gatineau
750,Parc de Ganymède,Autre parc,45.442379,-75.792508,146 Rue de Ganymède,Gatineau
751,Parc des Soeurs-Maristes,Parc récréatif,45.467244,-75.773388,45 Rue de la Soeur-Jeanne-Marie-Chavoin,Gatineau
752,Parc du Lac-Leamy,Autre parc,45.453302,-75.725211,100 Rue Atawe,Gatineau
753,Parc-o-bus Lorrain,Parc-o-bus,45.49552,-75.607942,115 Boulevard Lorrain,Gatineau
754,Parc-o-bus Saint-Alexandre,Parc-o-bus,45.492922,-75.753472,1 Chemin des Érables,Gatineau
755,Parc-o-bus Sainte-Rose-de-Lima,Parc-o-bus,45.498533,-75.60768,861 Boulevard Saint-René Est,Gatineau
756,Parc-o-bus Allumettières,Parc-o-bus,45.407774,-75.866596,305 Rue des Hautes-Rives,Gatineau
757,École du Plateau,École primaire,45.439912,-75.781289,145 Rue de l'Atmosphère,Gatineau
758,École des Deux-Ruisseaux,École primaire,45.43591,-75.793259,278 Rue de l'Atmosphère,Gatineau
759,Garderie Centre Éducatif au Royaume des Enfants,Service de garderie,45.435409,-75.794027,86 Rue du Tropique,Gatineau
760,Garderie éducative Chez Danielle,Service de garderie,45.404365,-75.807584,296 Chemin Vanier,Gatineau
761,École Montessori de l'Outaouais,École primaire,45.396037,-75.840189,161 Rue Principale,Gatineau
762,CPE La Ribambelle d'Aylmer,Service de garderie,45.419752,-75.839208,272 Rue des Thuyas,Gatineau
763,C.L.S.C de Gatineau (Maison Bruyère),C.L.S.C.,45.397201,-75.848816,57 Rue du Couvent,Gatineau
764,Maison communautaire Bruyère,Édifice communautaire,45.397247,-75.848602,57 Rue du Couvent,Gatineau
765,Port de plaisance Jacques-Cartier,Marina,45.432185,-75.707503,160 Rue Laurier,Gatineau
766,Garage Municipale Masson-Angers,Atelier et garage municipaux,45.547939,-75.399454,214 Chemin de Montréal Est,Gatineau
767,C.L.S.C de Gatineau (de la Gappe),C.L.S.C.,45.483226,-75.685875,777 Boulevard de la Gappe,Gatineau
768,Parc Polyvalente de l'Érablière,Parc récréatif,45.494012,-75.74038,500 Rue de Cannes,Gatineau
769,Centre d'hébergement Champlain-Gatineau,C.H.S.L.D.,45.500623,-75.637554,510 Boulevard La Vérendrye Est,Gatineau
770,Hôpital de Gatineau,Centre hospitalier,45.493261,-75.691095,909 Boulevard La Vérendrye Ouest,Gatineau
771,École des Belles-Rives,École primaire,45.500189,-75.609633,23 Rue Forget,Gatineau
772,Aréna Jean-Paul-Sabourin,Aréna,45.469263,-75.743397,70 Rue Jean-Proulx,Gatineau
773,Musée Canadien de l'Histoire,Musée,45.429311,-75.708785,100 Rue Laurier,Gatineau
774,Salle Jean-Desprez,Salle de spectacle,45.42771,-75.710998,25 Rue Laurier,Gatineau
775,Bibliothèque Docteur-Jean-Lorrain,Bibliothèque,45.488821,-75.602571,20 Boulevard Lorrain,Gatineau
776,Parc Desjardins,Parc récréatif,45.443021,-75.714702,1 Rue Goyette,Gatineau
777,Centre communautaire Sainte-Bernadette,Centre communautaire,45.428323,-75.722295,40 Rue Pilon,Gatineau
778,Centre culturel Jacques-Auger,Centre culturel,45.426755,-75.718439,39 Rue Leduc,Gatineau
779,Maison Alcide-Clément,Autre centre de services sociaux,45.429934,-75.719213,132 Rue Saint-Jacques,Gatineau
780,La maison de la famille de Gatineau,Autre centre de services sociaux,45.47975,-75.724702,69 Avenue Gatineau,Gatineau
781,Palestre municipale,Centre sportif,45.49031,-75.68425,795 Boulevard Saint-René Ouest,Gatineau
782,Parc Marengère,Parc récréatif,45.459822,-75.702069,5 Rue Marengère,Gatineau
783,Centre communautaire Docteur-Jean-Lorrain,Centre communautaire,45.488737,-75.602552,20 Boulevard Lorrain,Gatineau
784,Centre de détention de Hull,Centre de détention,45.427148,-75.748914,75 Rue Saint-François,Gatineau
785,Conservatoire de musique et de l'art de Gatineau,Centre de formation,45.421906,-75.748683,430 Boulevard Alexandre-Taché,Gatineau
786,Écomusée,Musée,45.42981,-75.726862,170 Rue Montcalm,Gatineau
787,Place Cartier,Centre commercial,45.445974,-75.733851,425 Boulevard Saint-Joseph,Gatineau
788,Caserne 2 Calixte-Rouleau,Incendie,45.437685,-75.766922,204 Boulevard Saint-Raymond,Gatineau
789,Caserne 3 Dion-Latour,Incendie,45.462174,-75.739455,175 Rue Deveault,Gatineau
790,Cégep de l'Outaouais Campus Louis-Reboul,Collège,45.437658,-75.713507,125 Boulevard Sacré-Coeur,Gatineau
791,École Saint-Rédempteur,École primaire,45.434456,-75.719352,39 Rue Saint-Florent,Gatineau
792,Imprimerie National,Édifice fédéral,45.437547,-75.718242,45 Boulevard Sacré-Coeur,Gatineau
793,Complexe Branchaud-Brière,Aréna,45.497047,-75.644218,499 Boulevard Labrosse,Gatineau
794,Garderie Petits Créatifs 2,Service de garderie,45.409974,-75.853413,28 Rue du Vison,Gatineau
795,CPE La Jeune Ronde,Service de garderie,45.445912,-75.747208,140 Boulevard Lionel-Émond,Gatineau
796,Garderie mon petit cosmos 2,Service de garderie,45.419312,-75.850511,260 Rue Maurice-Duplessis,Gatineau
797,Baie Carpentier,Baie,45.513576,-75.496519,,Gatineau
798,Baie McLaurin,Baie,45.487993,-75.581203,,Gatineau
799,Baie Murphy,Baie,45.487833,-75.557922,,Gatineau
800,Baie des Labyrinthes,Baie,45.488418,-75.562828,,Gatineau
801,Baie Alexandria,Baie,45.405457,-75.880813,,Gatineau
802,Baie Clément,Baie,45.525597,-75.456667,,Gatineau
803,Baie du Fer à Cheval,Baie,45.5289,-75.399554,,Gatineau
804,Petite baie Clément,Baie,45.51643,-75.483303,,Gatineau
805,Marais de Templeton,Autres étendues d'eau,45.483712,-75.59046,,Gatineau
806,Marais des Branchus,Baie,45.532387,-75.404076,,Gatineau
807,Marais aux Genouillettes,Autres étendues d'eau,45.509926,-75.510509,,Gatineau
808,Marais des Laîches,Autres étendues d'eau,45.500679,-75.538197,,Gatineau
809,Marais des Libellules,Autres étendues d'eau,45.533633,-75.37559,,Gatineau
810,École secondaire de l'île,École secondaire,45.435724,-75.723165,255 Rue Saint-Rédempteur,Gatineau
811,Centre de transbordement - Écocentre,Centre de récupération,45.456336,-75.728695,860 Boulevard de la Carrière,Gatineau
812,Centre communautaire Edgar-Chénier,Centre communautaire,45.445993,-75.714537,10 Rue Bériault,Gatineau
813,Centre communautaire Père-Arthur-Guertin,Centre communautaire,45.446018,-75.715915,16 Rue Bériault,Gatineau
814,Parc des Hautes-Plaines,Parc récréatif,45.472641,-75.764355,479 Boulevard des Hautes-Plaines,Gatineau
815,École secondaire Philemon-Wright,École secondaire,45.466431,-75.748705,80 Rue Daniel-Johnson,Gatineau
816,Parc Daniel-Johnson,Parc récréatif,45.466053,-75.746505,54 Rue Tassé,Gatineau
817,Aréna Cholette,Aréna,45.448303,-75.752059,156 Boulevard de la Cité-des-Jeunes,Gatineau
818,Polyvalente le Carrefour,École secondaire,45.473117,-75.698324,50 Chemin de la Savane,Gatineau
819,École de la Montée,École primaire,45.494258,-75.671678,500 Rue Joseph-Demontigny,Gatineau
820,Aréna Baribeau,Aréna,45.49393,-75.646907,231 Rue Magnus Est,Gatineau
821,Polyvalente Nicolas-Gatineau,École secondaire,45.499488,-75.645146,360 Boulevard La Vérendrye Est,Gatineau
822,École Greater Gatineau,École primaire,45.488072,-75.645344,297 Rue Alice,Gatineau
823,École de la Traversée Édifice Lavigne,École primaire,45.487048,-75.62928,257 Rue Luck,Gatineau
824,École de la Traversée Édifice Sainte-Maria-Goretti,École primaire,45.481975,-75.631037,563 Rue Clément,Gatineau
825,Centre communautaire Saint-Gérard,Centre communautaire,45.494607,-75.580651,1259 Boulevard Maloney Est,Gatineau
826,Parc Lakeview,Parc récréatif,45.391282,-75.799799,39 Promenade Crescent,Gatineau
827,Polyvalente de l'Érablière,École secondaire,45.493329,-75.738727,500 Rue de Cannes,Gatineau
828,Bibliothèque de Riviera,Bibliothèque,45.470419,-75.724156,12 Rue de Picardie,Gatineau
829,École le Petit-Prince,École primaire,45.485346,-75.733381,44 Rue de Juan-les-Pins,Gatineau
830,Parc Louis-Philion,Parc récréatif,45.492624,-75.605022,13 Rue du Curé-Labelle,Gatineau
831,C.H.S.L.D. Vigi,C.H.S.L.D.,45.49458,-75.692094,565 Boulevard de l'Hôpital,Gatineau
832,École secondaire du Versant,École secondaire,45.493391,-75.681435,808 Boulevard de la Cité,Gatineau
833,Garderie Petits Trésors,Service de garderie,45.492906,-75.67528,456(B) Montée Paiement,Gatineau
834,Pavillon du Parc (Gatineau),Autres services médicaux et de santé,45.495559,-75.688211,592B boulevard de l'Hopital,Gatineau
835,Témoins de Jéhovah Gatineau,Lieu de culte,45.505374,-75.684555,1316 Boulevard Gréber,Gatineau
836,École des Cépages,École primaire,45.503363,-75.670318,445 Rue Nobert,Gatineau
837,École de l'Envolée,École primaire,45.497066,-75.696233,299 Rue Ernest-Gaboury,Gatineau
838,École du Vallon,École primaire,45.496921,-75.724589,88 Rue de Cannes,Gatineau
839,Commission scolaire des Portages-de-l'Outaouais,Commission scolaire,45.433989,-75.722674,225 Rue Saint-Rédempteur,Gatineau
840,Place de la Maison-du-Citoyen,Autre parc,45.428342,-75.71186,94 Rue Victoria,Gatineau
841,Parc du Carré-Vaudreuil,Parc récréatif,45.428051,-75.717956,54 Rue Vaudreuil,Gatineau
842,Parc Jacques-Cartier Sud,Parc récréatif,45.434114,-75.708459,162 Rue Laurier,Gatineau
843,Corridor du Sentier-de-l'Île,Autre parc,45.434718,-75.718824,Rue Isidore-Ostiguy,Gatineau
844,Parc Saint-Rédempteur,Parc récréatif,45.432726,-75.724052,101 Rue de Carillon,Gatineau
845,Gare Train à vapeur Hull-Wakefield,Autres infrastructure,45.46131,-75.73871,165 Rue Deveault,Gatineau
846,Parc du Lac-Leamy,Parc récréatif,45.453173,-75.718675,100 Promenade du Lac-Leamy,Gatineau
847,Parc des Optimistes,Parc récréatif,45.467562,-75.719719,28 Rue de Turin,Gatineau
848,Parc de Limoges,Parc récréatif,45.467466,-75.721944,28 Rue de Parme,Gatineau
849,Parc Saint-Coeur-de-Marie,Parc récréatif,45.47943,-75.723588,70 Avenue Gatineau,Gatineau
850,Parc de Tellier,Parc récréatif,45.481673,-75.737752,23 Rue de Tellier,Gatineau
851,Parc Saint-Exupéry,Parc récréatif,45.484535,-75.730736,15 Rue de Mougins,Gatineau
852,Parc de Castillou,Parc récréatif,45.488032,-75.740304,40 Rue de Castillou,Gatineau
853,Parc de Canadel,Parc récréatif,45.489118,-75.726124,194 Rue de Canadel,Gatineau
854,Parc de Val-d'Oise,Parc récréatif,45.478651,-75.703921,124 Rue Lachapelle,Gatineau
855,Parc Ernest-Gaboury,Autre parc,45.491136,-75.699418,100 Rue de Morency,Gatineau
856,Quartier Général Police,Police municipale,45.491976,-75.703977,590 Boulevard Gréber,Gatineau
857,Parc Henri-Dunant,Parc récréatif,45.498049,-75.695881,687 Boulevard du Mont-Royal,Gatineau
858,Parc de Candiac,Parc récréatif,45.504002,-75.6396,47 Rue de Candiac,Gatineau
859,Parc Yvette-Debain Est,Parc récréatif,45.39446,-75.831408,15(A) Rue de la Terrasse,Gatineau
860,Commission scolaire des Draveurs,Commission scolaire,45.483183,-75.647515,200 Boulevard Maloney Est,Gatineau
861,Centre des Aînés de Gatineau,"Association civique, sociale et fraternelle",45.482897,-75.648963,196 Rue Notre-Dame,Gatineau
862,Centre communautaire Daniel-Johnson,Centre communautaire,45.465935,-75.746411,54 Rue Tassé,Gatineau
863,Centre communautaire Dupuis,Centre communautaire,45.434877,-75.718734,50 Rue Isidore-Ostiguy,Gatineau
864,Centre communautaire Fontaine,Centre communautaire,45.431764,-75.716416,120 Rue Charlevoix,Gatineau
865,Centre communautaire des Hautes-Plaines,Centre communautaire,45.472556,-75.764608,479 Boulevard des Hautes-Plaines,Gatineau
866,Centre Jules-Desbiens,Centre communautaire,45.427212,-75.718727,109 Rue Wright,Gatineau
867,Centre communautaire Laurent-Groulx,Centre communautaire,45.446025,-75.739467,1 Rue Lévesque,Gatineau
868,Centre communautaire Larocque,Centre communautaire,45.436296,-75.736877,2 Rue Fortier,Gatineau
869,Centre communautaire Saint-Raymond,Centre communautaire,45.446652,-75.743112,99 Boulevard Saint-Raymond,Gatineau
870,Centre communautaire des Trembles,Centre communautaire,45.426571,-75.766854,150 Boulevard des Trembles,Gatineau
871,Centre communautaire Yvon-A.-Grégoire,Centre communautaire,45.428226,-75.73297,70 Boulevard Saint-Joseph,Gatineau
872,Club Friendship,Édifice communautaire,45.487965,-75.646183,300 Rue de l'Abbé-Murray,Gatineau
873,Centre communautaire Saint-Rosaire,Centre communautaire,45.469987,-75.689488,5 Rue Saint-Arthur,Gatineau
874,Centre communautaire Saint-Richard,Centre communautaire,45.487227,-75.66863,315 Rue Migneault,Gatineau
875,Centre communautaire de Limbour,Centre communautaire,45.497769,-75.739041,288 Chemin Lebaudy,Gatineau
876,Édifice Daniel-Lafortune,Centre communautaire,45.466552,-75.699005,448 Rue de Pointe-Gatineau,Gatineau
877,Manège Militaire de Salaberry,Centre militaire,45.424502,-75.732713,188 Boulevard Alexandre-Taché,Gatineau
878,Parc-o-bus Les Promenades,Parc-o-bus,45.474506,-75.697742,1100 Boulevard Maloney Ouest,Gatineau
879,Marché Notre-Dame,Aménagement public,45.481084,-75.642883,330 Rue Notre-Dame,Gatineau
880,Maison de Naissance de L'Outaouais,Autres services médicaux et de santé,45.482887,-75.648568,175 Rue Jean-René-Monette,Gatineau
881,Parc Fontaine,Parc récréatif,45.431089,-75.715766,120 Rue Charlevoix,Gatineau
882,Complexe sportif du Mont-Bleu,Parc récréatif,45.461235,-75.774506,395 Boulevard de la Cité-des-Jeunes,Gatineau
883,Parc Jean-De La Fontaine,Autre parc,45.408818,-75.79848,49(A) Rue Jean-De La Fontaine,Gatineau
884,Parc de la Croisée,Parc récréatif,45.399771,-75.811272,6 Impasse du Cadet,Gatineau
885,Parc de la Conservation,Autre parc,45.382251,-75.835495,14(A) Rue Pine,Gatineau
886,Parc Kent,Parc récréatif,45.389621,-75.826344,13 Rue Walter-Herbert,Gatineau
887,Parc Écologique,Autre parc,45.392907,-75.825793,302 Chemin Fraser,Gatineau
888,Parc Lanthier,Autre parc,45.575918,-75.430773,37 Rue Arcand,Gatineau
889,Parc,Autre parc,45.543087,-75.42829,1 Chemin de Montréal Ouest,Gatineau
890,Parc du Beau-Vallon,Parc récréatif,45.528943,-75.482201,155 Rue des Hauts-Bois,Gatineau
891,Parc Green Valley,Autre parc,45.48563,-75.645046,280 Rue Green Valley,Gatineau
892,Parc Martin-Larouche,Parc récréatif,45.487133,-75.595209,984 Rue Notre-Dame,Gatineau
893,Parc de l'Étrier,Parc récréatif,45.507441,-75.578417,57 Rue des Lipizzans,Gatineau
894,Parc de Blainville,Parc récréatif,45.506879,-75.639671,51 Rue de Blainville,Gatineau
895,Parc Melbourne,Autre parc,45.478177,-75.678414,248 Rue de Melbourne,Gatineau
896,Parc des Portageurs,Parc récréatif,45.421252,-75.729954,425 Boulevard de Lucerne,Gatineau
897,Parc du Marais-de-Touraine,Autre parc,45.493889,-75.735202,36 Rue de Trigance,Gatineau
898,École Eardley,École primaire,45.399248,-75.840442,180 Rue North,Gatineau
899,Collège Nouvelles-Frontières (secondaire),École secondaire,45.443583,-75.748817,250 Rue Gamelin,Gatineau
900,Parc de Champagne,Parc récréatif,45.392333,-75.838408,14 Rue du Barsac,Gatineau
901,Parc Wilfrid-Lavigne,Parc récréatif,45.421739,-75.847298,961 Boulevard Wilfrid-Lavigne,Gatineau
902,Centre des Carrières Western Québec,Centre de formation,45.389528,-75.839318,100 Avenue Frank-Robinson,Gatineau
903,CPE Alakazou (Nobert),Service de garderie,45.503095,-75.669672,425 Rue Nobert,Gatineau
904,CPE Bébéjou (Savane),Service de garderie,45.475159,-75.683451,179 Chemin de la Savane,Gatineau
905,CPE Les Feux Follets,Service de garderie,45.475151,-75.683979,175 Chemin de la Savane,Gatineau
906,CPE Le Bonjour (Smith),Service de garderie,45.474652,-75.686562,65 Rue Smith,Gatineau
907,CPE Le Bonjour (de la Baie),Service de garderie,45.458078,-75.697445,33 Rue de la Baie,Gatineau
908,CPE Les Petits Fripons (des Servantes),Service de garderie,45.545728,-75.417561,42 Rue des Servantes,Gatineau
909,CPE Le Tamanoir,Service de garderie,45.48138,-75.722206,89 Avenue Gatineau,Gatineau
910,CPE La Gatinerie,Service de garderie,45.486895,-75.705361,32 Rue de l'Acadie,Gatineau
911,CPE La Planète des Enfants,Service de garderie,45.495302,-75.743633,171 Chemin Lebaudy,Gatineau
912,CPE L'Île des Enfants,Service de garderie,45.432636,-75.722127,296 Boulevard des Allumettières,Gatineau
913,CPE Les Terrasses,Service de garderie,45.425725,-75.721792,10 Rue Wellington,Gatineau
914,CPE du Portage,Service de garderie,45.42608,-75.715596,150 Promenade du Portage,Gatineau
915,CPE Le Baluchon (Jos-Montferrand),Service de garderie,45.427027,-75.711386,170 Rue de l'Hôtel-de-Ville,Gatineau
916,CPE Aux Trois Pommes (Berri),Service de garderie,45.435486,-75.734987,122 Rue Berri,Gatineau
917,Hôpital de Papineau,Centre hospitalier,45.588533,-75.412008,155 Rue Maclaren Est,Gatineau
918,CPE La Grande Envolée (MacLaren),Service de garderie,45.587959,-75.412048,154 Rue Maclaren Est,Gatineau
919,École du Sacré-Coeur,École primaire,45.52438,-75.488735,420 Rue du Progrès,Gatineau
920,Bibliothèque Jean-Marie-Caron,Bibliothèque,45.524533,-75.488038,430 Rue du Progrès,Gatineau
921,CPE Trois Petits Points (Zamizou),Service de garderie,45.525303,-75.488542,1035 Rue Yvon-Pichette,Gatineau
922,CPE L'Oiseau Bleu,Service de garderie,45.58472,-75.415038,574 Avenue de Buckingham,Gatineau
923,Usine d'épuration des eaux usées (Gatineau),Usine de traitement des eaux,45.479705,-75.6037,858(A) Rue Notre-Dame,Gatineau
924,Domaine Boisé,Résidence pour personnes âgées,45.486968,-75.64059,265 Boulevard Labrosse,Gatineau
925,Aréna Frank-Robinson,Aréna,45.393497,-75.843291,96 Rue du Patrimoine,Gatineau
926,Bibliothèque Lucy-Faris,Bibliothèque,45.397701,-75.834819,181 rue Principale,Gatineau
927,École du Vieux-Verger,École primaire,45.404742,-75.837088,550 Boulevard Wilfrid-Lavigne,Gatineau
928,Centre communautaire Apollo,Centre communautaire,45.487122,-75.671159,520 Rue Carle,Gatineau
929,Parc Jean-Gardy-Bienvenu,Parc récréatif,45.488415,-75.670243,10 Ruelle Jean-Gardy-Bienvenu,Gatineau
930,Parc Maclaren,Autre parc,45.585609,-75.41726,575 Avenue de Buckingham,Gatineau
931,CPE Le Baluchon (Bédard),Service de garderie,45.454152,-75.751604,100 Rue Bédard,Gatineau
932,CPE Le Châtelet,Service de garderie,45.386833,-75.831136,8 Boulevard de Lucerne,Gatineau
933,Garderie Au Clair de Lune,Service de garderie,45.438929,-75.743874,65 Boulevard Moussette,Gatineau
934,Centre régional de réadaptation La Ressource,Autre centre de services sociaux,45.445696,-75.746264,135 Boulevard Saint-Raymond,Gatineau
935,Espace Pierre-Debain,Galerie d'art,45.394447,-75.844036,120 Rue Principale,Gatineau
936,Parc Jules-Verne,Parc récréatif,45.506628,-75.62912,396 Rue Jules-Verne,Gatineau
937,Réservoir Masson-Angers,Réservoir d'eau potable,45.559113,-75.417763,1027 Chemin de Masson,Gatineau
938,Piscine Jack-Eyamie,Piscine,45.542732,-75.414364,40 Rue du Bassin,Gatineau
939,Jeux d'eau Lavictoire,Piscine,45.481014,-75.647335,95 Rue East,Gatineau
940,Pataugeoire Le Coteau,Piscine,45.469618,-75.706442,60 Rue Louis-Riel,Gatineau
941,Pataugeoire Saint-Rosaire,Piscine,45.470567,-75.688964,52 Rue Saint-Rosaire,Gatineau
942,Pataugeoire Moncion,Piscine,45.453214,-75.746004,43 Rue St-Onge,Gatineau
943,Jeux d'eau Saint-Jean-Bosco,Piscine,45.428423,-75.732946,70 Boulevard Saint-Joseph,Gatineau
944,Pataugeoire Saint-Rédempteur,Piscine,45.432827,-75.723942,101 Rue de Carillon,Gatineau
945,Pataugeoire Saint-Jean,Piscine,45.433364,-75.741108,40 Rue Labelle,Gatineau
946,Piscine Bisson,Piscine,45.456802,-75.755572,36(A) Rue Thérien,Gatineau
947,Piscine des Trembles,Piscine,45.425974,-75.769402,180 Boulevard des Trembles,Gatineau
948,Piscine Eugène-Sauvageau,Piscine,45.45535,-75.739193,179 Rue Mutchmore,Gatineau
949,Pataugeoire Fontaine,Piscine,45.431865,-75.715827,120 Rue Charlevoix,Gatineau
950,Piscine Fontaine,Piscine,45.431659,-75.716016,120 Rue Charlevoix,Gatineau
951,Jeux d'eau Larocque,Piscine,45.436516,-75.736892,2 Rue Fortier,Gatineau
952,Parc des Quatre-Saisons,Autre parc,45.43467,-75.787246,14 Rue de l'Automne,Gatineau
953,Corridor Neuville,Autre parc,45.532058,-75.486754,Rue de l'Hermitage,Gatineau
954,Parc Brébeuf,Parc récréatif,45.417746,-75.744693,71 Rue Bourget,Gatineau
955,Parc Saint-Paul,Parc récréatif,45.458614,-75.747805,141 Rue Isabelle,Gatineau
956,Parc Claude-Rioux,Parc récréatif,45.402444,-75.860652,42 Rue Alexis-Rajotte,Gatineau
957,Parc R.-H.-Lalonde,Parc récréatif,45.502373,-75.644733,767 Rue R.-H.-Lalonde,Gatineau
958,Parc Shamal,Autre parc,45.447628,-75.786668,30 Rue du Shamal,Gatineau
959,Parc de la Baie-McLaurin,Réserve faunique,45.493757,-75.559578,Boulevard Hurtubise,Gatineau
960,Parc de la Baie-Clément,Réserve faunique,45.527063,-75.461828,480 Chemin de Montréal Ouest,Gatineau
961,Pavillon du Parc (siège social),Autres services médicaux et de santé,45.436288,-75.731661,124 Rue Lois,Gatineau
962,Pavillon du Parc (Buckingham),Autres services médicaux et de santé,45.583645,-75.414059,610 Avenue de Buckingham,Gatineau
963,Les centres jeunesse de l'Outaouais,Autre centre de services sociaux,45.437772,-75.715176,105 Boulevard Sacré-Coeur,Gatineau
964,Parc-o-bus Angers,Parc-o-bus,45.524761,-75.491572,255 Rue du Progrès,Gatineau
965,Église Saint-Luc,Lieu de culte,45.578584,-75.423386,680 Rue Bergeron,Gatineau
966,Église Saint-Stephen,Lieu de culte,45.590458,-75.426701,45 Chemin Donaldson,Gatineau
967,Église Jean XXIII,Lieu de culte,45.488066,-75.704154,1194 Boulevard Saint-René Ouest,Gatineau
968,Église Notre-Dame-du-Très-Saint-Rosaire,Lieu de culte,45.46991,-75.689534,5 Rue Saint-Arthur,Gatineau
969,Église Saint Aloysius Gonzaga,Lieu de culte,45.488226,-75.646206,300 Rue de l'Abbé-Murray,Gatineau
970,Chevaliers de Colomb Conseil 6006,"Association civique, sociale et fraternelle",45.493227,-75.753213,1 Chemin des Érables,Gatineau
971,Église Saint-Andrew,Lieu de culte,45.482362,-75.647737,144 Rue Jean-René-Monette,Gatineau
972,Cathédrale Saint-Joseph,Lieu de culte,45.435745,-75.733871,245 Boulevard Saint-Joseph,Gatineau
973,Église Saint-Raymond-de-Pennafort (Altitude Gym),Lieu de culte,45.446846,-75.737113,35 Boulevard Saint-Raymond,Gatineau
974,Mission Luthérienne,Lieu de culte,45.495066,-75.676361,523 Montée Paiement,Gatineau
975,Témoins de Jéhovah,Lieu de culte,45.414566,-75.76385,1432 Chemin d'Aylmer,Gatineau
976,La mosquée de l'Outaouais,Lieu de culte,45.428995,-75.732058,4 Rue Lois,Gatineau
977,Messager Chrétien,Lieu de culte,45.487271,-75.717489,185 Avenue Gatineau,Gatineau
978,Église Nouvelle Alliance,Lieu de culte,45.480876,-75.646425,116 Rue East,Gatineau
979,Our Redeemer Lutheran Church,Lieu de culte,45.598807,-75.416538,131 Rue Gorman,Gatineau
980,Église Chrétienne du Plateau,Lieu de culte,45.436408,-75.775096,118 Boulevard du Plateau,Gatineau
981,Église de Jésus Christ des Saints des Derniers Jours,Lieu de culte,45.4803,-75.708713,178 Rue de Sillery,Gatineau
982,Église Saint-Richard,Lieu de culte,45.49138,-75.667608,437 Boulevard Saint-René Ouest,Gatineau
983,Église Baptiste Évangélique de Gatineau,Lieu de culte,45.497447,-75.704794,770 Boulevard Gréber,Gatineau
984,Ruisseau Moreau,Rivière et ruisseau,45.462484,-75.709213,,Gatineau
985,Ruisseau Noueux,Rivière et ruisseau,45.533836,-75.631242,,Gatineau
986,Ruisseau Leamy,Rivière et ruisseau,45.462556,-75.729769,,Gatineau
987,Barrage du Château-d'Eau,Barrage,45.429824,-75.727177,,Gatineau
988,Barrage Dufferin,Barrage,45.58458,-75.417862,,Gatineau
989,Barrage du Hameau-du-Lac,Barrage,45.475339,-75.784459,,Gatineau
990,Barrage de Hull-2,Barrage,45.42202,-75.721356,,Gatineau
991,Barrage du Lac-Pink,Barrage,45.466786,-75.802255,,Gatineau
992,Barrage MacLaren,Barrage,45.589506,-75.422273,,Gatineau
993,Barrage Rhéaume,Barrage,45.55991,-75.422085,,Gatineau
994,Ruisseau de la Brasserie,Rivière et ruisseau,45.437584,-75.725572,,Gatineau
995,Petits rapides des Chaudières,Autres étendues d'eau,45.414382,-75.743006,,Gatineau
996,Chutes des Chaudières,Autres étendues d'eau,45.420159,-75.723174,,Gatineau
997,Cours d'eau Dalton-Bergeron,Rivière et ruisseau,45.50234,-75.601466,,Gatineau
998,Trou du Diable,Autres étendues d'eau,45.421671,-75.726939,,Gatineau
999,Centrale des Rapides-Farmer,Barrage,45.498773,-75.763269,,Gatineau
1000,Monument,Monument et site historique,45.461111,-75.699602,,Gatineau
1001,Monument,Monument et site historique,45.395394,-75.843999,,Gatineau
1002,Monument,Monument et site historique,45.423619,-75.733273,,Gatineau
1003,Monument,Monument et site historique,45.483745,-75.648565,,Gatineau
1004,Monument,Monument et site historique,45.587067,-75.41559,,Gatineau
1005,Réservoir de la Blanche,Autres étendues d'eau,45.541516,-75.626814,,Gatineau
1006,Rivière Blanche,Rivière et ruisseau,45.49666,-75.547987,,Gatineau
1007,Maison Bruyère,Résidence pour personnes âgées,45.397192,-75.848821,57 Rue du Couvent,Gatineau
1008,Résidence Beaufort,Résidence pour personnes âgées,45.549896,-75.418972,85 Rue Joseph-Gosselin,Gatineau
1009,Résidence de la Gappe Phase 4,Résidence pour personnes âgées,45.479719,-75.698161,495 Boulevard de la Gappe,Gatineau
1010,Résidence La Famille II,Résidence pour personnes âgées,45.509557,-75.575008,106 Rue des Frères-Vachon,Gatineau
1011,Résidence L'Essence-ciel,Résidence pour personnes âgées,45.547421,-75.410407,116 Rue Dugal,Gatineau
1012,Stationnement Lauriault,Terrain de stationnement pour automobiles,45.48434,-75.858116,621 Promenade de la Gatineau,Gatineau
1013,Stationnement Mulvihill,Terrain de stationnement pour automobiles,45.483961,-75.856462,620 Promenade de la Gatineau,Gatineau
1014,Stationnement Point de vue lac Pink,Terrain de stationnement pour automobiles,45.466705,-75.807988,500 Promenade de la Gatineau,Gatineau
1015,Stationnement Asticou,Terrain de stationnement pour automobiles,45.450831,-75.765799,,Gatineau
1016,Stationnement Lac des fées,Terrain de stationnement pour automobiles,45.441897,-75.753393,,Gatineau
1017,Stationnement Aire de bienvenue du parc de la Gatineau (3),Terrain de stationnement pour automobiles,45.440485,-75.761506,,Gatineau
1018,Stationnement Maison Charron,Terrain de stationnement pour automobiles,45.434588,-75.707636,,Gatineau
1019,Stationnement Parc Jacques Cartier sud,Terrain de stationnement pour automobiles,45.432932,-75.708048,,Gatineau
1020,Stationnement Chaudiere,Terrain de stationnement pour automobiles,45.401854,-75.779603,,Gatineau
1021,Stationnement Deschenes,Terrain de stationnement pour automobiles,45.387367,-75.799856,,Gatineau
1022,Stationnement Rampe de mise à l'eau Deschenes,Terrain de stationnement pour automobiles,45.384338,-75.800616,,Gatineau
1023,Stationnement Relais plein air (2),Terrain de stationnement pour automobiles,45.46227,-75.773994,,Gatineau
1024,Stationnement Supérieur Mackenzie King (6),Terrain de stationnement pour automobiles,45.484293,-75.845899,,Gatineau
1025,Stationnement Inférieur Mackenzie King,Terrain de stationnement pour automobiles,45.480194,-75.847904,600 Promenade de la Gatineau,Gatineau
1026,Stationnement Sentier Lac Pink,Terrain de stationnement pour automobiles,45.468803,-75.812159,510 Promenade de la Gatineau,Gatineau
1027,Stationnement Hickory,Terrain de stationnement pour automobiles,45.453332,-75.783913,401 Promenade de la Gatineau,Gatineau
1028,Stationnement Plage du Lac-Leamy,Terrain de stationnement pour automobiles,45.451554,-75.718374,100 Promenade du Lac-Leamy,Gatineau
1029,Stationnement Maison du vélo,Terrain de stationnement pour automobiles,45.441696,-75.707824,,Gatineau
1030,Stationnement Parc Jacques Cartier nord,Terrain de stationnement pour automobiles,45.440346,-75.705694,,Gatineau
1031,Stationnement Bâtiment Fontaine,Terrain de stationnement pour automobiles,45.435993,-75.708063,,Gatineau
1032,Stationnement Champlain,Terrain de stationnement pour automobiles,45.411345,-75.766172,,Gatineau
1033,Pataugeoire Front,Piscine,45.405471,-75.85752,175 Rue Front,Gatineau
1034,Jeux d'eau Claude-Rioux,Piscine,45.402342,-75.86038,42 Rue Alexis-Rajotte,Gatineau
1035,Jeux d'eau d'Arcy-McGee-Symmes,Piscine,45.422406,-75.802876,100 Rue de la Boussole,Gatineau
1036,Jeux d'eau Renard,Piscine,45.41327,-75.856102,35 Rue du Renard,Gatineau
1037,Jeux d'eau Émile-Zola,Piscine,45.409681,-75.795411,15 Rue Émile-Zola,Gatineau
1038,Jeux d'eau Jardins-Lavignes,Piscine,45.417345,-75.839603,250 Avenue du Bois-Franc,Gatineau
1039,Jeux d'eau Kenneth-Llyod,Piscine,45.383729,-75.807704,26 Rue Arthur-Whelan,Gatineau
1040,Jeux d'eau Louis-Roy,Piscine,45.384188,-75.831254,5 Rue Louis-Roy,Gatineau
1041,Jeux d'eau Robert-Stewart,Piscine,45.398377,-75.800038,56 Rue Lynn,Gatineau
1042,Jeux d'eau Lions,Piscine,45.579491,-75.423766,674 Rue Bergeron,Gatineau
1043,Jeux d'eau Joseph,Piscine,45.591371,-75.411768,181 Rue Joseph,Gatineau
1044,Jeux d'eau Vignobles,Piscine,45.504182,-75.671222,449 Rue Nobert,Gatineau
1045,Jeux d'eau Édouard-Mercier,Piscine,45.486254,-75.670059,555 Rue Gouin,Gatineau
1046,Jeux d'eau Joseph-H-Maloney,Piscine,45.505,-75.634909,Rue Davidson Est,Gatineau
1047,Jeux d'eau Laflèche,Piscine,45.476913,-75.684954,181 Rue de Lausanne,Gatineau
1048,Jeux d'eau Marcel-Gladu,Piscine,45.484323,-75.710091,81 Rue de Bourassa,Gatineau
1049,Jeux d'eau Racicot,Piscine,45.480003,-75.631713,77 Rue Sabourin,Gatineau
1050,Jeux d'eau Raymond-Madore,Piscine,45.505645,-75.606776,160 Rue des Fleurs,Gatineau
1051,Jeux d'eau René-Lévesque,Piscine,45.497628,-75.738068,288 Chemin Lebaudy,Gatineau
1052,Jeux d'eau Riviera,Piscine,45.474476,-75.724203,22 Rue d'Auvergne,Gatineau
1053,Jeux d'eau Saint-René,Piscine,45.491243,-75.646957,238 Boulevard Saint-René Est,Gatineau
1054,Jeux d'eau Bisson,Piscine,45.455995,-75.756073,36(A) Rue Thérien,Gatineau
1055,Jeux d'eau Daniel-Johnson,Piscine,45.46613,-75.746528,54 Rue Tassé,Gatineau
1056,Jeux d'eau Hautes-Plaines,Piscine,45.472726,-75.764964,479 Boulevard des Hautes-Plaines,Gatineau
1057,Jeux d'eau Trembles,Piscine,45.426401,-75.767698,150 Boulevard des Trembles,Gatineau
1058,Jeux d'eau Desjardins,Piscine,45.444526,-75.717286,1 Rue Goyette,Gatineau
1059,Jeux d'eau Gabbro,Piscine,45.480089,-75.79103,79 Rue du Gabbro,Gatineau
1060,Jeux d'eau Plateau,Piscine,45.439368,-75.7828,155 Rue de l'Atmosphère,Gatineau
1061,Jeux d'eau Dupuis,Piscine,45.435083,-75.718571,50 Rue Isidore-Ostiguy,Gatineau
1062,École des Cavaliers,École primaire,45.399485,-75.800315,120 Rue Nancy-Elliott,Gatineau
1063,Jeux d'eau Jean-Dallaire,Piscine,45.426608,-75.727273,33 Rue Hanson,Gatineau
1064,Jeux d'eau Larocque,Piscine,45.436594,-75.736915,2 Rue Fortier,Gatineau
1065,Jeux d'eau Laurent-Groulx,Piscine,45.445865,-75.739947,1 Rue Lévesque,Gatineau
1066,Jeux d'eau Central,Piscine,45.433958,-75.80098,205 Rue de Bruxelles,Gatineau
1067,Jeux d'eau l'Érablière,Piscine,45.559248,-75.438469,185 Rue des Samares,Gatineau
1068,Jeux d'eau Gilles-Maisonneuve,Piscine,45.526364,-75.488669,1100 Rue Yvon-Pichette,Gatineau
1069,Jeux d'eau Marc-Gosselin,Piscine,45.536631,-75.483314,1109 Rue de Neuville,Gatineau
1070,Monument place du Portugal,Monument et site historique,45.430111,-75.72603,14 Rue Papineau,Gatineau
1071,Chalet de tennis de l'ile,Centre communautaire,45.437046,-75.724018,305 Rue Saint-Rédempteur,Gatineau
1072,Parc Lucien-Gendron,Autre parc,45.509873,-75.573417,1717 Boulevard Saint-René Est,Gatineau
1073,Parc du 8 octobre 1906,Autre parc,45.580011,-75.401387,771 Rue Maclaren Est,Gatineau
1074,Domaine Fairview,Parc récréatif,45.444286,-75.738911,100 rue Gamelin,Gatineau
1075,Parc du Britannia,Autre parc,45.41305,-75.827813,75 Rue du Britannia,Gatineau
1076,Parc de la Spartan,Autre parc,45.407457,-75.873781,25 Rue de la Spartan,Gatineau
1077,Parc du Carcajou,Autre parc,45.414567,-75.852052,100 Rue du Carcajou,Gatineau
1078,Parc Jean-Baptiste-Routhier,Autre parc,45.545393,-75.437673,205 Rue Jean-Baptiste-Routhier,Gatineau
1079,Service de garde en milieu familial - Ghada Larbi,Service de garderie,45.521584,-75.485739,140 Rue des Becs-Scie,Gatineau
1080,Service de garde en milieu familial - Isabelle Cadieux,Service de garderie,45.526907,-75.496543,1256 Rue des Laurentides,Gatineau
1081,Service de garde en milieu familial - Christelle Dupont,Service de garderie,45.526337,-75.485522,103 Rue Burke,Gatineau
1082,Service de garde en milieu familial - Isabelle Hart,Service de garderie,45.529595,-75.487466,396 Rue de Castillon,Gatineau
1083,Parc Edgar-Degas,Autre parc,45.501914,-75.612461,132 Rue Edgar-Degas,Gatineau
1084,Service de garde en milieu familial - Josée Camirand,Service de garderie,45.524205,-75.498211,118 Rue d'Albion,Gatineau
1085,Service de garde en milieu familial - Josée Céré,Service de garderie,45.531396,-75.482139,184 Rue de Bourgneuf,Gatineau
1086,Service de garde en milieu familial - Lisette Gagné,Service de garderie,45.525115,-75.493287,1133 Rue de Genève,Gatineau
1087,Service de garde en milieu familial - Isabelle Renaud,Service de garderie,45.517031,-75.521693,155 Chemin Mongeon,Gatineau
1088,Service de garde en milieu familial - Chantal Simard,Service de garderie,45.53483,-75.487581,1147 Rue de Neuville,Gatineau
1089,Service de garde en milieu familial - Emilie Moreau,Service de garderie,45.530952,-75.490752,38 Rue de Bergerac,Gatineau
1090,Service de garde en milieu familial - Linda Robinson,Service de garderie,45.524716,-75.496983,140 Rue d'Arizona,Gatineau
1091,Service de garde en milieu familial - Nathalie Poirier,Service de garderie,45.520379,-75.493641,118 Rue des Sarcelles,Gatineau
1092,Service de garde en milieu familial - Chantal Richer,Service de garderie,45.533999,-75.484218,184 Rue de l'Hermitage,Gatineau
1093,Service de garde en milieu familial - Jocelyne Parent,Service de garderie,45.528207,-75.482088,152 Rue des Hauts-Bois,Gatineau
1094,Service de garde en milieu familial - Francine Béliar,Service de garderie,45.558247,-75.436385,113 Rue des Liards,Gatineau
1095,Service de garde en milieu familial - Julie Boisvenue,Service de garderie,45.569867,-75.42759,42 Rue Scullion,Gatineau
1096,Service de garde en milieu familial - Irène Labelle,Service de garderie,45.571237,-75.43264,295 Rue Bertrand,Gatineau
1097,Service de garde en milieu familial - Josée Cloutier,Service de garderie,45.556374,-75.437331,135 Rue des Samares,Gatineau
1098,Service de garde en milieu familial - Sylvie Chénier,Service de garderie,45.579436,-75.403755,11 Rue Élisabeth-Chauvin,Gatineau
1099,Service de garde en milieu familial - Judith Giroux,Service de garderie,45.560251,-75.432284,144 Rue des Pins-Blancs,Gatineau
1100,Service de garde en milieu familial - Danielle Pépin,Service de garderie,45.546914,-75.415282,5 Rue Saint-Gérard,Gatineau
1101,Service de garde en milieu familial - Julie Charlebois,Service de garderie,45.579282,-75.424922,662 Rue Hayes,Gatineau
1102,Service de garde en milieu familial - Jacqueline Tremblay,Service de garderie,45.535354,-75.488198,111 Rue de Pomerol,Gatineau
1103,Service de garde en milieu familial - Carole Charrette,Service de garderie,45.545422,-75.420282,4 rue des Servantes,Gatineau
1104,Service de garde en milieu familial - Josée Bouchard,Service de garderie,45.569012,-75.42908,910 Rue Albert-Fillion,Gatineau
1105,Service de garde en milieu familial - Julie Levasseur,Service de garderie,45.548356,-75.407687,25 Rue Bouchard,Gatineau
1106,Service de garde en milieu familial - Mélanie Laurin,Service de garderie,45.586723,-75.420271,507 Rue Georges,Gatineau
1107,Service de garde en milieu familial - Marie-Ève Bourassa-Demers,Service de garderie,45.571794,-75.428751,104 Rue Scullion,Gatineau
1108,Service de garde en milieu familial - Michelle Thibault,Service de garderie,45.527631,-75.4859,144 Rue Laurette-Routhier,Gatineau
1109,Service de garde en milieu familial - Josée Paquette,Service de garderie,45.580594,-75.399571,39 Impasse Moïse-Gauthier,Gatineau
1110,Service de garde en milieu familial - Joanne Ledoux,Service de garderie,45.591664,-75.410329,447 Rue de la Scierie,Gatineau
1111,Service de garde en milieu familial - Lyne Juneau,Service de garderie,45.578868,-75.434509,5 Rue Lucien-Mongeon,Gatineau
1112,Service de garde en milieu familial - Sylvie Gravel,Service de garderie,45.576849,-75.433285,68 Rue Tremblay,Gatineau
1113,Service de garde en milieu familial - Francine Trottier,Service de garderie,45.546212,-75.417768,5 Rue Saint-Pierre,Gatineau
1114,Service de garde en milieu familial - Nathalie Hart,Service de garderie,45.558646,-75.430447,151 Rue Georges,Gatineau
1115,Service de garde en milieu familial - Guylaine St-Louis,Service de garderie,45.569624,-75.431226,40 Rue Miner,Gatineau
1116,Service de garde en milieu familial - Mélanie Sabourin,Service de garderie,45.569798,-75.424808,910 Rue Georges,Gatineau
1117,Service de garde en milieu familial - Nancy Joly,Service de garderie,45.585495,-75.394675,615 Rue Matte,Gatineau
1118,Service de garde en milieu familial - Carole Cyr,Service de garderie,45.578827,-75.437329,99 Rue Walker,Gatineau
1119,Service de garde en milieu familial - Bianka Côté,Service de garderie,45.594857,-75.409214,204 Rue Pigeon,Gatineau
1120,Service de garde en milieu familial - Marie-Claude Grégoire,Service de garderie,45.559576,-75.434576,217 Rue des Peupliers,Gatineau
1121,Service de garde en milieu familial - Sonia Cyr,Service de garderie,45.574154,-75.429078,179 Rue Pierre-Laporte,Gatineau
1122,Service de garde en milieu familial - Rosario Cardoso,Service de garderie,45.574983,-75.435004,712 Rue Brisebois,Gatineau
1123,Service de garde en milieu familial - Linda St-Jacques,Service de garderie,45.585909,-75.411222,159 Rue Paluck,Gatineau
1124,Service de garde en milieu familial - Louise Beniskos,Service de garderie,45.547329,-75.411064,122 Rue Dugal,Gatineau
1125,Service de garde en milieu familial - Annick Bertrand,Service de garderie,45.578107,-75.398883,53 Rue Yvon-Lamontagne,Gatineau
1126,Service de garde en milieu familial - Carole Ringuette,Service de garderie,45.555986,-75.436682,128 Rue des Samares,Gatineau
1127,Pavillon La Vérendrye,Centre communautaire,45.504441,-75.652254,730 Rue Main,Gatineau
1128,École de la Forêt,École primaire,45.415498,-75.845559,219 Avenue du Bois-Franc,Gatineau
1129,Association Récréative De Gatineau,Autres lieux d'assemblée pour les loisirs,45.484098,-75.65353,195 Boulevard Maloney Ouest,Gatineau
1130,Résidences Wilfrid-Lavigne 2,"Résidence pour personnes âgées(Type ""Familiale"")",45.398384,-75.838873,437 Boulevard Wilfrid-Lavigne,Gatineau
1131,Résidence de la Gappe Phase 3,Résidence pour personnes âgées,45.480197,-75.698413,485 Boulevard de la Gappe,Gatineau
1132,Quai-des-Légendes,Marina,45.456827,-75.689926,1030 Rue Jacques-Cartier,Gatineau
1133,Quai-Belle-Isle,Marina,45.470407,-75.675679,1420 Rue Jacques-Cartier,Gatineau
1134,Quai-des-Cageux,Marina,45.455547,-75.694112,930 Rue Jacques-Cartier,Gatineau
1135,Quai-Claircée,Marina,45.457881,-75.688688,1100 Rue Jacques-Cartier,Gatineau
1136,Quai de la Pointe,Marina,45.459169,-75.687332,1134 Rue Jacques-Cartier,Gatineau
1137,Quai-Bellevue,Marina,45.460476,-75.685792,1170 Rue Jacques-Cartier,Gatineau
1138,Lieu d'enfouissement Sanitaire Cook,Site d'enfouissement,45.461599,-75.851454,1050 Chemin Cook,Gatineau
1139,Maison des Patrouilleurs (Impératif Français),Autres infrastructure,45.399021,-75.849706,46 Chemin Eardley,Gatineau
1140,Ancienne Caserne 8,Autres infrastructure,45.523552,-75.491483,257 Rue du Progrès,Gatineau
1141,Pavillon La Baie,Autres infrastructure,45.457256,-75.691711,1027 Rue Jacques-Cartier,Gatineau
1142,Maison du Tourisme,Autres infrastructure,45.431837,-75.709977,103 Rue Laurier,Gatineau
1143,Chalet de service du camping Guertin,Centre communautaire,45.432832,-75.725652,360 Boulevard des Allumettières,Gatineau
1144,Maison des Jeunes Sanscartier,Édifice communautaire,45.478783,-75.639297,42 Rue Sanscartier,Gatineau
1145,Pavillon du centre nautique de la Liève,Édifice communautaire,45.596264,-75.41986,255 Avenue de Buckingham,Gatineau
1146,Ancienne Caserne 6,Autres infrastructure,45.492275,-75.647695,230 Boulevard Saint-René Est,Gatineau
1147,Maison Farley,Autres infrastructure,45.397953,-75.814019,495 Chemin d'Aylmer,Gatineau
1148,Chalet des Lions,Édifice communautaire,45.579046,-75.423748,674 Rue Bergeron,Gatineau
1149,Chalet Beauchampville,Édifice communautaire,45.568411,-75.424209,930 Rue Georges,Gatineau
1150,Chalet Marcel-Gladu (balle),Édifice communautaire,45.483658,-75.709209,81 Rue de Bourassa,Gatineau
1151,Chalet Sanscartier,Édifice communautaire,45.478991,-75.64018,5 Rue Sanscartier,Gatineau
1152,Chalet Saint-Jean,Édifice communautaire,45.433495,-75.740689,40 Rue Labelle,Gatineau
1153,Chalet Gilbert-Garneau,Édifice communautaire,45.464454,-75.706921,74 Rue Moreau,Gatineau
1154,Chalet Bisson,Édifice communautaire,45.456548,-75.75552,36(A) Rue Thérien,Gatineau
1155,Chalet Le Coteau,Édifice communautaire,45.469514,-75.706603,60 Rue Louis-Riel,Gatineau
1156,Chalet de service des Trembles,Édifice communautaire,45.426058,-75.769051,180 Boulevard des Trembles,Gatineau
1157,Chalet Saint-Cœur de Marie,Édifice communautaire,45.479881,-75.723755,70 Avenue Gatineau,Gatineau
1158,Chalet Rivièra (tennis),Édifice communautaire,45.473472,-75.723925,54 Rue de Grenoble,Gatineau
1159,Chalet Hétu,Édifice communautaire,45.489492,-75.654696,333 Rue Hétu,Gatineau
1160,Chalet Jack-Eyamie,Édifice communautaire,45.542576,-75.414363,40 Rue du Bassin,Gatineau
1161,Chalet Marcel-Gladu (patinoire),Édifice communautaire,45.483759,-75.709198,81 Rue de Bourassa,Gatineau
1162,Chalet Georges-Étienne-Cartier,Édifice communautaire,45.476368,-75.716143,36 Rue de Savoie,Gatineau
1163,Chalet Rivièra #1,Édifice communautaire,45.474263,-75.72563,22 Rue d'Auvergne,Gatineau
1164,Chalet Raymond-Madore,Édifice communautaire,45.506215,-75.606255,160 Rue des Fleurs,Gatineau
1165,Chalet Des Cèdres (balle #2),Édifice communautaire,45.399669,-75.859143,15 Rue Raoul-Roy,Gatineau
1166,Chalet Gendron,Édifice communautaire,45.596659,-75.416641,130 Rue Judge,Gatineau
1167,Chalet Martin-Larouche,Édifice communautaire,45.487451,-75.595373,984 Rue Notre-Dame,Gatineau
1168,Chalet McAndrew # 2,Édifice communautaire,45.582566,-75.408851,170 Rue John F.-Kennedy,Gatineau
1169,Chalet Larocque,Édifice communautaire,45.436163,-75.736858,2 Rue Fortier,Gatineau
1170,Chalet Desnoyers,Édifice communautaire,45.496729,-75.663322,534 Rue Jacques-Poulin,Gatineau
1171,Chalet Pierre-Laporte (tennis),Édifice communautaire,45.494359,-75.67034,489 Rue Antoine,Gatineau
1172,Chalet Louis-Philion,Édifice communautaire,45.492343,-75.604562,13 Rue du Curé-Labelle,Gatineau
1173,Chalet Des Cèdres (balle #1),Édifice communautaire,45.399223,-75.859043,15 Rue Raoul-Roy,Gatineau
1174,Chalet Robitaille,Édifice communautaire,45.580659,-75.409531,145 Rue Churchill,Gatineau
1175,Chalet l'Oiseau-Bleu,Édifice communautaire,45.485623,-75.693604,110 Avenue de la Drave,Gatineau
1176,Chalet Tecumseh,Édifice communautaire,45.475297,-75.678909,280 Chemin de la Savane,Gatineau
1177,Chalet Gilles-Maisonneuve,Édifice communautaire,45.526346,-75.488446,1100 Rue Yvon-Pichette,Gatineau
1178,Chalet R.W.-Scullion,Édifice communautaire,45.593442,-75.418832,265 Avenue de Buckingham,Gatineau
1179,Chalet Rivièra #2,Édifice communautaire,45.474314,-75.725444,22 Rue d'Auvergne,Gatineau
1180,Chalet Wychwood (tennis),Édifice communautaire,45.386316,-75.841143,39 Rue Lake,Gatineau
1181,Chalet Saint-René,Édifice communautaire,45.49204,-75.647007,238 Boulevard Saint-René Est,Gatineau
1182,Chalet McAndrew # 1,Édifice communautaire,45.582472,-75.409179,170 Rue John F.-Kennedy,Gatineau
1183,Chalet Saint-Rosaire,Édifice communautaire,45.470643,-75.688701,52 Rue Saint-Rosaire,Gatineau
1184,Chalet Aydelu (balle),Édifice communautaire,45.39179,-75.844803,20 Rue Court,Gatineau
1185,Pont Roland-Houet,Pont,45.499891,-75.604579,Rue Sainte-Marthe,Gatineau
1186,Pont des Bénévoles,Pont,45.503072,-75.600554,,Gatineau
1187,Complexe Jeunesse,Centre communautaire,45.535967,-75.483661,1111 Rue de Neuville,Gatineau
1188,Centre Académique de l'Outaouais,École secondaire,45.485518,-75.605878,858 Boulevard Maloney Est,Gatineau
1189,Pavillon Ernest-Gaboury,Centre communautaire,45.491732,-75.699083,100 Rue de Morency,Gatineau
1190,Stationnement Morin,Terrain de stationnement pour automobiles,45.429836,-75.725948,10 Rue Papineau,Gatineau
1191,Stationnement du port de plaisance Jacques-Cartier,Terrain de stationnement pour automobiles,45.432136,-75.708596,120 Rue Laurier,Gatineau
1192,Stationnement du Carrefour,Terrain de stationnement pour automobiles,45.431825,-75.731694,50 Rue Lois,Gatineau
1193,Stationnement Leduc,Terrain de stationnement pour automobiles,45.425681,-75.718567,15 Rue Leduc,Gatineau
1194,Stationnement Centre Robert-Guertin,Terrain de stationnement pour automobiles,45.434735,-75.72456,125 Rue Carillon,Gatineau
1195,Stationnement La Fonderie,Terrain de stationnement pour automobiles,45.429419,-75.73026,211 Rue Montcalm,Gatineau
1196,Stationnement du Théâtre de l'Ile,Terrain de stationnement pour automobiles,45.426146,-75.724354,1 Rue Wellington,Gatineau
1197,Stationnement Montcalm,Terrain de stationnement pour automobiles,45.426913,-75.724756,69 Rue Montcalm,Gatineau
1198,Sationnement souterrain de la Maison du citoyen,Terrain de stationnement pour automobiles,45.428245,-75.710833,25 Rue Laurier,Gatineau
1199,Résidence La Famille,Résidence pour personnes âgées,45.543628,-75.43448,365 Rue Jean-Baptiste-Routhier,Gatineau
1200,Maison Louis-Joseph,Résidence pour personnes âgées,45.448687,-75.744768,22 Rue Isabelle,Gatineau
1201,Manoir Le Buckingham Inc.,Résidence pour personnes âgées,45.58129,-75.422899,625 Rue Georges,Gatineau
1202,Résidence St-Amour,"Résidence pour personnes âgées(Type ""Familiale"")",45.508598,-75.574145,77 Rue des Frères-Vachon,Gatineau
1203,Les Conifères,Résidence pour personnes âgées,45.478805,-75.639216,105 Rue des Conifères,Gatineau
1204,Place du Centenaire,Autre parc,45.586562,-75.416995,519 Avenue de Buckingham,Gatineau
1205,Capitainerie,Marina,45.395108,-75.857023,3 Rue Principale,Gatineau
1206,Service de garde en milieu familial - Marijo Clément,Service de garderie,45.596486,-75.418861,110 Rue Judge,Gatineau
1207,Service de garde en milieu familial - Jessica Lapratte,Service de garderie,45.559061,-75.43445,229 Rue des Peupliers,Gatineau
1208,Plage du Lac-beauchamp,Plages,45.490856,-75.622254,745 Boulevard Maloney Est,Gatineau
1209,Plage du Lac-Lemay,Plages,45.451609,-75.719921,100 Promenade du Lac-Leamy,Gatineau
1210,Plage des Cèdres,Plages,45.39748,-75.859924,15 Rue Raoul-Roy,Gatineau
1211,Plage Moussette,Plages,45.418898,-75.749034,361 Boulevard de Lucerne,Gatineau
1212,Jeux d'eau Shamal,Piscine,45.447406,-75.787213,30 Rue du Shamal,Gatineau
1213,Garderie préscolaire l'excellence,Service de garderie,45.487222,-75.743763,2291 Rue Saint-Louis,Gatineau
1214,CPE Coop Libelle 2,Service de garderie,45.461112,-75.769065,365 Boulevard de la Cité-des-Jeunes,Gatineau
1215,Garderie de Laverendrye,Service de garderie,45.503889,-75.697246,1050 Boulevard Gréber,Gatineau
1216,Garderie Aurora,Service de garderie,45.38585,-75.80549,82 Chemin Vanier,Gatineau
1217,Garderie la crèche et plus,Service de garderie,45.459635,-75.74229,174 Rue Isabelle,Gatineau
1218,Garderie Planète Kids (Hull),Service de garderie,45.427063,-75.76268,260 Boulevard Saint-Raymond,Gatineau
1219,Garderie préscolaire Montessori de Gatineau,Service de garderie,45.458698,-75.742285,755 Boulevard Saint-Joseph,Gatineau
1220,Garderie de la Mignonette,Service de garderie,45.503909,-75.697055,1054 Boulevard Gréber,Gatineau
1221,Garderie Mira,Service de garderie,45.424432,-75.761836,380 Boulevard Saint-Raymond,Gatineau
1222,Garderie Centre éducatif La Passerelle,Service de garderie,45.456444,-75.7386,184 rue Mutchmore,Gatineau
1223,Garderie Petit Jacob2,Service de garderie,45.450364,-75.744949,42 Rue Isabelle,Gatineau
1224,Garderie la petite école de mon quartier,Service de garderie,45.407769,-75.83825,584 Boulevard Wilfrid-Lavigne,Gatineau
1225,Garderie Centre éducatif à pas de géant,Service de garderie,45.492325,-75.597562,10 Rue Chiasson,Gatineau
1226,Garderie la petite école vision Gatineau,Service de garderie,45.469473,-75.736266,1040 Boulevard Saint-Joseph,Gatineau
1227,Service de garde l'héritage du vieux-Aylmer,Service de garderie,45.394385,-75.850033,46 Rue Principale,Gatineau
1228,Garderie la crèche et plus 2,Service de garderie,45.430995,-75.72023,172 Rue Eddy,Gatineau
1229,Garderie le jardin d'Amélie,Service de garderie,45.446921,-75.746419,136 Boulevard Saint-Raymond,Gatineau
1230,Garderie sous l'océan inc,Service de garderie,45.590755,-75.410177,189 rue Joseph,Gatineau
1231,Garderie mon petit cosmos,Service de garderie,45.419392,-75.849881,270 Rue Maurice-Duplessis,Gatineau
1232,CPE des Premiers pas (Taschereau),Service de garderie,45.4351,-75.733561,4 Rue Taschereau,Gatineau
1233,Garderie la boite à surprises,Service de garderie,45.421849,-75.747158,2 Rue Saint-François,Gatineau
1234,Garderie éducative les poussins fantastiques,Service de garderie,45.419501,-75.80993,540 Chemin Vanier,Gatineau
1235,École de la Petite-Ourse,École primaire,45.42342,-75.857577,245 Rue du Raton-Laveur,Gatineau
1236,Garderie Montessori du Connaught,Service de garderie,45.401859,-75.799314,365 Avenue de l'Hippodrome,Gatineau
1237,Garderie la douceur de l'enfance,Service de garderie,45.443391,-75.801047,"1910 Chemin Pink, bureau 103",Gatineau
1238,Résidence Blanchard,Résidence pour personnes âgées,45.476189,-75.674941,230 Rue de Fontenelle,Gatineau
1239,Résidence Maison des sages,Résidence pour personnes âgées,45.543577,-75.436766,308 Rue Jean-Baptiste-Routhier,Gatineau
1240,Le District,Résidence pour personnes âgées,45.387904,-75.802384,50 Impasse Lady-Colborne,Gatineau
1241,Résidence l'Initial,Résidence pour personnes âgées,45.397008,-75.837761,300 Boulevard Wilfrid-Lavigne,Gatineau
1242,Résidence Rokia,Résidence pour personnes âgées,45.477254,-75.67494,72 Rue de Galifet,Gatineau
1243,École Cheval blanc,École primaire,45.497595,-75.582475,173 Rue de la Châteauguay,Gatineau
1244,Service de garde en milieu familial - Bianka Côté,Service de garderie,45.584621,-75.421397,585 Rue Georges,Gatineau
1245,Service de garde en milieu familial - Josée Charlebois,Service de garderie,45.558885,-75.435985,123 Rue des Châtaigniers,Gatineau
1246,Service de garde en milieu familial - Isabelle Cadieux,Service de garderie,45.528536,-75.494805,29 Rue du Muguet,Gatineau
1247,Service de garde en milieu familial - Sara Massie,Service de garderie,45.585948,-75.393496,138 Rue Sicard,Gatineau
1248,Service de garde en milieu familial - Francine Bélair,Service de garderie,45.57875,-75.40087,780 Rue Maclaren Est,Gatineau
1249,Future école secondaire 041,École secondaire,45.43505,-75.804033,495 Boulevard du Plateau,Gatineau
1250,Jeux d'eau Saint-Gérard,Piscine,45.494881,-75.580899,1259 Boulevard Maloney Est,Gatineau
1251,Jeux d'eau Roberval,Piscine,45.526699,-75.628964,140 Rue de Roberval,Gatineau
1252,Service de garde en milieu familial - Martine Paquin,Service de garderie,45.577171,-75.43405,57 Rue Tremblay,Gatineau
1253,Aire de pique-nique Lauriault,À compléter,45.484317,-75.858791,Stationnement Lauriault,Gatineau
1254,Belvédère Lac Pink,À compléter,45.468867,-75.811342,Lac Pink,Gatineau
1255,Belvédère La chute,À compléter,45.481103,-75.859692,,Gatineau
1256,Belvédère Larriault,À compléter,45.477092,-75.852285,,Gatineau
1257,Belvédère Lac Pink,À compléter,45.466964,-75.808757,Lac Pink,Gatineau
1258,Aire de pique-nique Domaine Mackenzie-King,À compléter,45.483246,-75.847342,Stationnement Domaine Mackenzie-King,Gatineau
1259,Belvédère Lac des Fées,À compléter,45.438475,-75.752017,Lac des Fées,Gatineau
1260,Belvédère Lac Pink,À compléter,45.469442,-75.808176,Lac Pink,Gatineau
1261,Belvédère Lac des Fées,À compléter,45.438231,-75.75171,Lac des Fées,Gatineau
1262,Belvédère Lac des Fées,À compléter,45.438795,-75.752164,Lac des Fées,Gatineau
1263,Aire de pique-nique Mulvihill,À compléter,45.483889,-75.855718,Stationnement Mulvihill,Gatineau
1264,Pont Boyce,Pont,45.498628,-75.60524,Boulevard Saint-René Est,Gatineau
1265,Bibliothèque Donalda-Charron,Bibliothèque,45.434449,-75.800356,255 Rue de Bruxelles,Gatineau
1266,"Légion Canadienne Filiale 054, Buckingham","Association civique, sociale et fraternelle",45.589883,-75.411359,176 rue Joseph,Gatineau
1267,Association sportive les Braves du coin,"Association civique, sociale et fraternelle",45.429503,-75.724399,8 rue des Braves-Du-Coin,Gatineau
1268,Chevaliers de Colomb Conseil 1693,"Association civique, sociale et fraternelle",45.45448,-75.739974,690 boulevard Saint-Joseph,Gatineau
1269,"Légion Canadienne Filiale 033, Aylmer","Association civique, sociale et fraternelle",45.395931,-75.847,59 rue Bancroft,Gatineau
1270,Chevaliers de Colomb Conseil 2056,"Association civique, sociale et fraternelle",45.588404,-75.413835,480 rue des Pins,Gatineau
1271,"Légion Canadienne Filiale 227, Norris","Association civique, sociale et fraternelle",45.483922,-75.655329,231 boulevard Maloney Ouest,Gatineau
1272,Chevaliers de Colomb Conseil 12189,"Association civique, sociale et fraternelle",45.436022,-75.733806,245 Boulevard Saint-Joseph,Gatineau
1273,Église Saint-Alexandre,Lieu de culte,45.493203,-75.753192,1 Chemin des Érables,Gatineau
1274,"Légion Canadienne Filiale 058, Gatineau","Association civique, sociale et fraternelle",45.460375,-75.696714,86 rue de la Baie,Gatineau
1275,Chevaliers de Colomb Conseil 2880,"Association civique, sociale et fraternelle",45.469958,-75.689568,5 Rue Saint-Arthur,Gatineau
1276,Chevaliers de Colomb Conseil 5281,"Association civique, sociale et fraternelle",45.3944,-75.84675,78 rue Principale,Gatineau
1277,Centre Slush Puppie,Centre sportif,45.483125,-75.679395,500 boulevard de la Cité,Gatineau
1278,Stationnement Slush Puppie,Terrain de stationnement pour automobiles,45.48374,-75.678383,540 boulevard de la Cité,Gatineau
1279,Parc d'Amsterdam,Parc récréatif,45.430854,-75.814115,205 Boulevard d'Amsterdam,Gatineau
1280,Place des Contremaîtresses,À compléter,45.423615,-75.71864,25 Jos-Montferrand,Gatineau
