"þÿ""School #""",School name,Division Name,Division Code,Address Line 1,Address Line 2,city,postalCode,email,infoString,gradeString,trackString,fax,phone,ISCED010,ISCED020,ISCED1,ISCED2,ISCED3
1653,HOLY GHOST SCHOOL,ARCH. OF WINNIPEG CATHOLIC SCHOOLS,181,319 SELKIRK AVENUE,,WINNIPEG,R2W 2L8,schooloffice@holyghostschool.ca,( 14)-1653-0181, K-8, ,2045824870.0,2045821053,0,1,1,1,0
1241,OUR LADY OF VICTORY SCHOOL,ARCH. OF WINNIPEG CATHOLIC SCHOOLS,181,249 ARNOLD AVENUE,,WINNIPEG,R3L 0W4,olv@victoryedu.com,(  9)-1241-0181, K-8, ,2044533081.0,2044527632,0,1,1,1,0
1244,ST. CHARLES INTERPAROCHIAL SCHOOL,ARCH. OF WINNIPEG CATHOLIC SCHOOLS,181,331 ST. CHARLES STREET,,WINNIPEG,R3K 1T6,sec@stccs.ca,( 21)-1244-0181, K-8, ,2048372326.0,2048371520,0,1,1,1,0
1430,ST. EDWARD'S SCHOOL,ARCH. OF WINNIPEG CATHOLIC SCHOOLS,181,836 ARLINGTON STREET,,WINNIPEG,R3E 2E4,stedwardssecretary@mts.net,( 11)-1430-0181, K-6, ,2047750011.0,2047748773,0,1,1,0,0
1829,ST. IGNATIUS SCHOOL,ARCH. OF WINNIPEG CATHOLIC SCHOOLS,181,239 HARROW STREET,,WINNIPEG,R3M 2Y3,school@stignatius.mb.ca,( 14)-1829-0181, N-8, ,2044753961.0,2044751386,1,1,1,1,0
1729,ST. JOHN BREBEUF SCHOOL,ARCH. OF WINNIPEG CATHOLIC SCHOOLS,181,605 RENFREW STREET,,WINNIPEG,R3N 1J8,schooloffice@sjbcommunity.ca,( 18)-1729-0181, K-8, ,2049287455.0,2044892115,0,1,1,1,0
1478,ST. MARY'S ACADEMY,ARCH. OF WINNIPEG CATHOLIC SCHOOLS,181,550 WELLINGTON CRESCENT,,WINNIPEG,R3M 0C1,,( 42)-1478-0181, 7-12, ,2044532417.0,2044770244,0,0,0,1,1
1232,ST. MAURICE SCHOOL,ARCH. OF WINNIPEG CATHOLIC SCHOOLS,181,1639 PEMBINA HIGHWAY,,WINNIPEG,R3T 2G6,info@stmaurice.mb.ca,( 39)-1232-0181, K-12, ,2044524050.0,2044534020,0,1,1,1,1
1832,ST. PAUL'S HIGH SCHOOL,ARCH. OF WINNIPEG CATHOLIC SCHOOLS,181,2200 GRANT AVENUE,,WINNIPEG,R3P 0P8,contact-us@stpauls.mb.ca,( 41)-1832-0181, 9-12, ,2048312340.0,2048312300,0,0,0,1,1
2202,ACADIA COLONY SCHOOL,BEAUTIFUL PLAINS SCHOOL DIVISION,153,BOX 358,,CARBERRY,R0K 0H0,,(  2)-2202-0153, K-12, ,2048343570.0,2048343524,0,1,1,1,1
1117,BROOKDALE SCHOOL,BEAUTIFUL PLAINS SCHOOL DIVISION,153,GENERAL DELIVERY,,BROOKDALE,R0K 0G0,bds@bpsd.mb.ca,(  3)-1117-0153, K-8, ,2043542346.0,2043542166,0,1,1,1,0
1434,CARBERRY COLLEGIATE,BEAUTIFUL PLAINS SCHOOL DIVISION,153,BOX 518,,CARBERRY,R0K 0H0,cci_office@bpsd.mb.ca,( 24)-1434-0153, 5-12, ,2048343440.0,2048342172,0,0,1,1,1
2098,FAIRWAY COLONY SCHOOL,BEAUTIFUL PLAINS SCHOOL DIVISION,153,P.O.BOX 330,,DOUGLAS,R0K 0R0,,(  1)-2098-0153, K-12, ,2047634234.0,2047634103,0,1,1,1,1
1292,HAZEL M. KELLINGTON SCHOOL,BEAUTIFUL PLAINS SCHOOL DIVISION,153,BOX 696,,NEEPAWA,R0J 1H0,hmk@bpsd.mb.ca,( 32)-1292-0153, K-5, ,2044763449.0,2044762323,0,1,1,0,0
1184,J. M. YOUNG SCHOOL,BEAUTIFUL PLAINS SCHOOL DIVISION,153,GENERAL DELIVERY,,EDEN,R0J 0M0,jmyoung@bpsd.mb.ca,(  4)-1184-0153, K-8, ,2049663508.0,2049663487,0,1,1,1,0
1573,NEEPAWA AREA COLLEGIATE,BEAUTIFUL PLAINS SCHOOL DIVISION,153,BOX 430,,NEEPAWA,R0J 1H0,naci_office@bpsd.mb.ca,( 41)-1573-0153, 6-12, ,2044762765.0,2044763305,0,0,1,1,1
2320,NEEPAWA MIDDLE SCHOOL,BEAUTIFUL PLAINS SCHOOL DIVISION,153,275 HOSPITAL STREET,,NEEPAWA,R0J 1H0,,()-2320-0153, 5-8, ,2040000000.0,2040000000,0,0,1,1,0
1645,R. J. WAUGH ELEMENTARY,BEAUTIFUL PLAINS SCHOOL DIVISION,153,BOX 639,,CARBERRY,R0K 0H0,rjw_office@bpsd.mb.ca,( 12)-1645-0153, K-4, ,2048343749.0,2048342828,0,1,1,0,0
1574,RIVERBEND COLONY SCHOOL,BEAUTIFUL PLAINS SCHOOL DIVISION,153,RIVERBEND COLONY,BOX 344,CARBERRY,R0K 0H0,riverbcs@bpsd.mb.ca,(  2)-1574-0153, K-12, ,2048343590.0,2048342266,0,1,1,1,1
1734,RIVERSIDE COLONY SCHOOL,BEAUTIFUL PLAINS SCHOOL DIVISION,153,RIVERSIDE COLONY,BOX 1360,NEEPAWA,R0J 1H0,riverside@bpsd.mb.ca,(  1)-1734-0153, K-12, ,2043682221.0,2043682263,0,1,1,1,1
2236,ROLLING ACRES SCHOOL,BEAUTIFUL PLAINS SCHOOL DIVISION,153,BOX 38,,BIRNIE,R0J 0J0,,(  1)-2236-0153, K-12, ,,2049663496,0,1,1,1,1
1221,SPRUCE WOODS SCHOOL,BEAUTIFUL PLAINS SCHOOL DIVISION,153,SPRUCE WOODS COLONY,,BROOKDALE,R0K 0G0,,(  3)-1221-0153, K-12, ,2043542008.0,2043542259,0,1,1,1,1
2127,TWILIGHT COLONY SCHOOL,BEAUTIFUL PLAINS SCHOOL DIVISION,153,BOX 2380,,NEEPAWA,R0J 1H0,twilight@bpsd.mb.ca,(  1)-2127-0153, K-12, ,2044763101.0,2044768837,0,1,1,1,1
1311,WILLERTON SCHOOL,BEAUTIFUL PLAINS SCHOOL DIVISION,153,SPRINGHILL COLONY,BOX 1930,NEEPAWA,R0J 1H0,willerton@bpsd.mb.ca,(  3)-1311-0153, K-12, ,2044765713.0,2044762740,0,1,1,1,1
2086,BLUE CLAY COLONY SCHOOL,BORDER LAND SCHOOL DIVISION,185,BOX 220,,DOMINION CITY,R0A 0H0,blueclay@blsd.ca,(  3)-2086-0185, K-12, ,2044273398.0,2044272315,0,1,1,1,1
1730,ÉCOLE ELMWOOD SCHOOL,BORDER LAND SCHOOL DIVISION,185,27 - 4TH STREET S.W.,,ALTONA,R0G 0B2,elmwood@blsd.ca,( 23)-1730-0185, K-3, IM,2043248167.0,2043248611,0,1,1,0,0
1721,ÉCOLE PARKSIDE SCHOOL,BORDER LAND SCHOOL DIVISION,185,155 - 5TH STREET N.W.,,ALTONA,R0G 0B1,parkside@blsd.ca,( 12)-1721-0185, 7-8, IM,2043248172.0,2043248206,0,0,0,1,0
1533,ÉCOLE WEST PARK SCHOOL,BORDER LAND SCHOOL DIVISION,185,83 - 3RD STREET  N.W.,,ALTONA,R0G 0B1,westpark@blsd.ca,( 15)-1533-0185, 4-6, IM,2043245229.0,2043245319,0,0,1,0,0
1177,EMERSON ELEMENTARY,BORDER LAND SCHOOL DIVISION,185,BOX 422,,EMERSON,R0A 0L0,emerson@blsd.ca,(  7)-1177-0185, K-8, ,2043732234.0,2043732624,0,1,1,1,0
1380,GLENWAY COLONY SCHOOL,BORDER LAND SCHOOL DIVISION,185,GLENWAY COLONY,BOX 291,DOMINION CITY,R0A 0H0,glenway@blsd.ca,(  4)-1380-0185, K-12, ,2044272205.0,2044272223,0,1,1,1,1
2290,GREEN RIDGE SCHOOL,BORDER LAND SCHOOL DIVISION,185,BOX 156,,DOMINION CITY,R0A 0H0,GREENRIDGE@BLSD.CA,(  3)-2290-0185, K-12, ,2044273879.0,2044273827,0,1,1,1,1
1786,GRETNA ELEMENTARY,BORDER LAND SCHOOL DIVISION,185,BOX 90,,GRETNA,R0G 0V0,gretna@blsd.ca,( 15)-1786-0185, K-8, ,2043275266.0,2043275344,0,1,1,1,0
2286,HORIZON COLONY SCHOOL,BORDER LAND SCHOOL DIVISION,185,120 - 9TH STREET NW,,ALTONA,R0G 0B1,horizon@bblsd.ca,(  2)-2286-0185, K-12, ,2040000000.0,2048293226,0,1,1,1,1
2122,PINELAND COLONY SCHOOL,BORDER LAND SCHOOL DIVISION,185,BOX 39,,PINEY,R0A 1K0,pineland@blsd.ca,(  3)-2122-0185, K-12, ,2044232022.0,2044232069,0,1,1,1,1
2123,RIDGEVILLE COLONY SCHOOL,BORDER LAND SCHOOL DIVISION,185,BOX 10,,DOMINION CITY,R0A 0H0,ridgeville@blsd.ca,(  2)-2123-0185, K-12, ,2043732652.0,2043732645,0,1,1,1,1
1658,ROSEAU VALLEY SCHOOL,BORDER LAND SCHOOL DIVISION,185,BOX 176,,DOMINION CITY,R0A 0H0,roseauvalley@blsd.ca,( 21)-1658-0185, K-12, ,2044272615.0,2044272143,0,1,1,1,1
1344,ROSENFELD ELEMENTARY,BORDER LAND SCHOOL DIVISION,185,BOX 33,,ROSENFELD,R0G 1X0,rosenfeld@blsd.ca,(  7)-1344-0185, K-6, ,2043246394.0,2043248438,0,1,1,0,0
1059,ROSS L. GRAY SCHOOL,BORDER LAND SCHOOL DIVISION,185,GENERAL DELIVERY,,SPRAGUE,R0A 1Z0,rosslgray@blsd.ca,( 13)-1059-0185, K-12, ,2044372893.0,2044372175,0,1,1,1,1
1551,SHEVCHENKO SCHOOL,BORDER LAND SCHOOL DIVISION,185,BOX 1000,,VITA,R0A 2K0,shevchenko@blsd.ca,( 26)-1551-0185, K-12, ,2044253064.0,2044253535,0,1,1,1,1
1778,W. C. MILLER COLLEGIATE,BORDER LAND SCHOOL DIVISION,185,181 - 6TH STREET S.E.,,ALTONA,R0G 0B3,wcmiller@blsd.ca,( 37)-1778-0185, 9-12, IM,2043248525.0,2043246416,0,0,0,1,1
1901,ALEXANDER SCHOOL,BRANDON SCHOOL DIVISION,119,BOX 21,,ALEXANDER,R0K 0A0,alexander@bsd.ca,( 11)-1901-0119, K-8, ,2047522395.0,2047522251,0,1,1,1,0
1325,BETTY GIBSON SCHOOL,BRANDON SCHOOL DIVISION,119,701 - 12TH STREET,,BRANDON,R7A 6H7,bettygibson@bsd.ca,( 26)-1325-0119, K-8, ,2047293969.0,2047293965,0,1,1,1,0
1302,CROCUS PLAINS REGIONAL SECONDARY,BRANDON SCHOOL DIVISION,119,1930 - 1ST STREET,,BRANDON,R7A 6Y6,crocusplains@bsd.ca,( 92)-1302-0119, 9-12, ,2047272162.0,2047293900,0,0,0,1,1
1371,EARL OXFORD SCHOOL,BRANDON SCHOOL DIVISION,119,540 - 18TH STREET,,BRANDON,R7A 5B2,earloxford@bsd.ca,( 35)-1371-0119, K-8, ,2047293278.0,2047293270,0,1,1,1,0
1449,ÉCOLE HARRISON,BRANDON SCHOOL DIVISION,119,415 AVENUE QUEENS,,BRANDON,R7A 1K9,harrison@bsd.ca,( 25)-1449-0119, K-8, IM,,2047293200,0,1,1,1,0
1007,GEORGE FITTON SCHOOL,BRANDON SCHOOL DIVISION,119,1129 - 3RD STREET,,BRANDON,R7A 3E7,georgefitton@bsd.ca,( 37)-1007-0119, K-8, ,2047277674.0,2047293220,0,1,1,1,0
1112,GREEN ACRES SCHOOL,BRANDON SCHOOL DIVISION,119,335 QUEENS AVENUE EAST,,BRANDON,R7A 2B9,greenacres@bsd.ca,( 18)-1112-0119, K-8, ,2047290345.0,2047293265,0,1,1,1,0
1270,J. R. REID SCHOOL,BRANDON SCHOOL DIVISION,119,813 - 26TH STREET,,BRANDON,R7B 2B6,jrreid@bsd.ca,( 22)-1270-0119, K-8, ,2047293958.0,2047293955,0,1,1,1,0
1660,KING GEORGE SCHOOL,BRANDON SCHOOL DIVISION,119,535 PARK STREET,,BRANDON,R7A 6M6,kinggeorge@bsd.ca,( 23)-1660-0119, K-8, ,2047293996.0,2047293990,0,1,1,1,0
1987,KIRKCALDY HEIGHTS SCHOOL,BRANDON SCHOOL DIVISION,119,10 KNOWLTON DRIVE,,BRANDON,R7A 6N7,kirkcaldyheights@bsd.ca,( 28)-1987-0119, K-8, ,2047293295.0,2047293290,0,1,1,1,0
1631,LINDEN LANES SCHOOL,BRANDON SCHOOL DIVISION,119,49 SILVER BIRCH DRIVE,,BRANDON,R7B 1A8,lindenlanes@bsd.ca,( 29)-1631-0119, K-8, ,2047293264.0,2047293260,0,1,1,1,0
1706,MEADOWS SCHOOL,BRANDON SCHOOL DIVISION,119,1220 - 22ND STREET,,BRANDON,R7B 1T4,meadows@bsd.ca,( 35)-1706-0119, K-8, ,2047293970.0,2047293988,0,1,1,1,0
1758,NEELIN HIGH,BRANDON SCHOOL DIVISION,119,1020 BRANDON AVENUE,,BRANDON,R7A 1K6,neelin@bsd.ca,( 58)-1758-0119, 9-12, IM,2047265813.0,2047293180,0,0,0,1,1
1215,NEW ERA SCHOOL,BRANDON SCHOOL DIVISION,119,527 LOUISE AVENUE,,BRANDON,R7A 0X1,newera@bsd.ca,( 40)-1215-0119, K-8, IM,,2047293161,0,1,1,1,0
1845,O'KELLY SCHOOL,BRANDON SCHOOL DIVISION,119,BOX 70,C.F.B.SHILO,SHILO,R0K 2A0,okelly@bsd.ca,( 19)-1845-0119, K-8, IM,2047652589.0,2047290399,0,1,1,1,0
1604,RIVERHEIGHTS SCHOOL,BRANDON SCHOOL DIVISION,119,32 E FOTHERINGHAM DRIVE,,BRANDON,R7B 3G3,riverheights@bsd.ca,( 41)-1604-0119, K-8, ,2047293213.0,2047293210,0,1,1,1,0
1603,RIVERVIEW SCHOOL,BRANDON SCHOOL DIVISION,119,1105 LOUISE AVENUE EAST,,BRANDON,R7A 1Y2,riverview@bsd.ca,( 19)-1603-0119, K-6, ,2047290334.0,2047290330,0,1,1,0,0
1037,SPRING VALLEY COLONY SCHOOL,BRANDON SCHOOL DIVISION,119,SPRING VALLEY COLONY,C/O 1031-6TH STREET,BRANDON,R7A 4K5,,(  3)-1037-0119, K-12, ,2047272217.0,2047290320,0,1,1,1,1
1593,ST. AUGUSTINE SCHOOL,BRANDON SCHOOL DIVISION,119,330 3RD ST,,BRANDON,R7A 3C3,staugustine@bsd.ca,( 17)-1593-0119, K-8, ,2047293286.0,2047293285,0,1,1,1,0
1700,VALLEYVIEW CENTENNIAL SCHOOL,BRANDON SCHOOL DIVISION,119,65 WHILLIER DRIVE,,BRANDON,R7B 0X8,valleyview@bsd.ca,( 20)-1700-0119, K-7, ,2047293953.0,2047293950,0,1,1,1,0
1880,VINCENT MASSEY HIGH,BRANDON SCHOOL DIVISION,119,715 MCDIARMID DRIVE,,BRANDON,R7B 2H7,vincentmassey@bsd.ca,( 68)-1880-0119, 9-12, ,2047290365.0,2047293170,0,0,0,1,1
2048,WAVERLY PARK SCHOOL,BRANDON SCHOOL DIVISION,119,3800 PARK AVENUE,,BRANDON,R7B 3X2,waverlypark@bsd.ca,( 30)-2048-0119, K-8, ,2047293255.0,2047293250,0,1,1,1,0
1482,CHRIST THE KING SCHOOL,CATHOLIC SCHOOLS COMMISSION,116,12 LENNOX AVENUE,,WINNIPEG,R2M 1A6,admin@ctkschool.ca,( 14)-1482-0116, N-8, ,2042572129.0,2042570027,1,1,1,1,0
1549,HOLY CROSS SCHOOL,CATHOLIC SCHOOLS COMMISSION,116,300 DUBUC STREET,,WINNIPEG,R2H 1E4,office@holycrossschool.mb.ca,( 17)-1549-0116, K-8, ,2042377433.0,2042374936,0,1,1,1,0
1523,IMMACULATE HEART OF MARY SCHOOL,CATHOLIC SCHOOLS COMMISSION,116,650 FLORA AVENUE,,WINNIPEG,R2W 2S5,ihms@ihms.mb.ca,( 15)-1523-0116, N-8, ,2045866698.0,2045825698,1,1,1,1,0
1087,ST. ALPHONSUS SCHOOL,CATHOLIC SCHOOLS COMMISSION,116,343 MUNROE AVENUE,,WINNIPEG,R2K 1H2,info@stalphonsusschool.ca,( 14)-1087-0116, K-8, ,2046634187.0,2046676271,0,1,1,1,0
1257,ST. BONIFACE DIOCESAN HIGH SCHOOL,CATHOLIC SCHOOLS COMMISSION,116,282 DUBUC STREET,,WINNIPEG,R2H 1E4,admin@sbdhs.net,( 14)-1257-0116, 9-12, ,2042379891.0,2049871560,0,0,0,1,1
1791,ST. EMILE SCHOOL,CATHOLIC SCHOOLS COMMISSION,116,552 ST. ANNE'S ROAD,,WINNIPEG,R2M 3G4,admin@stemileschool.ca,( 20)-1791-0116, K-8, ,2049895026.0,2049895020,0,1,1,1,0
1562,ST. GERARD SCHOOL,CATHOLIC SCHOOLS COMMISSION,116,40 FOSTER STREET,,WINNIPEG,R2L 1V7,stgerard@shaw.ca,( 14)-1562-0116, N-8, ,2046687932.0,2046674862,1,1,1,1,0
1756,ST. JOSEPH THE WORKER SCHOOL,CATHOLIC SCHOOLS COMMISSION,116,505 BREWSTER STREET,,WINNIPEG,R2C 2W6,stjoesch@mymts.net,(  8)-1756-0116, N-6, ,2042221769.0,2042221841,1,1,1,0,0
2255,CENTRE SCOLAIRE LÉO-RÉMILLARD,DIVISION SCOLAIRE FRANCO-MANITOBAINE,140,1095 CHEMIN SAINTE-ANNE,,WINNIPEG,R2N 4G5,cslr@dsfm.mb.ca,( 25)-2255-0140, 9-12,FR ,2042563848.0,2042562831,0,0,0,1,1
1287,COLLÈGE LOUIS-RIEL,DIVISION SCOLAIRE FRANCO-MANITOBAINE,140,585 RUE ST-JEAN-BAPTISTE,,SAINT-BONIFACE,R2H 2Y2,louis.riel@dsfm.mb.ca,( 42)-1287-0140, 7-12,FR ,2042350139.0,2042378927,0,0,0,1,1
1332,ÉCOLE CHRISTINE-LESPÉRANCE,DIVISION SCOLAIRE FRANCO-MANITOBAINE,140,425 CHEMIN JOHN FORSYTH,,WINNIPEG,R2N 4J3,c.lesperance@dsfm.mb.ca,( 37)-1332-0140, M-8,FR ,2042572545.0,2042552081,0,1,1,1,0
2078,ÉCOLE COMMUNAUTAIRE AURÈLE-LEMOINE,DIVISION SCOLAIRE FRANCO-MANITOBAINE,140,CASE POSTALE 900,"81, CHEM.DES ANC. COMBATTANTS",SAINT-LAURENT,R0C 2S0,aurele.lemoine@dsfm.mb.ca,(  9)-2078-0140, M-12,FR ,2046462235.0,2046462392,0,1,1,1,1
2147,ÉCOLE COMMUNAUTAIRE GILBERT-ROSSET,DIVISION SCOLAIRE FRANCO-MANITOBAINE,140,CASE POSTALE 147,108 AVENUE BÉRIAULT,SAINT-CLAUDE,R0G 1Z0,gilbert.rosset@dsfm.mb.ca,(  9)-2147-0140, N-12,FR ,2043792166.0,2043792177,1,1,1,1,1
2267,ÉCOLE COMMUNAUTAIRE LA VOIE DU NORD,DIVISION SCOLAIRE FRANCO-MANITOBAINE,140,CASE POSTALE 1223 STATION MAIN,271 CHEMIN WEIR,THOMPSON,R8N 1P1,la.voie.du.nord@dsfm.mb.ca,(  8)-2267-0140, M-10,FR ,2047785465.0,2047788699,0,1,1,1,1
1870,ÉCOLE COMMUNAUTAIRE RÉAL-BÉRARD,DIVISION SCOLAIRE FRANCO-MANITOBAINE,140,CASE POSTALE 490,377 RUE SABOURIN,SAINT-PIERRE-JOLYS,R0A 1V0,real.berard@dsfm.mb.ca,( 26)-1870-0140, M-12,FR ,2044333086.0,2044337706,0,1,1,1,1
2091,ÉCOLE COMMUNAUTAIRE SAINT-GEORGES,DIVISION SCOLAIRE FRANCO-MANITOBAINE,140,CASE POSTALE 159,14 BAIE CARON,SAINT-GEORGES,R0E 1V0,st.georges@dsfm.mb.ca,(  6)-2091-0140, N-12,FR ,2043674680.0,2043674224,1,1,1,1,1
2104,ÉCOLE JOURS DE PLAINE,DIVISION SCOLAIRE FRANCO-MANITOBAINE,140,CASE POSTALE 135,283 - ROUTE PROV. 480,LAURIER,R0J 1A0,jours.de.plaine@dsfm.mb.ca,(  8)-2104-0140, N-12,FR ,2044472954.0,2044473364,1,1,1,1,1
2231,ÉCOLE LA SOURCE,DIVISION SCOLAIRE FRANCO-MANITOBAINE,140,CASE POSTALE 240,T-102 AVENUE ST. BARBARA,SHILO,R0K 2A0,lasource@dsfm.mb.ca,( 15)-2231-0140, M-12,FR ,2047652187.0,2047655050,0,1,1,1,1
1180,ÉCOLE LACERTE,DIVISION SCOLAIRE FRANCO-MANITOBAINE,140,1101 PROMENADE AUTUMNWOOD,,SAINT-BONIFACE,R2J 1C8,lacerte@dsfm.mb.ca,( 33)-1180-0140, M-8,FR ,2042547855.0,2042564384,0,1,1,1,0
1770,ÉCOLE LAGIMODIÈRE,DIVISION SCOLAIRE FRANCO-MANITOBAINE,140,CASE POSTALE 130,361 RUE SENEZ,LORETTE,R0A 0Y0,ecole.lagimodiere@dsfm.mb.ca,( 15)-1770-0140, M-8,FR ,2048782866.0,2048783621,0,1,1,1,0
1204,ÉCOLE NOËL-RITCHOT,DIVISION SCOLAIRE FRANCO-MANITOBAINE,140,45 AVENUE DE LA DIGUE,,SAINT-NORBERT,R3V 1M7,noel.ritchot@dsfm.mb.ca,( 23)-1204-0140, M-8,FR ,2042691704.0,2042610380,0,1,1,1,0
1648,ÉCOLE POINTE-DES-CHÊNES,DIVISION SCOLAIRE FRANCO-MANITOBAINE,140,90 CHEMIN ARENA,,SAINTE-ANNE,R5H 1G6,pointe-des-chenes@dsfm.mb.ca,( 23)-1648-0140, M-12,FR ,2044229934.0,2044225505,0,1,1,1,1
1887,ÉCOLE PRÉCIEUX-SANG,DIVISION SCOLAIRE FRANCO-MANITOBAINE,140,209 RUE KENNY,,SAINT-BONIFACE,R2H 2E5,precieux.sang@dsfm.mb.ca,( 34)-1887-0140, M-8,FR ,2042339109.0,2042334327,0,1,1,1,0
1671,ÉCOLE RÉGIONALE NOTRE-DAME,DIVISION SCOLAIRE FRANCO-MANITOBAINE,140,CASE POSTALE 250,45 AVENUE NOTRE-DAME OUEST,N.-D.-DE-LOURDES,R0G 1M0,ernd@dsfm.mb.ca,( 19)-1671-0140, M-12,FR ,2042482371.0,2042482147,0,1,1,1,1
1152,ÉCOLE RÉGIONALE SAINT-JEAN-BAPTISTE,DIVISION SCOLAIRE FRANCO-MANITOBAINE,140,CASE POSTALE 130,"113, 2E AVENUE",SAINT-JEAN-BAPTISTE,R0G 2B0,st.jean@dsfm.mb.ca,( 14)-1152-0140, M-12,FR ,2047583243.0,2047583501,0,1,1,1,1
2211,ÉCOLE ROMÉO-DALLAIRE,DIVISION SCOLAIRE FRANCO-MANITOBAINE,140,81 CHEMIN QUAIL RIDGE,,WINNIPEG,R2Y 2A9,romeo.dallaire@dsfm.mb.ca,( 15)-2211-0140, M-9,FR ,2048858005.0,2048858000,0,1,1,1,0
1399,ÉCOLE SAINT-JOACHIM,DIVISION SCOLAIRE FRANCO-MANITOBAINE,140,CASE POSTALE 10,29 BAIE NORMANDEAU,LA BROQUERIE,R0A 0W0,st.joachim@dsfm.mb.ca,( 34)-1399-0140, M-12,FR ,2044245610.0,2044245287,0,1,1,1,1
1350,ÉCOLE SAINT-LAZARE,DIVISION SCOLAIRE FRANCO-MANITOBAINE,140,CASE POSTALE 70,116 AVENUE CHARTIER EST,SAINT-LAZARE,R0M 1Y0,st.lazare@dsfm.mb.ca,( 11)-1350-0140, N-12,FR ,2046832546.0,2046832251,1,1,1,1,1
1319,ÉCOLE SAINTE-AGATHE,DIVISION SCOLAIRE FRANCO-MANITOBAINE,140,CASE POSTALE 240,310 CHEMIN PEMBINA TRAIL,SAINTE-AGATHE,R0G 1Y0,ste.agathe@dsfm.mb.ca,( 12)-1319-0140, M-8,FR ,2048822327.0,2048822275,0,1,1,1,0
1808,ÉCOLE TACHÉ,DIVISION SCOLAIRE FRANCO-MANITOBAINE,140,744 RUE LANGEVIN,,SAINT-BONIFACE,R2H 2W7,tache@dsfm.mb.ca,( 35)-1808-0140, M-6,FR ,2042350321.0,2042338735,0,1,1,0,0
1557,ÉCOLE/COLL. RÉG. GABRIELLE-ROY,DIVISION SCOLAIRE FRANCO-MANITOBAINE,140,310 A CHEMIN LAMOUREUX,,ÎLE DES CHÊNES,R0A 0T1,gabrielle.roy@dsfm.mb.ca,( 34)-1557-0140, N-12,FR ,2048783495.0,2048782147,1,1,1,1,1
2233,BRANDON SCHOOL DIVISION SUMMER SCHOOL,"EVENING, SUMMER & VIRTUAL SCHOOLS",163,C/O CROCUS PLAINS HIGH SCHOOL,1930 - 1ST STREET,BRANDON,R7A 6Y6,,()-2233-0163, 9-12, ,2047272162.0,2047293900,0,0,0,1,1
2112,DISTANCE LEARNING UNIT,"EVENING, SUMMER & VIRTUAL SCHOOLS",163,MAIN PLAZA,555 MAIN STREET,WINKLER,R6W 1C4,,()-2112-0163, 9-12, ,0.0,2043259652,0,0,0,1,1
2305,INFORM NET,"EVENING, SUMMER & VIRTUAL SCHOOLS",163,181 HENLOW BAY,,WINNIPEG,R3Y 1M7,informnet@pembinatrails.ca,()-2305-0163, 9-12, ,2048310859.0,2048887957,0,0,0,1,1
2013,NELSON MCINTYRE COLL. SUMMER SCHOOL,"EVENING, SUMMER & VIRTUAL SCHOOLS",163,188 ST. MARY'S ROAD,,WINNIPEG,R2H 1H9,,()-2013-0163, 9-12, ,2042371615.0,2042370219,0,0,0,1,1
2099,SEVEN OAKS S.D. SUMMER SCHOOL,"EVENING, SUMMER & VIRTUAL SCHOOLS",163,C/O MAPLES COLL.  I.T. CENTRE,2ND FLOOR-1330 JEFFERSON AVE.,WINNIPEG,R2P 1L3,,()-2099-0163, 9-12, ,2049273705.0,2049273700,0,0,0,1,1
2008,ST. JAMES-ASSINIBOIA SUMMER SCHOOL,"EVENING, SUMMER & VIRTUAL SCHOOLS",163,ST. JAMES COLLEGIATE,1900 PORTAGE AVENUE,WINNIPEG,R3J 0J1,,()-2008-0163, 9-12, ,2048890830.0,2048884867,0,0,0,1,1
2140,TURTLE MOUNTAIN SCH. DIV. SUMMER SCHOOL,"EVENING, SUMMER & VIRTUAL SCHOOLS",163,BOX 280,,KILLARNEY,R0K 1G0,,()-2140-0163, 9-12, ,2045234054.0,2045234492,0,0,0,1,1
2011,UNIV. OF WINNIPEG COLL. SUMMER SCHOOL,"EVENING, SUMMER & VIRTUAL SCHOOLS",163,2W04-515 PORTAGE AVENUE,,WINNIPEG,R3B 2E9,,()-2011-0163, 10-12, ,2047751942.0,2047869221,0,0,0,0,1
2289,WAPASKWA VIRTUAL COLLEGIATE,"EVENING, SUMMER & VIRTUAL SCHOOLS",163,C/O MFNERC,2 - 1100 WAVERLEY STREET,WINNIPEG,R3T 3X9,,( 10)-2289-0163, 7-12, ,2049422490.0,2045941290,0,0,0,1,1
2009,WINNIPEG S.D. SUMMER SCHOOL,"EVENING, SUMMER & VIRTUAL SCHOOLS",163,401 CHURCH AVENUE,,WINNIPEG,R2W 1C4,,()-2009-0163, 10-12, ,0.0,2045865015,0,0,0,0,1
1587,ARBORG COLLEGIATE,EVERGREEN SCHOOL DIVISION,144,BOX 220,461 ST. PETER STREET,ARBORG,R0C 0A0,aci@eds.ca,( 11)-1587-0144, 9-12, ,2043765160.0,2043762605,0,0,0,1,1
1423,ARBORG EARLY/MIDDLE YEARS SCHOOL,EVERGREEN SCHOOL DIVISION,144,BOX 670,,ARBORG,R0C 0A0,aems@esd.ca,( 19)-1423-0144, K-8, ,2043762958.0,2043765054,0,1,1,1,0
1300,DR. GEORGE JOHNSON MIDDLE SCHOOL,EVERGREEN SCHOOL DIVISION,144,BOX 1170,,GIMLI,R0C 1B0,gjms@esd.ca,( 14)-1300-0144, 5-8, ,2046428281.0,2046428581,0,0,1,1,0
1368,GIMLI HIGH SCHOOL,EVERGREEN SCHOOL DIVISION,144,BOX 1260,,GIMLI,R0C 1B0,ghs@esd.ca,( 27)-1368-0144, 9-12, ,2046425063.0,2046428546,0,0,0,1,1
1857,RIVERTON COLLEGIATE,EVERGREEN SCHOOL DIVISION,144,BOX 749,,RIVERTON,R0C 2R0,rci@esd.ca,(  9)-1857-0144, 8-12, ,2043785201.0,2043785135,0,0,0,1,1
2133,RIVERTON EARLY MIDDLE YEARS SCHOOL,EVERGREEN SCHOOL DIVISION,144,BOX 280,,RIVERTON,R0C 2R0,rems@esd.ca,( 13)-2133-0144, K-8, ,2043782964.0,2043785145,0,1,1,1,0
2212,SIGURBJORG STEFANSSON EARLY SCHOOL,EVERGREEN SCHOOL DIVISION,144,BOX 7500,,GIMLI,R0C 1B0,sses@esd.ca,( 16)-2212-0144, K-4, ,2046421468.0,2046421500,0,1,1,0,0
1601,WINNIPEG BEACH SCHOOL,EVERGREEN SCHOOL DIVISION,144,BOX 130,,WINNIPEG BEACH,R0C 3G0,wbs@esd.ca,( 12)-1601-0144, K-8, ,2043893864.0,2043892176,0,1,1,1,0
2135,'72 MEMORIAL HIGH SCHOOL,FIRST NATIONS SCHOOLS,135,GENERAL DELIVERY,,OXFORD HOUSE,R0B 1C0,,( 11)-2135-0135, 7-12, ,2045382075.0,2045382020,0,0,0,1,1
1387,ABBALAK THUNDERSWIFT MEMORIAL SCHOOL,FIRST NATIONS SCHOOLS,135,BOX 160,,LITTLE GRAND RAPIDS,R0B 0V0,abbalakschool@yahoo.ca,(  9)-1387-0135, N-9, ,2043972102.0,2043972199,1,1,1,1,0
1668,AMOS OKEMOW MEMORIAL SCHOOL,FIRST NATIONS SCHOOLS,135,BOX 103,,GOD'S RIVER,R0B 0N0,,( 12)-1668-0135, N-11, ,2043662105.0,2043662070,1,1,1,1,1
1329,ANICINABE COMMUNITY SCHOOL,FIRST NATIONS SCHOOLS,135,BOX 219,,PINE FALLS,R0E 1M0,rfewchuck@sagkeengeducation.com,( 11)-1329-0135, N-3, ,2043679231.0,2043672285,1,1,1,0,0
1969,CHARLES SINCLAIR SCHOOL,FIRST NATIONS SCHOOLS,135,BOX 109,,KOOSTATAK,R0C 1S0,warren@csschool.mb.ca,( 19)-1969-0135, N-6, ,2046452614.0,2046452206,1,1,1,0,0
1058,CHEMAWAWIN SCHOOL,FIRST NATIONS SCHOOLS,135,BOX 10,,EASTERVILLE,R0C 0V0,chemawawinsec@gmail.com,( 22)-1058-0135, N-12, ,2043292214.0,2043292115,1,1,1,1,1
2090,CHIEF CHARLES THOMAS AUDY MEMORIAL SCH.,FIRST NATIONS SCHOOLS,135,BOX 307,,BIRCH RIVER,R0L 0E0,wuskwisipihkschool@gmail.com,(  2)-2090-0135, N-8, ,2042364779.0,2042364783,1,1,1,1,0
1937,CHIEF CLIFFORD LYNXLEG ANISHINABE SCHOOL,FIRST NATIONS SCHOOLS,135,VALLEY RIVER RESERVE,,SHORTDALE,R0L 1W0,cclas@live.ca,(  6)-1937-0135, N-7, ,2045463120.0,2045462641,1,1,1,1,0
2038,CHIEF SAM COOK MAHMUWEE EDUCATION CENTRE,FIRST NATIONS SCHOOLS,135,GENERAL DELIVERY,,SPLIT LAKE,R0B 1P0,,( 38)-2038-0135, N-12, ,2043422139.0,2043422295,1,1,1,1,1
2060,DONALD AHMO SCHOOL,FIRST NATIONS SCHOOLS,135,GENERAL DELIVERY,,CRANE RIVER,R0L 0M0,donaldahmoschool@outlook.com,(  7)-2060-0135, N-8, ,2047322753.0,2047322548,1,1,1,1,0
1240,EBB AND FLOW SCHOOL,FIRST NATIONS SCHOOLS,135,GENERAL DELIVERY,,EBB AND FLOW,R0L 0R0,eandf11@mts.net,( 35)-1240-0135, N-12, ,2044482393.0,2044482012,1,1,1,1,1
2315,FISHER RIVER HIGH SCHOOL,FIRST NATIONS SCHOOLS,135,"P.O. BOX 360, LOT 78",,FISHER RIVER,R0C 1S0,winston@csschool.mb.ca,( 17)-2315-0135, 7-12, ,2046453364.0,2046453313,0,0,0,1,1
2082,FOX LAKE SCHOOL,FIRST NATIONS SCHOOLS,135,P.O. BOX 279,,GILLAM,R0B 0L0,fls@mfnss.com,(  4)-2082-0135, N-8, ,2044862606.0,2044862307,1,1,1,1,0
2092,GARDEN HILL FIRST NATIONS HIGH SCHOOL,FIRST NATIONS SCHOOLS,135,GENERAL DELIVERY,,ISLAND LAKE,R0B 0T0,ghfnhighschool@gmail.com,( 15)-2092-0135, 7-12, ,2044562894.0,2044562886,0,0,0,1,1
2067,GEORGE KNOTT SCHOOL,FIRST NATIONS SCHOOLS,135,GENERAL DELIVERY,,WAASAGOMACH,R0B 1Z0,,( 23)-2067-0135, N-12, ,2044572273.0,2044572485,1,1,1,1,1
1314,GEORGE SAUNDERS MEMORIAL SCHOOL,FIRST NATIONS SCHOOLS,135,GENERAL DELIVERY,P.O. BOX 255,YORK LANDING,R0B 2B0,gsms@mfnss.com,(  9)-1314-0135, N-8, ,2043412235.0,2043412118,1,1,1,1,0
1912,GINEW SCHOOL,FIRST NATIONS SCHOOLS,135,BOX 10,,GINEW,R0A 2R0,gs@mfnss.com,(  9)-1912-0135, N-8, ,2044272398.0,2044272490,1,1,1,1,0
2080,GOD'S LAKE NARROWS FIRST NATION SCHOOL,FIRST NATIONS SCHOOLS,135,GENERAL DELIVERY,,GOD'S LAKE NARROWS,R0B 0M0,LEINARSSON@GLNS.CA,( 17)-2080-0135, N-9, ,2043352440.0,2043352003,1,1,1,1,0
1068,INDIAN SPRINGS SCHOOL,FIRST NATIONS SCHOOLS,135,BOX 145,,SWAN LAKE,R0G 2S0,isprings@mb.sympatico.ca,(  7)-1068-0135, N-8, ,2048362317.0,2048362332,1,1,1,1,0
1402,ISAAC BEAULIEU MEMORIAL,FIRST NATIONS SCHOOLS,135,MARIUS POST OFFICE,,MARIUS,R0H 0T0,,( 50)-1402-0135, N-12, ,2048432269.0,2048432407,1,1,1,1,1
1738,JOE A. ROSS SCHOOL,FIRST NATIONS SCHOOLS,135,OPASKWAYAK EDUCATION AUTHORITY,BOX 10160,OPASKWAYAK,R0B 2J0,karon.mcgillivary@opased.com,( 28)-1738-0135, N-6, ,2046234442.0,2046234286,1,1,1,0,0
2001,KEESEEKOOWENIN SCHOOL,FIRST NATIONS SCHOOLS,135,BOX 129,,ELPHINSTONE,R0J 0N0,ks@mfnss.com,(  8)-2001-0135, K-8, ,2046252418.0,2046252062,0,1,1,1,0
1993,KISEMATTAWA KISKINWAHAMAKEWIKAMIK,FIRST NATIONS SCHOOLS,135,GENERAL DELIVERY,,SHAMATTAWA,R0B 1K0,,( 12)-1993-0135, N-12, ,2045652122.0,2045652022,1,1,1,1,1
2054,KISTIGANWACHEENG ELEMENTARY SCHOOL,FIRST NATIONS SCHOOLS,135,GENERAL DELIVERY,,ISLAND LAKE,R0B 0T0,gardenhillelementary@hotmail.com,( 22)-2054-0135, N-6, ,2044562350.0,2044562391,1,1,1,0,0
1971,LAKE MANITOBA SCHOOL,FIRST NATIONS SCHOOLS,135,BOX 1249,,LAKE MAN.  FIRST NATION,R0C 3K0,lms@mfnss.com,( 20)-1971-0135, N-12, ,2047682194.0,2047682728,1,1,1,1,1
2022,LAKE ST. MARTIN SCHOOL,FIRST NATIONS SCHOOLS,135,BOX 2020,,GYPSUMVILLE,R0C  1J,lsm@mfnss.com,( 11)-2022-0135, N-9, ,2046592616.0,2046592600,1,1,1,1,0
1970,LAWRENCE SINCLAIR MEMORIAL SCHOOL,FIRST NATIONS SCHOOLS,135,BOX 210,,DALLAS,R0C 0S0,,(  6)-1970-0135, N-11, ,2043942431.0,2043942429,1,1,1,1,1
1216,LITTLE SASKATCHEWAN SCHOOL,FIRST NATIONS SCHOOLS,135,BOX 5050,,GYPSUMVILLE,R0C 1J0,saskatchewanlittle@yahoo.ca,(  7)-1216-0135, N-10, ,2046595763.0,2046592672,1,1,1,1,1
1412,LONG PLAIN SCHOOL,FIRST NATIONS SCHOOLS,135,BOX 430,,PORTAGE LA PRAIRIE,R1N 3B7,,( 18)-1412-0135, N-9, ,2042522786.0,2042522326,1,1,1,1,0
1935,MAHPIYA HDEGA SCHOOL,FIRST NATIONS SCHOOLS,135,GENERAL DELIVERY,,EDWIN,R0H 0G0,mhs@mfnss.com,(  6)-1935-0135, K-8, ,2042522188.0,2042522895,0,1,1,1,0
2097,MIKISEW HIGH SCHOOL,FIRST NATIONS SCHOOLS,135,BOX 128,,CROSS LAKE,R0B 0J0,,( 21)-2097-0135, 8-12, ,2046762798.0,2046763030,0,0,0,1,1
1951,MISKOOSEEPI SCHOOL,FIRST NATIONS SCHOOLS,135,,,BLOODVEIN,R0C 0J0,ms@mfnss.com,( 12)-1951-0135, N-9, ,2043952189.0,2043952012,1,1,1,1,0
2101,NEIL DENNIS KEMATCH MEMORIAL SCHOOL,FIRST NATIONS SCHOOLS,135,GENERAL DELIVERY,,PELICAN RAPIDS,R0L 1L0,school@ndkms.com,( 18)-2101-0135, N-12, ,2045872341.0,2045872045,1,1,1,1,1
2198,NISICHAWAYASIHK NEYO OHTINWAK COLLEGIATE,FIRST NATIONS SCHOOLS,135,GENERAL DELIVERY,,NELSON HOUSE,R0B 1A0,,( 10)-2198-0135, 9-12, ,2044842002.0,2044842602,0,0,0,1,1
1217,OMIISHOSH MEMORIAL SCHOOL,FIRST NATIONS SCHOOLS,135,PAUINGASSI FIRST NATION,BOX 31,PAUINGASSI,R0B 2G0,,(  1)-1217-0135, N-9, ,2043972379.0,2043972076,1,1,1,1,0
2277,OSCAR LATHLIN COLLEGIATE,FIRST NATIONS SCHOOLS,135,BOX 10400,,OPASKWAYAK,R0B 2J0,oscarinfo@opased.com,( 29)-2277-0135, 7-12, ,2046235361.0,2046235259,0,0,0,1,1
1413,OTETISKEWIN KISKINWAMAHTOWEKAMIK,FIRST NATIONS SCHOOLS,135,GENERAL DELIVERY,,NELSON HOUSE,R0B 1A0,nheaedoeducation@gmail.com,( 25)-1413-0135, N-8, ,2044842002.0,2044842242,1,1,1,1,0
1991,OTTER NELSON RIVER,FIRST NATIONS SCHOOLS,135,BOX 370,CROSS LAKE EDUCATION AUTHORITY,CROSS LAKE,R0B 0J0,,( 50)-1991-0135, N-7, ,2046762464.0,2046762050,1,1,1,1,0
2081,OXFORD HOUSE ELEMENTARY SCHOOL,FIRST NATIONS SCHOOLS,135,GENERAL DELIVERY,,OXFORD HOUSE,R0B 1C0,,( 24)-2081-0135, N-6, ,2045382075.0,2045382318,1,1,1,0,0
1949,PEGUIS CENTRAL SCHOOL,FIRST NATIONS SCHOOLS,135,BOX 670,,PEGUIS FIRST NATION,R0C 3J0,general@peguisschool.ca,( 54)-1949-0135, N-12, ,2046452270.0,2046452164,1,1,1,1,1
1802,PETER YASSIE MEMORIAL SCHOOL,FIRST NATIONS SCHOOLS,135,GENERAL DELIVERY,,TADOULE LAKE,R0B 2C0,,()-1802-0135, K-12, ,2046842130.0,2046842279,0,1,1,1,1
1697,PETIT CASIMIR MEMORIAL SCHOOL,FIRST NATIONS SCHOOLS,135,GENERAL DELIVERY,,LAC BROCHET,R0B 2E0,pcms@psmschool.ca,( 11)-1697-0135, K-12, ,2043372078.0,2043372278,0,1,1,1,1
1972,PINAYMOOTANG SCHOOL,FIRST NATIONS SCHOOLS,135,FAIRFORD RESERVE,,FAIRFORD,R0C 0X0,ps@mfnss.com,( 21)-1972-0135, N-12, ,2046592270.0,2046592045,1,1,1,1,1
1698,POPLAR RIVER SCHOOL,FIRST NATIONS SCHOOLS,135,NEGGINAN P.O. 120,,NEGGINAN,R0B 0Z0,prfn@mb.sympatico.ca,( 10)-1698-0135, N-9, ,2042442259.0,2042442113,1,1,1,1,0
2036,RED SUCKER LAKE SCHOOL,FIRST NATIONS SCHOOLS,135,GENERAL DELIVERY,,RED SUCKER LAKE,R0B 1H0,,(  8)-2036-0135, N-12, ,2044695436.0,2044695302,1,1,1,1,1
1529,SAGKEENG ANICINABE HIGH SCHOOL,FIRST NATIONS SCHOOLS,135,BOX 1610,,PINE FALLS,R0E 1M0,sahs@sagkeengeducation.org,( 12)-1529-0135, 9-12, ,2043674566.0,2043672243,0,0,0,1,1
1503,SAGKEENG CONSOLIDATED SCHOOL,FIRST NATIONS SCHOOLS,135,BOX 1610,,PINE FALLS,R0E 1M0,gswampy@sagkeengeducation.com,( 17)-1503-0135, 4-8, ,2043679231.0,2043672588,0,0,1,1,0
1973,SAKASTEW SCHOOL,FIRST NATIONS SCHOOLS,135,BOX 319,,PUKATAWAGAN,R0B 1G0,,( 21)-1973-0135, K-12, ,2045532225.0,2045532163,0,1,1,1,1
2070,SERGEANT TOMMY PRINCE SCHOOL,FIRST NATIONS SCHOOLS,135,BOX 179,,SCANTERBURY,R0E 1W0,stps@mfnss.com,(  7)-2070-0135, N-9, ,2047662809.0,2047662636,1,1,1,1,0
1489,SIOUX VALLEY SCHOOL,FIRST NATIONS SCHOOLS,135,BOX 99,,GRISWOLD,R0M 0S0,sioux1@lnetlink.ca,( 20)-1489-0135, N-12, ,2047272054.0,2047292770,1,1,1,1,1
2119,SOUTHEAST COLLEGIATE,FIRST NATIONS SCHOOLS,135,1301 LEE BLVD.,,WINNIPEG,R3T 5W8,secinfo@secollege.ca,( 10)-2119-0135, 10-12, ,2042697880.0,2042613551,0,0,0,0,1
2037,ST. THERESA POINT SCHOOL,FIRST NATIONS SCHOOLS,135,BOX 670,,ST. THERESA POINT,R0B 1J0,,( 53)-2037-0135, K-12, ,2044622341.0,2044622600,0,1,1,1,1
2110,WAMBDI IYOTAKA SCHOOL,FIRST NATIONS SCHOOLS,135,BOX 146,,PIPESTONE,R0M 1T0,wis.cdm.lee@gmail.com,(  2)-2110-0135, N-K, ,2048542933.0,2048542975,1,1,0,0,0
1178,ÉCOLE MCISAAC SCHOOL,FLIN FLON SCHOOL DIVISION,150,336 PRINCESS BOULEVARD,,FLIN FLON,R8A 0K8,mcisaac@ffsd.mb.ca,( 36)-1178-0150, K-8, IM,2046875145.0,2046877578,0,1,1,1,0
1865,HAPNOT COLLEGIATE,FLIN FLON SCHOOL DIVISION,150,115 GREEN STREET,,FLIN FLON,R8A 0P7,hapnot@ffsd.mb.ca,( 23)-1865-0150, 9-12, IM,2046878667.0,2046877506,0,0,0,1,1
2085,MANY FACES EDUCATION CENTRE,FLIN FLON SCHOOL DIVISION,150,115 GREEN STREET,,FLIN FLON,R8A 0P7,,(  5)-2085-0150, 9-12, ,2046875116.0,2046876354,0,0,0,1,1
1736,RUTH BETTS COMMUNITY SCHOOL,FLIN FLON SCHOOL DIVISION,150,9 TERRACE AVENUE,,FLIN FLON,R8A 1S2,ruthbetts@ffsd.mb.ca,( 24)-1736-0150, K-8, ,2046875131.0,2046877538,0,1,1,1,0
2121,BOUNDARY LANE COLONY SCHOOL,FORT LA BOSSE SCHOOL DIVISION,103,BOX 164,,ELKHORN,R0M 0N0,boundaryprin@flbsd.mb.ca,(  2)-2121-0103, K-12, ,2048452576.0,2048452662,0,1,1,1,1
1476,ELKHORN SCHOOL,FORT LA BOSSE SCHOOL DIVISION,103,BOX 310,,ELKHORN,R0M 0N0,elkhornprin@flbsd.mb.ca,( 13)-1476-0103, K-12, ,2048452476.0,2048452118,0,1,1,1,1
1224,GOULTER SCHOOL,FORT LA BOSSE SCHOOL DIVISION,103,BOX 1090,,VIRDEN,R0M 2C0,goulterprin@flbsd.mb.ca,( 14)-1224-0103, K-4, ,2047481803.0,2047482294,0,1,1,0,0
1672,KOLA SCHOOL,FORT LA BOSSE SCHOOL DIVISION,103,BOX 312,,KOLA,R0M 1B0,kolaprin@flbsd.mb.ca,(  4)-1672-0103, 1-8, ,2045562425.0,2045562347,0,0,1,1,0
1902,MARY MONTGOMERY SCHOOL,FORT LA BOSSE SCHOOL DIVISION,103,BOX 700,,VIRDEN,R0M 2C0,mmprin@flbsd.mb.ca,( 15)-1902-0103, K-4, ,,2047482575,0,1,1,0,0
1711,OAK LAKE COMMUNITY SCHOOL,FORT LA BOSSE SCHOOL DIVISION,103,BOX 7,,OAK LAKE,R0M 1P0,olcsprin@flbsd.mb.ca,( 10)-1711-0103, K-8, ,2048552906.0,2048552242,0,1,1,1,0
1313,PLAINVIEW COLONY SCHOOL,FORT LA BOSSE SCHOOL DIVISION,103,PLAINVIEW COLONY,BOX 59,ELKHORN,R0M 0N0,plainviewprin@flbsd.mb.ca,(  5)-1313-0103, K-12, ,2048452127.0,2048452273,0,1,1,1,1
1427,RESTON SCHOOL,FORT LA BOSSE SCHOOL DIVISION,103,BOX 160,,RESTON,R0M 1X0,restonprin@flbsd.mb.ca,( 15)-1427-0103, K-12, ,2048773101.0,2048773994,0,1,1,1,1
1043,VIRDEN COLLEGIATE,FORT LA BOSSE SCHOOL DIVISION,103,BOX 1418,,VIRDEN,R0M 2C0,vciprin@flbsd.mb.ca,( 27)-1043-0103, 9-12, ,2047483555.0,2047482205,0,0,0,1,1
1567,VIRDEN JUNIOR HIGH,FORT LA BOSSE SCHOOL DIVISION,103,BOX 1510,,VIRDEN,R0M 2C0,vjhprin@flbsd.mb.ca,( 17)-1567-0103, 5-8, ,2047481944.0,2047481932,0,0,1,1,0
1820,BARROWS JUNCTION SCHOOL,FRONTIER SCHOOL DIVISION,192,GENERAL DELIVERY,,BARROWS JUNCTION,R0L 0B0,mountainview.school@fsdnet.ca,(  2)-1820-0192, N-9, ,2045456228.0,2045456246,1,1,1,1,0
1680,BERENS RIVER SCHOOL,FRONTIER SCHOOL DIVISION,192,BOX 344,,BERENS RIVER,R0B 0A0,berensriver.school@fsdnet.ca,( 24)-1680-0192, N-9, ,2043822422.0,2043822153,1,1,1,1,0
1408,BLACK RIVER ANISHINABE SCHOOL,FRONTIER SCHOOL DIVISION,192,GENERAL DELIVERY,,O'HANLEY,R0E 1K0,blackriver.school@fsdnet.ca,( 14)-1408-0192, N-10, ,2043672266.0,2043678298,1,1,1,1,1
1522,BROCHET SCHOOL,FRONTIER SCHOOL DIVISION,192,BOX 70,,BROCHET,R0B 0B0,brochet.school@fsdnet.ca,( 10)-1522-0192, N-9, ,2043232053.0,2043232051,1,1,1,1,0
1934,CHAN KAGHA OTINA DAKOTA WAYAWA TIPI SCH.,FRONTIER SCHOOL DIVISION,192,BOX 40,,BEULAH,R0M 0B0,birdtail@fsdnet.ca,( 10)-1934-0192, N-12, ,2045684762.0,2045684757,1,1,1,1,1
1031,COLD LAKE SCHOOL,FRONTIER SCHOOL DIVISION,192,GENERAL DELIVERY,,SHERRIDON,R0B 1L0,coldlake.school@fsdnet.ca,(  2)-1031-0192, K-8, ,2044682039.0,2044682021,0,1,1,1,0
1839,CORMORANT LAKE SCHOOL,FRONTIER SCHOOL DIVISION,192,GENERAL DELIVERY,,CORMORANT,R0B 0G0,cormorant@fsdnet.ca,(  6)-1839-0192, N-10, ,2043572178.0,2043572225,1,1,1,1,1
1595,CRANBERRY PORTAGE ELEMENTARY,FRONTIER SCHOOL DIVISION,192,GENERAL DELIVERY,,CRANBERRY PORTAGE,R0B 0H0,cranberryportageelem.school@fsdnet.ca,(  9)-1595-0192, N-8, ,2044723622.0,2044723250,1,1,1,1,0
1008,D. R. HAMILTON SCHOOL,FRONTIER SCHOOL DIVISION,192,BOX 70,,CROSS LAKE,R0B 0J0,drhamilton.school@fsdnet.ca,(  7)-1008-0192, N-9, ,2046762045.0,2046762278,1,1,1,1,0
1968,DAUPHIN RIVER SCHOOL,FRONTIER SCHOOL DIVISION,192,BOX 140,,GYPSUMVILLE P.O.,R0C 1J0,dauphinriver.school@fsdnet.ca,(  3)-1968-0192, N-8, ,2046595790.0,2046595268,1,1,1,1,0
1788,DUCK BAY SCHOOL,FRONTIER SCHOOL DIVISION,192,BOX 123,,DUCK BAY,R0L 0N0,duckbay.school@fsdnet.ca,(  6)-1788-0192, N-9, ,2045242267.0,2045242394,1,1,1,1,0
1904,DUKE OF MARLBOROUGH SCHOOL,FRONTIER SCHOOL DIVISION,192,BOX 338,,CHURCHILL,R0B 0E0,dukeofmarlborough.school@fsdnet.ca,( 13)-1904-0192, N-12, ,2046752617.0,2046752737,1,1,1,1,1
1984,FALCON BEACH SCHOOL,FRONTIER SCHOOL DIVISION,192,BOX 70,,FALCON LAKE,R0E 0N0,falconbeach.school@fsdnet.ca,(  3)-1984-0192, N-10, ,2043492274.0,2043492295,1,1,1,1,1
1852,FRONTIER COLLEGIATE,FRONTIER SCHOOL DIVISION,192,GENERAL DELIVERY,,CRANBERRY PORTAGE,R0B 0H0,frontiercollegiateinst.school@fsdnet.ca,( 24)-1852-0192, 9-12, ,2044723191.0,2044723431,0,0,0,1,1
1528,FRONTIER MOSAKAHIKEN SCHOOL,FRONTIER SCHOOL DIVISION,192,GENERAL DELIVERY,,MOOSE LAKE,R0B 0Y0,frontiermosakahiken.school@fsdnet.ca,( 33)-1528-0192, N-12, ,2046782312.0,2046782353,1,1,1,1,1
1024,GILLAM SCHOOL,FRONTIER SCHOOL DIVISION,192,BOX 370,,GILLAM,R0B 0L0,gillam.school@fsdnet.ca,( 24)-1024-0192, N-12, ,2046522150.0,2046522193,1,1,1,1,1
1278,GRAND RAPIDS SCHOOL,FRONTIER SCHOOL DIVISION,192,GENERAL DELIVERY,,GRAND RAPIDS,R0C 1E0,grandrapids.school@fsdnet.ca,( 26)-1278-0192, N-12, ,2046392605.0,2046392451,1,1,1,1,1
2021,GYPSUMVILLE SCHOOL,FRONTIER SCHOOL DIVISION,192,GENERAL DELIVERY,,GYPSUMVILLE,R0C 1J0,gypsumville.school@fsdnet.ca,(  4)-2021-0192, K-8, ,2046595708.0,2046594475,0,1,1,1,0
2232,HELEN BETTY OSBORNE ININIW EDU. RES. CTR,FRONTIER SCHOOL DIVISION,192,BOX 790,,NORWAY HOUSE,R0B 1B0,hboierc.school@fsdnet.ca,( 91)-2232-0192, N-12, ,2043594803.0,2043594100,1,1,1,1,1
1925,JACK RIVER SCHOOL,FRONTIER SCHOOL DIVISION,192,BOX 970,,NORWAY HOUSE,R0B 1B0,jackriver.school@fsdnet.ca,( 26)-1925-0192, N-6, ,2043596650.0,2043596781,1,1,1,0,0
1164,JOSEPH H. KERR SCHOOL,FRONTIER SCHOOL DIVISION,192,100 POPLAR AVENUE,,SNOW LAKE,R0B 1M0,josephhkerr.school@fsdnet.ca,( 12)-1164-0192, N-12, ,2043582116.0,2043582281,1,1,1,1,1
1279,JULIE LINDAL SCHOOL,FRONTIER SCHOOL DIVISION,192,GENERAL DELIVERY,,ILFORD,R0B 0S0,julielindal.school@fsdnet.ca,(  2)-1279-0192, N-8, ,2042884317.0,2042884355,1,1,1,1,0
1303,LAKEFRONT SCHOOL,FRONTIER SCHOOL DIVISION,192,GENERAL DELIVERY,,CRANE RIVER,R0L 0M0,lakefront.school@fsdnet.ca,(  2)-1303-0192, N-8, ,2047322899.0,2047322750,1,1,1,1,0
1811,LEAF RAPIDS EDUCATION CENTRE,FRONTIER SCHOOL DIVISION,192,BOX 670,,LEAF RAPIDS,R0B 1W0,leafrapids.school@fsdnet.ca,( 13)-1811-0192, N-12, ,2044738632.0,2044732403,1,1,1,1,1
1271,MATHESON ISLAND SCHOOL,FRONTIER SCHOOL DIVISION,192,GENERAL DELIVERY,,MATHESON ISLAND,R0C 2A0,mathesonisland.school@fsdnet.ca,(  2)-1271-0192, N-9, ,2042762153.0,2042762118,1,1,1,1,0
1682,MEL JOHNSON SCHOOL,FRONTIER SCHOOL DIVISION,192,GENERAL DELIVERY,,WABOWDEN,R0B 1S0,meljohnson.school@fsdnet.ca,( 10)-1682-0192, N-12, ,2046892289.0,2046892620,1,1,1,1,1
1516,MINEGOZIIBE ANISHINABE SCHOOL,FRONTIER SCHOOL DIVISION,192,BOX 130,,CAMPERVILLE,R0L 0J0,minegoziibe.school@fsdnet.ca,( 12)-1516-0192, N-12, ,2045242287.0,2045242354,1,1,1,1,1
2118,MINISTIC SCHOOL,FRONTIER SCHOOL DIVISION,192,BOX 320,,GOD'S LAKE NARROWS,R0B 0M0,ministic.school@fsdnet.ca,(  2)-2118-0192, N-9, ,2043352170.0,2043352159,1,1,1,1,0
1032,OSCAR BLACKBURN SCHOOL,FRONTIER SCHOOL DIVISION,192,GENERAL DELIVERY,,SOUTH INDIAN LAKE,R0B 1N0,oscarblackburn.school@fsdnet.ca,( 18)-1032-0192, N-10, ,2043742052.0,2043742056,1,1,1,1,1
2213,PEONAN POINT SCHOOL,FRONTIER SCHOOL DIVISION,192,BOX 193,,ST. MARTIN,R0C 2T0,peonanpoint.school@fsdnet.ca,(  1)-2213-0192, 1-12, ,2046592363.0,2046592009,0,0,1,1,1
1850,PHILOMENE CHARTRAND SCHOOL,FRONTIER SCHOOL DIVISION,192,BOX 40,,CAMPERVILLE,R0L 0J0,philomenechartrand.school@fsdnet.ca,( 10)-1850-0192, K-8, ,2045242596.0,2045242343,0,1,1,1,0
1099,PIKWITONEI SCHOOL,FRONTIER SCHOOL DIVISION,192,GENERAL DELIVERY,,PIKWITONEI,R0B 1E0,pikwitonei.school@fsdnet.ca,(  1)-1099-0192, N-8, ,2044582431.0,2044582471,1,1,1,1,0
1185,RORKETON SCHOOL,FRONTIER SCHOOL DIVISION,192,BOX 160,,RORKETON,R0L 1R0,rorketon.school@fsdnet.ca,(  7)-1185-0192, K-12, ,2047322404.0,2047322525,0,1,1,1,1
1911,SAN ANTONIO SCHOOL,FRONTIER SCHOOL DIVISION,192,GENERAL DELIVERY,,BISSETT,R0E 0J0,sanantonio.school@fsdnet.ca,(  2)-1911-0192, N-9, ,2042775280.0,2042775277,1,1,1,1,0
2023,SKOWNAN SCHOOL,FRONTIER SCHOOL DIVISION,192,GENERAL DELIVERY,,SKOWNAN,R0L 1Y0,skownan.school@fsdnet.ca,(  7)-2023-0192, N-9, ,2046283568.0,2046283315,1,1,1,1,0
1688,STEVENSON ISLAND SCHOOL,FRONTIER SCHOOL DIVISION,192,BOX 9,,STEVENSON ISLAND,R0B 2H0,stevensonisland.school@fsdnet.ca,(  2)-1688-0192, N-9, ,2044562319.0,2044562786,1,1,1,1,0
1605,THICKET PORTAGE SCHOOL,FRONTIER SCHOOL DIVISION,192,GENERAL DELIVERY,,THICKET PORTAGE,R0B 1R0,thicketportage.school@fsdnet.ca,(  2)-1605-0192, N-8, ,2042863271.0,2042863264,1,1,1,1,0
1681,WANIPIGOW SCHOOL,FRONTIER SCHOOL DIVISION,192,BOX 2569,,WANIPIGOW,R0E 2E0,wanipigow.school@fsdnet.ca,( 25)-1681-0192, N-12, ,2043637293.0,2043637392,1,1,1,1,1
1890,WATERHEN SCHOOL,FRONTIER SCHOOL DIVISION,192,GENERAL DELIVERY,,WATERHEN,R0L 2C0,waterhen.school@fsdnet.ca,(  5)-1890-0192, N-9, ,2046283571.0,2046283443,1,1,1,1,0
1073,WEST LYNN HEIGHTS SCHOOL,FRONTIER SCHOOL DIVISION,192,BOX 670,,LYNN LAKE,R0B 0W0,westlynnheights.school@fsdnet.ca,( 13)-1073-0192, K-12, ,2043568363.0,2043562292,0,1,1,1,1
1334,BLUMENFELD SCHOOL,GARDEN VALLEY SCHOOL DIVISION,105,BORDER VALLEY UNIT,BOX 1510,WINKLER,R6W 4B4,bvschool@gvsd.ca,(  6)-1334-0105, 1-8, ,2043250050.0,2043257208,0,0,1,1,0
1444,BORDER VALLEY ELEMENTARY,GARDEN VALLEY SCHOOL DIVISION,105,BORDER VALLEY UNIT,BOX 1510,WINKLER,R6W 4B4,bvschool@gvsd.ca,( 17)-1444-0105, K-8, ,2043255559.0,2043258674,0,1,1,1,0
1107,EDELWEISS SCHOOL,GARDEN VALLEY SCHOOL DIVISION,105,PLUM COULEE UNIT,BOX 108,PLUM COULEE,R0G 1R0,pcschool@gvsd.ca,(  5)-1107-0105, K-12, ,2048293632.0,2048293973,0,1,1,1,1
2248,EMERADO CENTENNIAL,GARDEN VALLEY SCHOOL DIVISION,105,675 PRAIRIEVIEW DRIVE,,WINKLER,R6W 1M5,emerado@gvsd.ca,( 25)-2248-0105, 5-8, ,2043313656.0,2043314533,0,0,1,1,0
1565,GARDEN VALLEY COLLEGIATE,GARDEN VALLEY SCHOOL DIVISION,105,736 MAIN STREET,,WINKLER,R6W 4C8,gvc@gvsd.ca,( 55)-1565-0105, 9-12, ,2043255894.0,2043258008,0,0,0,1,1
1339,HOCHFELD SCHOOL,GARDEN VALLEY SCHOOL DIVISION,105,C/O SOUTHWOOD UNIT,224 HESPELER AVENUE E.,SCHANZENFELD,R6W 1K3,southwood@gvsd.ca,(  5)-1339-0105, 1-8, ,2043251095.0,2043258592,0,0,1,1,0
1544,J. R. WALKOF ELEMENTARY,GARDEN VALLEY SCHOOL DIVISION,105,800 SOUTHVIEW DRIVE,,WINKLER,R6W 4E1,jrwalkof@gvsd.ca,( 37)-1544-0105, K-4, ,2043255903.0,2043257765,0,1,1,0,0
2285,NORTHLANDS PARKWAY COLLEGIATE,GARDEN VALLEY SCHOOL DIVISION,105,139 NORTHLANDS PARKWAY EAST,,WINKLER,R6W 0E9,npc@gvsd.ca,( 47)-2285-0105, 9-12, ,2043258600.0,2043258200,0,0,0,1,1
2053,PARKLAND ELEMENTARY SCHOOL,GARDEN VALLEY SCHOOL DIVISION,105,1100 ROBLIN BLVD,,WINKLER,R6W 1G2,parkland@gvsd.ca,( 34)-2053-0105, K-8, ,2043254066.0,2043256373,0,1,1,1,0
2316,PINE RIDGE ELEMENTARY SCHOOL,GARDEN VALLEY SCHOOL DIVISION,105,BOX 1330,750 TRIPLE E. BLVD,WINKLER,R6W 4B3,,()-2316-0105, K-8, ,2040000000.0,2040000000,0,1,1,1,0
1717,PLUM COULEE SCHOOL,GARDEN VALLEY SCHOOL DIVISION,105,PLUM COULEE UNIT,BOX 108,PLUM COULEE,R0G 1R0,pcschool@gvsd.ca,( 16)-1717-0105, K-8, ,2048293632.0,2043259852,0,1,1,1,0
2275,PRAIRIE DALE SCHOOL,GARDEN VALLEY SCHOOL DIVISION,105,39 CHURCH STREET SOUTH,,SCHANZENFELD,R6W 0E4,pds@gvsd.ca,( 18)-2275-0105, 4-8, ,2043258256.0,2043258203,0,0,1,1,0
1091,SOUTHWOOD ELEMENTARY,GARDEN VALLEY SCHOOL DIVISION,105,224 HESPELER AVENUE E.,,SCHANZENFELD,R6W 1K3,southwood@gvsd.ca,( 15)-1091-0105, K-3, ,2043255989.0,2043258592,0,1,1,0,0
1124,WINKLER ELEMENTARY,GARDEN VALLEY SCHOOL DIVISION,105,284 8TH STREET,,WINKLER,R6W 4C9,winklerelementary@gvsd.ca,( 40)-1124-0105, K-8, ,2043255902.0,2043259501,0,1,1,1,0
1122,BLUMENORT SCHOOL,HANOVER SCHOOL DIVISION,174,10 PARK STREET,,BLUMENORT,R0A 0C1,blumenort@hsd.ca,( 26)-1122-0174, K-8, ,2043268125.0,2043261757,0,1,1,1,0
1882,BOTHWELL SCHOOL,HANOVER SCHOOL DIVISION,174,BOX 220,25 CROWN VALLEY RD. E.,NEW BOTHWELL,R0A 1C0,bothwell@hsd.ca,( 11)-1882-0174, K-8, ,2043884686.0,2043884422,0,1,1,1,0
2282,CLEARSPRING MIDDLE SCHOOL,HANOVER SCHOOL DIVISION,174,1 BRIGHTON LANE,,STEINBACH,R5G 0Y2,cms@hsd.ca,( 38)-2282-0174, 5-8, ,2043469714.0,2043469644,0,0,1,1,0
1469,CRYSTAL SPRINGS SCHOOL,HANOVER SCHOOL DIVISION,174,BOX 10,,STE. AGATHE,R0G 1Y0,crystal@hsd.ca,(  6)-1469-0174, K-12, ,2044332546.0,2044332545,0,1,1,1,1
1198,ELMDALE SCHOOL,HANOVER SCHOOL DIVISION,174,160 ELMDALE STREET,,STEINBACH,R5G 0P3,,( 21)-1198-0174, K-4, ,2043263358.0,2043263325,0,1,1,0,0
1693,GREEN VALLEY SCHOOL,HANOVER SCHOOL DIVISION,174,BOX 29,,GRUNTHAL,R0A 0R0,greenval@hsd.ca,( 34)-1693-0174, 5-12, ,2044349010.0,2044346415,0,0,1,1,1
1234,KLEEFELD SCHOOL,HANOVER SCHOOL DIVISION,174,BOX 80,,KLEEFELD,R0A 0V0,kleefeld@hsd.ca,( 24)-1234-0174, K-8, ,2043774545.0,2043774751,0,1,1,1,0
1129,LANDMARK COLLEGIATE,HANOVER SCHOOL DIVISION,174,BOX 40,,LANDMARK,R0A 0X0,landmark@hsd.ca,( 17)-1129-0174, 7-12, ,2043554171.0,2043554020,0,0,0,1,1
2051,LANDMARK ELEMENTARY SCHOOL,HANOVER SCHOOL DIVISION,174,PO BOX 260,,LANDMARK,R0A 0X0,les@hsd.ca,( 14)-2051-0174, K-6, ,2043554360.0,2043554663,0,1,1,0,0
1959,MITCHELL ELEMENTARY SCHOOL,HANOVER SCHOOL DIVISION,174,99 STANWAY BAY,,MITCHELL,R5G 1J4,mitchellelem@hsd.ca,( 32)-1959-0174, K-4, ,2043460500.0,2043266622,0,1,1,0,0
2229,MITCHELL MIDDLE SCHOOL,HANOVER SCHOOL DIVISION,174,203 THIRD STREET,,MITCHELL,R5G 1H7,mms@hsd.ca,( 23)-2229-0174, 5-8, ,2043265332.0,2043209488,0,0,1,1,0
1309,NIVERVILLE COLLEGIATE,HANOVER SCHOOL DIVISION,174,BOX 188,,NIVERVILLE,R0A 1E0,nci@hsd.ca,( 43)-1309-0174, 5-12, ,2043886900.0,2043884731,0,0,1,1,1
1777,NIVERVILLE ELEMENTARY,HANOVER SCHOOL DIVISION,174,BOX 239,,NIVERVILLE,R0A 1E0,nes@hsd.ca,( 31)-1777-0174, K-5, ,2043884511.0,2043884861,0,1,1,0,0
2319,NIVERVILLE HIGH SCHOOL,HANOVER SCHOOL DIVISION,174,401 CENTER STREET,,NIVERVILLE,R0A 1E0,NHS@hsd.ca,()-2319-0174, 9-12, ,2043886900.0,2043884731,0,0,0,1,1
1590,SOUTH OAKS ELEMENTARY,HANOVER SCHOOL DIVISION,174,BOX 550,,GRUNTHAL,R0A 0R0,so@hsd.ca,( 24)-1590-0174, K-4, ,2044346159.0,2044346165,0,1,1,0,0
1513,SOUTHWOOD SCHOOL,HANOVER SCHOOL DIVISION,174,155 BARKMAN AVENUE,,STEINBACH,R5G 0P2,southwood@hsd.ca,( 30)-1513-0174, K-4, ,2043267535.0,2043263518,0,1,1,0,0
1353,STEINBACH REGIONAL SECONDARY,HANOVER SCHOOL DIVISION,174,190 MCKENZIE AVENUE,,STEINBACH,R5G 0P1,srss@hsd.ca,(137)-1353-0174, 9-12, ,2043261113.0,2043266426,0,0,0,1,1
1437,STONYBROOK MIDDLE SCHOOL,HANOVER SCHOOL DIVISION,174,77 LUMBER AVENUE,,STEINBACH,R5G 0R3,steinbac@hsd.ca,( 30)-1437-0174, 5-9, ,2043263014.0,2043266481,0,0,1,1,0
1182,WOODLAWN SCHOOL,HANOVER SCHOOL DIVISION,174,411 HENRY ST. EAST,,STEINBACH,R5G 0R1,woodlawn@hsd.ca,( 36)-1182-0174, K-4, ,2043460605.0,2043266110,0,1,1,0,0
2221,ACADÉMIE ISLAMIQUE DU MANITOBA,INDEPENDENT SCHOOLS,107,208 PROVENCHER BLVD.,P.O. BOX 153,WINNIPEG,R2H 3B4,ecolesofiyaschool@mts.net,(  4)-2221-0107, K-8,FR ,2042548144.0,2042314441,0,1,1,1,0
2114,ALHIJRA ISLAMIC SCHOOL,INDEPENDENT SCHOOLS,107,410 DESALABERRY AVENUE,,WINNIPEG,R2L 0Y7,ais123@mts.net,( 13)-2114-0107, K-9, ,2044891323.0,2044891300,0,1,1,1,0
1733,AUSTIN CHRISTIAN ACADEMY,INDEPENDENT SCHOOLS,107,BOX 460,,AUSTIN,R0H 0C0,office@austinchristianacademy.ca,( 11)-1733-0107, K-12, ,2046373127.0,2046372303,0,1,1,1,1
1536,BALMORAL HALL SCHOOL,INDEPENDENT SCHOOLS,107,630 WESTMINSTER AVENUE,,WINNIPEG,R3C 3S1,info@balmoralhall.ca,( 54)-1536-0107, K-12, ,2047745534.0,2047841600,0,1,1,1,1
2102,BEAUTIFUL SAVIOR LUTHERAN SCHOOL,INDEPENDENT SCHOOLS,107,52 BIRCHDALE AVE.,,WINNIPEG,R2H 1R9,principal@bsls.ca,( 10)-2102-0107, N-8, ,2049849607.0,2049849600,1,1,1,1,0
1077,CALVIN CHRISTIAN SCHOOL,INDEPENDENT SCHOOLS,107,245 SUTTON AVENUE,,WINNIPEG,R2G 0T1,ccsoffice@calvinchristian.mb.ca,( 38)-1077-0107, K-12, ,2043393280.0,2043387981,0,1,1,1,1
2055,CARTWRIGHT COMMUNITY INDEPENDENT SCH.,INDEPENDENT SCHOOLS,107,BOX 419  810 BROADWAY STREET,,CARTWRIGHT,R0K 0L0,cartwright@prspirit.org,(  6)-2055-0107, 12-12, ,2045292455.0,2045292357,0,0,0,0,1
1861,CHILDREN'S HOUSE,INDEPENDENT SCHOOLS,107,150 PACIFIC AVENUE,,WINNIPEG,R3B 3K8,childrenshouse@shaw.ca,(  1)-1861-0107, N-K, ,2049567088.0,2049561622,1,1,0,0,0
1148,CHRISTIAN HERITAGE SCHOOL,INDEPENDENT SCHOOLS,107,2025 26TH STREET,,BRANDON,R7B 3Y2,office@chsbrandon.ca,( 13)-1148-0107, K-8, ,2047289641.0,2047253209,0,1,1,1,0
1239,COMMUNITY BIBLE FELLOWSHIP CHRISTIAN,INDEPENDENT SCHOOLS,107,BOX 1630,,SWAN RIVER,R0L 1Z0,cbfchristianschool@gmail.com,(  6)-1239-0107, N-8, ,2047345706.0,2047342174,1,1,1,1,0
2284,DASMESH SCHOOL,INDEPENDENT SCHOOLS,107,1770 KING EDWARD STREET,,WINNIPEG,R2R 0M5,info@dasmeshschoolwpg.ca,(  9)-2284-0107, N-8, ,2056146514.0,2046336670,1,1,1,1,0
1157,DUFFERIN CHRISTIAN SCHOOL,INDEPENDENT SCHOOLS,107,BOX 1450,,CARMAN,R0G 0J0,office@dufferinchristian.ca,( 16)-1157-0107, K-12, ,2047453441.0,2047452278,0,1,1,1,1
1315,FAITH ACADEMY,INDEPENDENT SCHOOLS,107,437 MATHESON AVE.,,WINNIPEG,R2W 0E1,highschool.office@faithacademy.ca,( 45)-1315-0107, K-12, ,2045822616.0,2045823400,0,1,1,1,1
2151,GREEN ACRES COLONY HIGH SCHOOL,INDEPENDENT SCHOOLS,107,BOX 190,,WAWANESA,R0K 2G0,,(  2)-2151-0107, 9-12, ,2048242112.0,2048242112,0,0,0,1,1
2117,H. B. COMMUNITY SCHOOL,INDEPENDENT SCHOOLS,107,BOX 40,,MACGREGOR,R0H 0R0,bakercs@bakerhb.com,( 22)-2117-0107, K-12, ,2042522381.0,2042522178,0,1,1,1,1
1274,IMMANUEL CHRISTIAN SCHOOL,INDEPENDENT SCHOOLS,107,215 ROUGEAU AVENUE,,WINNIPEG,R2C 3Z9,office@immanuelchristian.ca,( 14)-1274-0107, K-12, ,2046697013.0,2046618937,0,1,1,1,1
2291,IQRA ISLAMIC,INDEPENDENT SCHOOLS,107,404 WEBB PLACE,,WINNIPEG,R3B 3J4,info@iqraschool.ca,(  4)-2291-0107, N-8, ,2046151116.0,2046151119,1,1,1,1,0
2197,KOLA COMMUNITY SCHOOL,INDEPENDENT SCHOOLS,107,BOX 553,,KOLA,R0M 1B0,kolacsi@yahoo.ca,(  1)-2197-0107, N-K, ,2045562425.0,2045562488,1,1,0,0,0
1998,LAKESIDE CHRISTIAN SCHOOL,INDEPENDENT SCHOOLS,107,BOX 894,237 HAMMOND STREET,KILLARNEY,R0K 1G0,lcs@mymts.net,(  5)-1998-0107, K-12, ,2045238351.0,2045238240,0,1,1,1,1
1981,LINDEN CHRISTIAN SCHOOL,INDEPENDENT SCHOOLS,107,877 WILKES AVENUE,,WINNIPEG,R3P 1B8,info@lindenchristian.org,( 67)-1981-0107, K-12, ,2044877068.0,2049896730,0,1,1,1,1
1101,MENNONITE BRETHREN COLLEGIATE INST.,INDEPENDENT SCHOOLS,107,173 TALBOT AVENUE,,WINNIPEG,R2L 0P6,info@mbci.mb.ca,( 33)-1101-0107, 6-12, ,2046615091.0,2046678210,0,0,1,1,1
1345,MENNONITE COLLEGIATE INSTITUTE,INDEPENDENT SCHOOLS,107,BOX 250,466 MARY STREET,GRETNA,R0G 0V0,mci@mciblues.net,(  7)-1345-0107, 9-12, ,8886845909.0,2043275891,0,0,0,1,1
2042,MONTESSORI LEARNING CENTRES INC.,INDEPENDENT SCHOOLS,107,170 ASHLAND AVENUE,,WINNIPEG,R3L 1L1,mlcmont@mymts.net,(  2)-2042-0107, N-K, ,2044524643.0,2044751039,1,1,0,0,0
1670,MORWEENA CHRISTIAN SCHOOL,INDEPENDENT SCHOOLS,107,BOX 4065,,ARBORG,R0C 0A0,info@morweenaschool.org,(  9)-1670-0107, K-12, ,2043643117.0,2043642466,0,1,1,1,1
2243,NORTHERN SHIELD ACADEMY,INDEPENDENT SCHOOLS,107,619 - 4TH STREET EAST,BOX 1309,STONEWALL,R0C 2Z0,,( 10)-2243-0107, 3-12, ,2044672571.0,2044675547,0,0,1,1,1
2293,NOVA MONTESSORI,INDEPENDENT SCHOOLS,107,C-3311 PEMBINA HIGHWAY,,WINNIPEG,R3V 1T7,novamontessoripreschoolinc@gmail.com,(  2)-2293-0107, N-K, ,2042610649.0,2042610647,1,1,0,0,0
2105,ODANAH COLONY SCHOOL,INDEPENDENT SCHOOLS,107,BOX 990,,MINNEDOSA,R0J 1E0,,(  3)-2105-0107, K-12, ,2048673305.0,2048685139,0,1,1,1,1
1997,OHOLEI TORAH SCHOOL,INDEPENDENT SCHOOLS,107,1845 MATHERS AVENUE,,WINNIPEG,R3N 0N2,rabbi@chabadwinnipeg.org,(  5)-1997-0107, N-8, ,2042728178.0,2043398737,1,1,1,1,0
1407,PINE CREEK SCHOOL,INDEPENDENT SCHOOLS,107,PINE CREEK COLONY,BOX 370,AUSTIN,R0H 0C0,pinecreekcolonyschool@gmail.com,(  1)-1407-0107, K-12, ,2044662715.0,2043845184,0,1,1,1,1
1362,POPLAR POINT COLONY SCHOOL,INDEPENDENT SCHOOLS,107,BOX 910,,PORTAGE LA PRAIRIE,R1N 3C4,dwschool@ppcol.net,(  2)-1362-0107, K-12, ,2042722445.0,2042722446,0,1,1,1,1
1304,RED RIVER VALLEY JUNIOR ACADEMY,INDEPENDENT SCHOOLS,107,56 GREY STREET,,WINNIPEG,R2L 1V3,info@rrvja.ca,( 10)-1304-0107, N-10, ,2046671396.0,2046672383,1,1,1,1,1
2219,SILVERWINDS SCHOOL,INDEPENDENT SCHOOLS,107,BOX 130,,SPERLING,R0G 2M0,,(  5)-2219-0107, K-12, ,2046263378.0,2046263378,0,1,1,1,1
1942,SPRINGS CHRISTIAN ACADEMY,INDEPENDENT SCHOOLS,107,261 YOUVILLE STREET,,WINNIPEG,R2H 2S7,info@springs.ca,( 35)-1942-0107, K-12, ,2042571286.0,2042313640,0,1,1,1,1
2109,ST. AIDAN'S CHRISTIAN SCHOOL,INDEPENDENT SCHOOLS,107,418 ABERDEEN AVENUE,,WINNIPEG,R2W 1V7,office@staidansschool.ca,(  9)-2109-0107, N-10, ,2045820155.0,2045866792,1,1,1,1,1
1155,ST. JOHN'S-RAVENSCOURT SCHOOL,INDEPENDENT SCHOOLS,107,400 SOUTH DRIVE,,WINNIPEG,R3T 3K5,info@sjr.mb.ca,( 90)-1155-0107, K-12, ,2044772429.0,2044772400,0,1,1,1,1
1453,STEINBACH CHRISTIAN SCHOOL,INDEPENDENT SCHOOLS,107,50 PTH 12 NORTH,,STEINBACH,R5G 1T4,reception@steinbachchristian.ca,( 22)-1453-0107, K-12, ,2043265164.0,2043263537,0,1,1,1,1
1962,THE KING'S SCHOOL,INDEPENDENT SCHOOLS,107,851 PANET ROAD,,WINNIPEG,R2K 4C9,info@thekingsschool.ca,( 23)-1962-0107, N-12, ,2049896584.0,2049896581,1,1,1,1,1
1980,THE LAUREATE ACADEMY,INDEPENDENT SCHOOLS,107,100 VILLA MARIA PLACE,,WINNIPEG,R3V 1A9,frontdesk@laureateacademy.com,( 14)-1980-0107, 1-12, ,2048853217.0,2048317107,0,0,1,1,1
1690,UNIVERSITY OF WINNIPEG COLLEGIATE,INDEPENDENT SCHOOLS,107,515 PORTAGE AVENUE,,WINNIPEG,R3B 2E9,collegiate@uwinnipeg.ca,( 38)-1690-0107, 9-12, IM,2047751942.0,2047869221,0,0,0,1,1
1285,WESTGATE MENNONITE COLLEGIATE,INDEPENDENT SCHOOLS,107,86 WEST GATE,,WINNIPEG,R3E 2E1,westgate@westgatemennonite.org,( 29)-1285-0107, 6-12, ,2047861651.0,2047757111,0,0,1,1,1
1983,WESTPARK SCHOOL,INDEPENDENT SCHOOLS,107,2375B SASKATCHEWAN AVENUE W,,PORTAGE LA PRAIRIE,R1N 4A6,office@westparkschool.com,( 22)-1983-0107, K-12, ,2042396545.0,2048573726,0,1,1,1,1
1988,WINGHAM HB SCHOOL,INDEPENDENT SCHOOLS,107,BOX 219,,ELM CREEK,R0G 0N0,,(  3)-1988-0107, K-12, ,,2047457420,0,1,1,1,1
1242,WINNIPEG MENNONITE ELEMENTARY,INDEPENDENT SCHOOLS,107,250 BEDSON STREET,,WINNIPEG,R3K 1R7,wmems@wmems.ca,( 28)-1242-0107, K-8, ,2048974068.0,2048851032,0,1,1,1,0
1961,WINNIPEG SOUTH ACADEMY,INDEPENDENT SCHOOLS,107,870 SCOTLAND AVE.,,WINNIPEG,R3M 1X8,info@kiddiekampus.ca,(  2)-1961-0107, N-4, ,2044526563.0,2044526547,1,1,1,0,0
2235,BEHAVIOURAL HEALTH FOUNDATION,INSTITUTIONAL SCHOOLS,176,35 AVE DE LA DIGUE,,ST. NORBERT,R3V 1L6,bhfschool@bhf.ca,(  1)-2235-0176, K-6, ,2042698049.0,2042693430,0,1,1,0,0
1948,CHILD & ADOLESCENT TREATMENT CENTRE,INSTITUTIONAL SCHOOLS,176,1240 - 10TH STREET,,BRANDON,R7A 7L6,,(  2)-1948-0176, 1-12, ,2045782850.0,2045782700,0,0,1,1,1
1219,GLADYS COOK EDUCATION CENTRE,INSTITUTIONAL SCHOOLS,176,#2 RIVER ROAD,BOX 1342,PORTAGE LA PRAIRIE,R1N 3A9,,(  8)-1219-0176, 1-12, ,2042393025.0,2042393029,0,0,1,1,1
2254,JOBWORKS ALTERNATIVE HIGH SCHOOL,INSTITUTIONAL SCHOOLS,176,1175 PEMBINA HIGHWAY,,WINNIPEG,R3T 2A5,,(  3)-2254-0176, 9-12, ,2044530277.0,2044538351,0,0,0,1,1
1570,MANITOBA SCHOOL FOR THE DEAF,INSTITUTIONAL SCHOOLS,176,242 STRADFORD STREET,,WINNIPEG,R2Y 2C9,principal@msd.ca,( 16)-1570-0176, K-12, ,2049451767.0,2049458934,0,1,1,1,1
1049,MANITOBA YOUTH CENTRE,INSTITUTIONAL SCHOOLS,176,170 DONCASTER STREET,,WINNIPEG,R3N 1X9,,(  5)-1049-0176, K-12, ,2042393025.0,2042393029,0,1,1,1,1
1798,MARYMOUND SCHOOL,INSTITUTIONAL SCHOOLS,176,442 SCOTIA STREET,,WINNIPEG,R2V 1X4,school@marymound.com,(  9)-1798-0176, 2-10, ,2043384690.0,2043365285,0,0,1,1,1
2301,NEW DIRECTIONS INC. SCHOOL,INSTITUTIONAL SCHOOLS,176,500 - 717 PORTAGE AVENUE,,WINNIPEG,R3G 0M8,wendy.mcpherson@newdirections.mb.ca,(  4)-2301-0176, 9-10, ,2047746468.0,2047867051,0,0,0,1,1
1620,ST. AMANT SCHOOL,INSTITUTIONAL SCHOOLS,176,440 RIVER ROAD,,WINNIPEG,R2M 3Z9,,(  8)-1620-0176, K-12, ,2042587066.0,2042587059,0,1,1,1,1
1028,BALMORAL SCHOOL,INTERLAKE SCHOOL DIVISION,155,GENERAL DELIVERY,,BALMORAL,R0C 0H0,balschool@isd21.mb.ca,( 13)-1028-0155, K-8, ,,2044672501,0,1,1,1,0
1752,BRANT-ARGYLE SCHOOL,INTERLAKE SCHOOL DIVISION,155,BOX 70,,ARGYLE,R0C 0B0,argyle@isd21.mb.ca,(  6)-1752-0155, K-8, ,,2044672683,0,1,1,1,0
1967,CONCORD SCHOOL,INTERLAKE SCHOOL DIVISION,155,CONCORD COLONY,BOX 940,STONY MOUNTAIN,R0C 3A0,hutterianschools@isd21.mb.ca,(  2)-1967-0155, K-12, ,,2043445840,0,1,1,1,1
1106,ÉCOLE R. W. BOBBY BEND SCHOOL,INTERLAKE SCHOOL DIVISION,155,377-2ND AVE. NORTH,,STONEWALL,R0C 2Z0,rwbb@isd21.mb.ca,( 31)-1106-0155, K-4, IM,,2044675537,0,1,1,0,0
1282,GROSSE ISLE SCHOOL,INTERLAKE SCHOOL DIVISION,155,BOX 1,,GROSSE ISLE,R0C 1G0,gischool@isd21.mb.ca,(  4)-1282-0155, 5-8, ,,2044672560,0,0,1,1,0
1610,KELSEY SCHOOL,INTERLAKE SCHOOL DIVISION,155,BOX 82,,ROSSER,R0H 1E0,hutterianschools@isd21.mb.ca,(  2)-1610-0155, K-12, ,,2046333485,0,1,1,1,1
1283,LIGHTLY SCHOOL,INTERLAKE SCHOOL DIVISION,155,CLEARWATER COLONY,BOX 103,BALMORAL,R0C 0H0,hutterianschools@isd21.mb.ca,(  1)-1283-0155, K-12, ,,2042728081,0,1,1,1,1
2143,MALLARD SCHOOL,INTERLAKE SCHOOL DIVISION,155,"BOX 7, GROUP 40",,WARREN,R0C 3E0,hutterianschools@isd21.mb.ca,(  2)-2143-0155, K-12, ,,2043225424,0,1,1,1,1
2299,MEADOW LANE SCHOOL,INTERLAKE SCHOOL DIVISION,155,C/O MEADOW LANE COLONY,BOX 68,ROSSER,R0H 1E0,hutterianschools@isd21.mb.ca,(  1)-2299-0155, K-12, ,,2043225661,0,1,1,1,1
1205,NEW HAVEN SCHOOL,INTERLAKE SCHOOL DIVISION,155,NEW HAVEN COLONY,BOX 100,ARGYLE,R0C 0B0,hutterianschools@isd21.mb.ca,(  3)-1205-0155, K-12, ,,2044678700,0,1,1,1,1
1433,OMEGA SCHOOL,INTERLAKE SCHOOL DIVISION,155,INTERLAKE COLONY,BOX 138,TEULON,R0C 3B0,hutterianschools@isd21.mb.ca,(  1)-1433-0155, K-12, ,,2048862574,0,1,1,1,1
2113,PRAIRIE BLOSSOM SCHOOL,INTERLAKE SCHOOL DIVISION,155,GENERAL DELIVERY,,BALMORAL,R0C 0H0,hutterianschools@isd21.mb.ca,(  2)-2113-0155, K-12, ,,2044678012,0,1,1,1,1
1572,ROCK LAKE SCHOOL,INTERLAKE SCHOOL DIVISION,155,ROCK LAKE COLONY,BOX 158,GROSSE ISLE,R0C 1G0,hutterianschools@isd21.mb.ca,(  3)-1572-0155, K-12, ,,2043225345,0,1,1,1,1
1346,ROSSER SCHOOL,INTERLAKE SCHOOL DIVISION,155,BOX 130,,ROSSER,R0H 1E0,rosser@isd21.mb.ca,(  5)-1346-0155, K-4, ,,2044672717,0,1,1,0,0
1879,STONEWALL CENTENNIAL SCHOOL,INTERLAKE SCHOOL DIVISION,155,573 - 2ND AVENUE N,,STONEWALL,R0C 2Z0,centennial@isd21.mb.ca,( 25)-1879-0155, 5-8, IM,,2044675502,0,0,1,1,0
1145,STONEWALL COLLEGIATE,INTERLAKE SCHOOL DIVISION,155,297 - 5TH ST WEST,,STONEWALL,R0C 2Z0,sci@isd21.mb.ca,( 40)-1145-0155, 9-12, IM,,2044675539,0,0,0,1,1
1381,STONY MOUNTAIN ELEMENTARY,INTERLAKE SCHOOL DIVISION,155,GENERAL DELIVERY,,STONY MOUNTAIN,R0C 3A0,sm@isd21.mb.ca,( 21)-1381-0155, K-8, ,,2043445459,0,1,1,1,0
1650,TEULON COLLEGIATE,INTERLAKE SCHOOL DIVISION,155,BOX 189,,TEULON,R0C 3B0,tci@isd21.mb.ca,( 21)-1650-0155, 7-12, ,,2048862593,0,0,0,1,1
1494,TEULON ELEMENTARY,INTERLAKE SCHOOL DIVISION,155,BOX 143,,TEULON,R0C 3B0,te@isd21.mb.ca,( 22)-1494-0155, K-6, ,,2048862620,0,1,1,0,0
1908,WARREN COLLEGIATE,INTERLAKE SCHOOL DIVISION,155,BOX 580,,WARREN,R0C 3E0,wci@isd21.mb.ca,( 19)-1908-0155, 9-12, ,,2043225586,0,0,0,1,1
1710,WARREN ELEMENTARY,INTERLAKE SCHOOL DIVISION,155,BOX 610,,WARREN,R0C 3E0,we@isd21.mb.ca,( 15)-1710-0155, K-8, ,,2043225576,0,1,1,1,0
1160,WOODLANDS SCHOOL,INTERLAKE SCHOOL DIVISION,155,BOX 40,,WOODLANDS,R0C 3H0,woodlands@isd21.mb.ca,( 11)-1160-0155, K-8, ,,2043835674,0,1,1,1,0
1021,ÉCOLE OPASQUIA SCHOOL,KELSEY SCHOOL DIVISION,171,BOX 4700,,THE PAS,R9A 1R4,oms-mail@ksd.mb.ca,( 27)-1021-0171, K-5, IM,2046236599.0,2046233459,0,1,1,0,0
1386,KELSEY COMMUNITY SCHOOL,KELSEY SCHOOL DIVISION,171,BOX 4700,,THE PAS,R9A 1R4,kcs@ksd.mb.ca,( 30)-1386-0171, K-5, ,2046232713.0,2046237421,0,1,1,0,0
1724,MARGARET BARBOUR COLLEGIATE INSTITUTE,KELSEY SCHOOL DIVISION,171,BOX 4700,429 SMITH AVENUE,THE PAS,R9A 1R4,mbarbour@ksd.mb.ca,( 30)-1724-0171, 9-12, IM,2046233139.0,2046233485,0,0,0,1,1
1616,MARY DUNCAN SCHOOL,KELSEY SCHOOL DIVISION,171,BOX 4700,,THE PAS,R9A 1R4,maryduncan@ksd.mb.ca,(  6)-1616-0171, 7-12, ,2046231309.0,2046231420,0,0,0,1,1
1260,SCOTT BATEMAN MIDDLE SCHOOL,KELSEY SCHOOL DIVISION,171,BOX 4700,,THE PAS,R9A 1R4,sbms@ksd.mb.ca,( 35)-1260-0171, 6-8, IM,2046236276.0,2046233411,0,0,1,1,0
1816,ALF CUTHBERT SCHOOL,LAKESHORE SCHOOL DIVISION,149,BOX 220,,MOOSEHORN,R0C 2E0,alfcuthbert@lakeshoresd.mb.ca,(  6)-1816-0149, K-8, ,2047683234.0,2047682396,0,1,1,1,0
1090,ASHERN CENTRAL SCHOOL,LAKESHORE SCHOOL DIVISION,149,BOX 1200,,ASHERN,R0C 0E0,asherncentral@lakeshoresd.mb.ca,( 19)-1090-0149, 5-12, ,2047682879.0,2047682571,0,0,1,1,1
2116,ASHERN EARLY YEARS SCHOOL,LAKESHORE SCHOOL DIVISION,149,BOX 1400,,ASHERN,R0C 0E0,ashernearly@lakeshoresd.mb.ca,(  4)-2116-0149, K-4, ,2047683656.0,2047682625,0,1,1,0,0
1123,BROAD VALLEY COLONY SCHOOL,LAKESHORE SCHOOL DIVISION,149,BROAD VALLEY COLONY,BOX 8,POPLARFIELD,R0C 2N0,kochanw@lakeshoresd.mb.ca,(  3)-1123-0149, K-12, ,2043728573.0,2043728573,0,1,1,1,1
1116,ERIKSDALE SCHOOL,LAKESHORE SCHOOL DIVISION,149,BOX 179,,ERIKSDALE,R0C 0W0,eriksdale@lakeshoresd.mb.ca,( 14)-1116-0149, K-8, ,2047392735.0,2047392635,0,1,1,1,0
1765,FISHER BRANCH COLLEGIATE,LAKESHORE SCHOOL DIVISION,149,BOX 250,,FISHER BRANCH,R0C 0Z0,fbci@lakeshoresd.mb.ca,( 12)-1765-0149, 5-12, ,2043726363.0,2043726459,0,0,1,1,1
1424,FISHER BRANCH EARLY YEARS SCHOOL,LAKESHORE SCHOOL DIVISION,149,BOX 355,,FISHER BRANCH,R0C 0Z0,fbeys@lakeshoresd.mb.ca,(  5)-1424-0149, K-4, ,2043726100.0,2043726615,0,1,1,0,0
1612,INWOOD SCHOOL,LAKESHORE SCHOOL DIVISION,149,BOX 220,,INWOOD,R0C 1P0,inwood@lakeshoresd.mb.ca,(  4)-1612-0149, K-12, ,2042783208.0,2042783347,0,1,1,1,1
1130,LUNDAR SCHOOL,LAKESHORE SCHOOL DIVISION,149,BOX 602,,LUNDAR,R0C 1Y0,lundar@lakeshoresd.mb.ca,( 12)-1130-0149, K-12, ,2047625942.0,2047625610,0,1,1,1,1
1168,MARBLE RIDGE COLONY SCHOOL,LAKESHORE SCHOOL DIVISION,149,MARBLE RIDGE COLONY,BOX 310,HODGSON,R0C 1N0,kochanw@lakeshoresd.mb.ca,(  3)-1168-0149, K-12, ,2043728830.0,2043728830,0,1,1,1,1
1483,CENTENNIAL SCHOOL,LORD SELKIRK SCHOOL DIVISION,154,19 CENTENNIAL AVENUE,,SELKIRK,R1A 0C8,centennial-sch@lssd.ca,( 14)-1483-0154, K-6, ,2047852209.0,2044823265,0,1,1,0,0
1040,DAERWOOD SCHOOL,LORD SELKIRK SCHOOL DIVISION,154,211 MAIN STREET,,SELKIRK,R1A 1R7,daerwood-sch@lssd.ca,( 29)-1040-0154, K-6, ,2044823033.0,2044824326,0,1,1,0,0
2256,EAST SELKIRK MIDDLE SCHOOL,LORD SELKIRK SCHOOL DIVISION,154,BOX 310,1140 STRATHCONA ROAD,EAST SELKIRK,R0E 0M0,esms@lssd.ca,( 28)-2256-0154, 5-9, ,2047852465.0,2047852036,0,0,1,1,0
2083,ÉCOLE BONAVENTURE,LORD SELKIRK SCHOOL DIVISION,154,516A AVENUE STANLEY,,SELKIRK,R1A 0S1,bonaventure-sch@lssd.ca,( 19)-2083-0154, M-6, IM,2044828370.0,2047858284,0,1,1,0,0
1181,HAPPY THOUGHT SCHOOL,LORD SELKIRK SCHOOL DIVISION,154,BOX 6  GROUP 35  RR1,,EAST SELKIRK,R0E 0M0,hts@lssd.ca,( 27)-1181-0154, K-4, ,2047852872.0,2044824521,0,1,1,0,0
1657,LOCKPORT SCHOOL,LORD SELKIRK SCHOOL DIVISION,154,129 LOCKPORT ROAD,,LOCKPORT,R1A 3H6,lockport-school@lssd.ca,( 25)-1657-0154, 7-9, ,2047572624.0,2047579881,0,0,0,1,0
1641,LORD SELKIRK REGIONAL SECONDARY,LORD SELKIRK SCHOOL DIVISION,154,221 MERCY STREET,,SELKIRK,R1A 2C8,lsrcss@lssd.ca,( 77)-1641-0154, 10-12, IM,2047852571.0,2044826926,0,0,0,0,1
1598,MAPLETON SCHOOL,LORD SELKIRK SCHOOL DIVISION,154,112 CALDER ROAD,,SELKIRK,R1A 4B5,mapleton-school@lssd.ca,( 12)-1598-0154, K-6, ,2044826771.0,2044824409,0,1,1,0,0
2111,NETLEY SCHOOL,LORD SELKIRK SCHOOL DIVISION,154,BOX 100,,PETERSFIELD,R0C 2L0,netley-school@lssd.ca,(  3)-2111-0154, K-12, ,2047384697.0,2047384630,0,1,1,1,1
1897,ROBERT SMITH ELEMENTARY,LORD SELKIRK SCHOOL DIVISION,154,300 SOPHIA STREET,,SELKIRK,R1A 2E2,robertsmith-sch@lssd.ca,( 20)-1897-0154, K-6, ,2044828240.0,2044823677,0,1,1,0,0
1799,RUTH HOOKER SCHOOL,LORD SELKIRK SCHOOL DIVISION,154,430 MORRIS AVENUE,,SELKIRK,R1A 1B4,ruth-hooker-sch@lssd.ca,( 14)-1799-0154, K-6, ,2044823078.0,2044823614,0,1,1,0,0
1835,SELKIRK JUNIOR HIGH,LORD SELKIRK SCHOOL DIVISION,154,516 STANLEY AVENUE,,SELKIRK,R1A 0S1,sjh-school@lssd.ca,( 35)-1835-0154, 7-9, IM,2044821248.0,2047858514,0,0,0,1,0
1640,ST. ANDREWS SCHOOL,LORD SELKIRK SCHOOL DIVISION,154,8 ST. ANDREWS ROAD,,ST. ANDREWS,R1A 2Y1,st.andrews-sch@lssd.ca,( 31)-1640-0154, K-6, ,2043343148.0,2043346083,0,1,1,0,0
1343,WALTER WHYTE SCHOOL,LORD SELKIRK SCHOOL DIVISION,154,BOX 189,,GRAND MARAIS,R0E 0T0,wwhyte@lssd.ca,( 12)-1343-0154, K-9, ,2047542194.0,2047542240,0,1,1,1,0
1288,WILLIAM S. PATTERSON SCHOOL,LORD SELKIRK SCHOOL DIVISION,154,BOX 100,,CLANDEBOYE,R0C 0P0,wm.spatt@lssd.ca,( 11)-1288-0154, K-6, ,2047382574.0,2047384700,0,1,1,0,0
1136,ARCHWOOD SCHOOL,LOUIS RIEL SCHOOL DIVISION,186,800 ARCHIBALD STREET,,WINNIPEG,R2J 0Y4,,( 18)-1136-0186, K-8, ,2042337989.0,2042337983,0,1,1,1,0
1878,COLLÈGE BÉLIVEAU,LOUIS RIEL SCHOOL DIVISION,186,296 CHEMIN SPEERS,,WINNIPEG,R2J 1M7,,( 36)-1878-0186, 7-12, IM,2042550692.0,2042553205,0,0,0,1,1
2027,COLLÈGE JEANNE-SAUVÉ,LOUIS RIEL SCHOOL DIVISION,186,1128 RUE DAKOTA,,WINNIPEG,R2N 3T8,,( 42)-2027-0186, 9-12, IM,2042560867.0,2042570124,0,0,0,1,1
1823,DAKOTA COLLEGIATE,LOUIS RIEL SCHOOL DIVISION,186,661 DAKOTA STREET,,WINNIPEG,R2M 3K3,,( 68)-1823-0186, 9-12, ,2042574347.0,2042564366,0,0,0,1,1
1441,DARWIN SCHOOL,LOUIS RIEL SCHOOL DIVISION,186,175 DARWIN STREET,,WINNIPEG,R2M 4A9,,( 22)-1441-0186, K-8, ,2042571605.0,2042572904,0,1,1,1,0
1589,DR. D. W. PENNER SCHOOL,LOUIS RIEL SCHOOL DIVISION,186,121 HAZELWOOD CRESCENT,,WINNIPEG,R2M 4E4,,( 12)-1589-0186, K-6, ,2042553969.0,2042561135,0,1,1,0,0
1855,ÉCOLE GEORGE MCDOWELL,LOUIS RIEL SCHOOL DIVISION,186,366 CHEMIN PADDINGTON,,WINNIPEG,R2N 1R1,,( 23)-1855-0186, 6-8, IM,2042565371.0,2042531492,0,0,1,1,0
1404,ÉCOLE GUYOT,LOUIS RIEL SCHOOL DIVISION,186,400 CROISSANT WILLOW LAKE,,WINNIPEG,R2J 3K2,,( 23)-1404-0186, M-6, IM,2042572542.0,2042572540,0,1,1,0,0
1492,ÉCOLE HENRI-BERGERON,LOUIS RIEL SCHOOL DIVISION,186,363 CROISSANT ENFIELD,,WINNIPEG,R2H 1C6,,( 16)-1492-0186, 4-8, IM,2042333149.0,2042337079,0,0,1,1,0
1790,ÉCOLE HOWDEN,LOUIS RIEL SCHOOL DIVISION,186,150 CHEMIN HOWDEN,,WINNIPEG,R2J 1L3,,( 20)-1790-0186, M-6, IM,2042573244.0,2042570656,0,1,1,0,0
2100,ÉCOLE JULIE-RIEL,LOUIS RIEL SCHOOL DIVISION,186,316 RUE ASHWORTH,,WINNIPEG,R2N 2L7,,( 25)-2100-0186, M-5, IM,2042536120.0,2042532363,0,1,1,0,0
1018,ÉCOLE MARIE-ANNE-GABOURY,LOUIS RIEL SCHOOL DIVISION,186,95 RUE PULBERRY,,WINNIPEG,R2M 3X5,,( 29)-1018-0186, M-8, IM,2042555541.0,2042539704,0,1,1,1,0
1016,ÉCOLE PROVENCHER,LOUIS RIEL SCHOOL DIVISION,186,320 AVENUE DE LA CATHÉDRALE,,WINNIPEG,R2H 0J4,,( 20)-1016-0186, M-3, IM,2042333086.0,2042330222,0,1,1,0,0
2310,ÉCOLE SAGE CREEK SCHOOL,LOUIS RIEL SCHOOL DIVISION,186,315 SAGE CREEK BLVD,,WINNIPEG,R3X 0G4,,( 46)-2310-0186, K-8, IM,2042538044.0,2042538199,0,1,1,1,0
1965,ÉCOLE SAINT-GERMAIN,LOUIS RIEL SCHOOL DIVISION,186,77 CHEMIN JOHN FORSYTH,,WINNIPEG,R2N 1R3,,( 29)-1965-0186, M-5, IM,2042537981.0,2042540120,0,1,1,0,0
1986,ÉCOLE VAN BELLEGHEM,LOUIS RIEL SCHOOL DIVISION,186,10 CHEMIN VERMILLION,,WINNIPEG,R2J 2T1,,( 25)-1986-0186, M-8, IM,2042551160.0,2042551134,0,1,1,1,0
1366,ÉCOLE VARENNES,LOUIS RIEL SCHOOL DIVISION,186,22 AVENUE VARENNES,,WINNIPEG,R2M 0N1,,( 26)-1366-0186, M-8, IM,2042537202.0,2042531375,0,1,1,1,0
1128,FRONTENAC SCHOOL,LOUIS RIEL SCHOOL DIVISION,186,866 AUTUMNWOOD DRIVE,,WINNIPEG,R2J 1C1,,( 33)-1128-0186, K-8, ,2042577390.0,2042570609,0,1,1,1,0
1039,GENERAL VANIER SCHOOL,LOUIS RIEL SCHOOL DIVISION,186,18 LOMOND BOULEVARD,,WINNIPEG,R2J 1Y2,,( 23)-1039-0186, K-8, ,2042551442.0,2042551400,0,1,1,1,0
1530,GLENLAWN COLLEGIATE,LOUIS RIEL SCHOOL DIVISION,186,770 ST. MARY'S ROAD,,WINNIPEG,R2M 3N7,,( 73)-1530-0186, 9-12, ,2042339212.0,2042333986,0,0,0,1,1
1336,GLENWOOD SCHOOL,LOUIS RIEL SCHOOL DIVISION,186,51 BLENHEIM AVENUE,,WINNIPEG,R2M 0H9,,( 13)-1336-0186, K-8, ,2042350616.0,2042333619,0,1,1,1,0
2020,H. S. PAUL SCHOOL,LOUIS RIEL SCHOOL DIVISION,186,160 SOUTHGLEN BOULEVARD,,WINNIPEG,R2N 3J3,,( 28)-2020-0186, K-8, ,2042559093.0,2042547477,0,1,1,1,0
1017,HASTINGS SCHOOL,LOUIS RIEL SCHOOL DIVISION,186,50 HASTINGS BOULEVARD,,WINNIPEG,R2M 3X5,,( 22)-1017-0186, K-8, ,2042567954.0,2042531371,0,1,1,1,0
2062,HIGHBURY SCHOOL,LOUIS RIEL SCHOOL DIVISION,186,99 HIGHBURY ROAD,,WINNIPEG,R2N 2N5,,( 33)-2062-0186, K-8, ,2042535333.0,2042545078,0,1,1,1,0
2152,ISLAND LAKES COMMUNITY SCHOOL,LOUIS RIEL SCHOOL DIVISION,186,445 ISLAND SHORE BLVD.,,WINNIPEG,R3X 2B4,,( 26)-2152-0186, K-8, ,2042546388.0,2042546247,0,1,1,1,0
1246,J. H. BRUNS COLLEGIATE,LOUIS RIEL SCHOOL DIVISION,186,250 LAKEWOOD BOULEVARD,,WINNIPEG,R2J 3A2,,( 50)-1246-0186, 9-12, ,2042532149.0,2042572928,0,0,0,1,1
1571,LAVALLEE SCHOOL,LOUIS RIEL SCHOOL DIVISION,186,505 ST. ANNE'S ROAD,,WINNIPEG,R2M 3E5,,( 17)-1571-0186, K-8, ,2042546716.0,2042531388,0,1,1,1,0
1171,LOUIS RIEL S.D. ARTS AND TECHNOLOGY CTR.,LOUIS RIEL SCHOOL DIVISION,186,5 DEBOURMONT AVENUE,,WINNIPEG,R2J 1J9,,( 31)-1171-0186, 11-12, ,2042310038.0,2042378951,0,0,0,0,1
1542,MARION SCHOOL,LOUIS RIEL SCHOOL DIVISION,186,619 DESMEURONS STREET,,WINNIPEG,R2H 2R1,,( 20)-1542-0186, K-8, ,2042332894.0,2042332893,0,1,1,1,0
1156,MINNETONKA SCHOOL,LOUIS RIEL SCHOOL DIVISION,186,200 MINNETONKA STREET,,WINNIPEG,R2M 3Y6,,( 13)-1156-0186, K-8, ,2042572614.0,2042578114,0,1,1,1,0
1833,NELSON MCINTYRE COLLEGIATE,LOUIS RIEL SCHOOL DIVISION,186,188 ST. MARY'S ROAD,,WINNIPEG,R2H 1H9,,( 36)-1833-0186, 9-12, ,2042371615.0,2042370219,0,0,0,1,1
1374,NIAKWA PLACE SCHOOL,LOUIS RIEL SCHOOL DIVISION,186,200 PEBBLE BEACH ROAD,,WINNIPEG,R2J 3K3,,( 15)-1374-0186, K-8, ,2042570655.0,2042570640,0,1,1,1,0
1189,NORDALE SCHOOL,LOUIS RIEL SCHOOL DIVISION,186,99 BIRCHDALE AVENUE,,WINNIPEG,R2H 1S2,,( 15)-1189-0186, K-8, ,2042371592.0,2042370202,0,1,1,1,0
1964,SAMUEL BURLAND SCHOOL,LOUIS RIEL SCHOOL DIVISION,186,192 BURLAND AVENUE,,WINNIPEG,R2N 2T9,,( 33)-1964-0186, K-8, ,2042539125.0,2042540124,0,1,1,1,0
1782,SHAMROCK SCHOOL,LOUIS RIEL SCHOOL DIVISION,186,831 BEAVERHILL BOULEVARD,,WINNIPEG,R2J 3K1,,( 29)-1782-0186, K-8, ,2042560588.0,2042570637,0,1,1,1,0
1421,ST. GEORGE SCHOOL,LOUIS RIEL SCHOOL DIVISION,186,151 ST. GEORGE ROAD,,WINNIPEG,R2M 3J2,,( 27)-1421-0186, K-8, ,2042551756.0,2042532646,0,1,1,1,0
1669,VICTOR H.L. WYATT SCHOOL,LOUIS RIEL SCHOOL DIVISION,186,485 MEADOWOOD DRIVE,,WINNIPEG,R2M 5C1,,( 24)-1669-0186, K-8, ,2042571631.0,2042557880,0,1,1,1,0
1468,VICTOR MAGER SCHOOL,LOUIS RIEL SCHOOL DIVISION,186,81 BELIVEAU ROAD,,WINNIPEG,R2M 1S6,,( 30)-1468-0186, K-8, ,2042539007.0,2042539873,0,1,1,1,0
1607,WINDSOR PARK COLLEGIATE,LOUIS RIEL SCHOOL DIVISION,186,1015 COTTONWOOD ROAD,,WINNIPEG,R2J 1G3,,( 46)-1607-0186, 9-12, ,2042562856.0,2042567316,0,0,0,1,1
1420,WINDSOR SCHOOL,LOUIS RIEL SCHOOL DIVISION,186,80 CUNNINGTON AVENUE,,WINNIPEG,R2M 0W7,,( 24)-1420-0186, K-8, ,2042370687.0,2042374057,0,1,1,1,0
1956,MANITOBA INSTITUTE OF TRADES AND TECH.,MANITOBA INSTITUTE OF TRADES AND TECH.,125,130 HENLOW BAY,,WINNIPEG,R3Y 1G4,info@mitt.ca,( 16)-1956-0125, 11-12, ,2044884152.0,2049896500,0,0,0,0,1
1072,DAUPHIN REGIONAL COMP SECONDARY,MOUNTAIN VIEW SCHOOL DIVISION,187,330 MOUNTAIN ROAD NORTH,,DAUPHIN,R7N 2V6,sch1072@mvsd.ca,( 43)-1072-0187, 9-12, IM,2046384671.0,2046384629,0,0,0,1,1
1328,ÉCOLE MACNEILL,MOUNTAIN VIEW SCHOOL DIVISION,187,312 RUE SANDY,,DAUPHIN,R7N 0K9,,( 13)-1328-0187, M-5, IM,2046383978.0,2046383942,0,1,1,0,0
1161,ETHELBERT SCHOOL,MOUNTAIN VIEW SCHOOL DIVISION,187,BOX 241,,ETHELBERT,R0L 0T0,ecischool@mts.net,(  8)-1161-0187, K-12, ,2047423460.0,2047423265,0,1,1,1,1
1889,GILBERT PLAINS COLLEGIATE INSTITUTE,MOUNTAIN VIEW SCHOOL DIVISION,187,BOX 70,,GILBERT PLAINS,R0L 0X0,sch1889@mvsd.ca,(  5)-1889-0187, 9-12, ,2045482773.0,2045482551,0,0,0,1,1
1667,GILBERT PLAINS ELEMENTARY,MOUNTAIN VIEW SCHOOL DIVISION,187,BOX 397,,GILBERT PLAINS,R0L 0X0,,(  8)-1667-0187, K-8, ,2045482029.0,2045482822,0,1,1,1,0
1582,GOOSE LAKE HIGH,MOUNTAIN VIEW SCHOOL DIVISION,187,BOX 759,,ROBLIN,R0L 1P0,sch1582@mvsd.ca,( 13)-1582-0187, 9-12, ,2049372267.0,2049372138,0,0,0,1,1
1735,GRANDVIEW SCHOOL,MOUNTAIN VIEW SCHOOL DIVISION,187,BOX 279,,GRANDVIEW,R0L 0Y0,sch1735@mvsd.ca,( 18)-1735-0187, K-12, ,2045463026.0,2045462882,0,1,1,1,1
1223,HENDERSON ELEMENTARY,MOUNTAIN VIEW SCHOOL DIVISION,187,911 BOND STREET,,DAUPHIN,R7N 3J7,sch1223@mvsd.ca,( 15)-1223-0187, K-6, ,2046383912.0,2046384653,0,1,1,0,0
1457,LT. COL. BARKER V.C. SCHOOL,MOUNTAIN VIEW SCHOOL DIVISION,187,1516 BOND STREET,,DAUPHIN,R7N 0K4,sch1457@mvsd.ca,( 15)-1457-0187, K-5, ,2046383808.0,2046384588,0,1,1,0,0
1323,MACKENZIE MIDDLE SCHOOL,MOUNTAIN VIEW SCHOOL DIVISION,187,212 - 1ST STREET N.E.,,DAUPHIN,R7N 1B7,,( 29)-1323-0187, 6-8, IM,2046384810.0,2046383323,0,0,1,1,0
1118,OCHRE RIVER SCHOOL,MOUNTAIN VIEW SCHOOL DIVISION,187,GENERAL DELIVERY,,OCHRE RIVER,R0L 1K0,sch1118@mvsd.ca,(  5)-1118-0187, K-8, ,2047332380.0,2047332559,0,1,1,1,0
1355,ROBLIN ELEMENTARY,MOUNTAIN VIEW SCHOOL DIVISION,187,BOX 699,,ROBLIN,R0L 1P0,sch1355@mvsd.ca,( 22)-1355-0187, K-8, ,2049372835.0,2049372585,0,1,1,1,0
1486,SMITH-JACKSON SCHOOL,MOUNTAIN VIEW SCHOOL DIVISION,187,701 FIRST STREET S.E.,,DAUPHIN,R7N 3L4,sch1486@mvsd.ca,(  8)-1486-0187, K-5, ,2046384162.0,2046383134,0,1,1,0,0
1411,WHITMORE SCHOOL,MOUNTAIN VIEW SCHOOL DIVISION,187,28 SIXTH AVENUE S.W.,,DAUPHIN,R7N 1V9,sch1411@mvsd.ca,(  9)-1411-0187, K-5, ,2046386751.0,2046384782,0,1,1,0,0
1575,WINNIPEGOSIS COLLEGIATE,MOUNTAIN VIEW SCHOOL DIVISION,187,BOX 100,,WINNIPEGOSIS,R0L 2G0,,( 11)-1575-0187, 9-12, ,2046564454.0,2046564792,0,0,0,1,1
1349,WINNIPEGOSIS ELEMENTARY,MOUNTAIN VIEW SCHOOL DIVISION,187,BOX 120,,WINNIPEGOSIS,R0L 2G0,,(  8)-1349-0187, K-8, ,2046564901.0,2046564550,0,1,1,1,0
1707,BURNTWOOD ELEMENTARY,MYSTERY LAKE SCHOOL DISTRICT,102,103 ARCTIC DRIVE,,THOMPSON,R8N 1G8,burntsec@mysterynet.mb.ca,( 28)-1707-0102, K-8, ,2046771380.0,2046776100,0,1,1,1,0
1417,DEERWOOD SCHOOL,MYSTERY LAKE SCHOOL DISTRICT,102,101 BEAVER CRESCENT,,THOMPSON,R8N 1C5,deersec@mysterynet.mb.ca,( 20)-1417-0102, K-8, ,2046776132.0,2046776125,0,1,1,1,0
1684,JUNIPER SCHOOL,MYSTERY LAKE SCHOOL DISTRICT,102,306 JUNIPER DRIVE,,THOMPSON,R8N 0S9,junsec@mysterynet.mb.ca,( 25)-1684-0102, K-8, ,2046776249.0,2046776242,0,1,1,1,0
1341,R. D. PARKER COLLEGIATE,MYSTERY LAKE SCHOOL DISTRICT,102,272 THOMPSON DRIVE NORTH,,THOMPSON,R8N 0C4,rdpc@mysterynet.mb.ca,( 77)-1341-0102, 9-12, IM,2047785050.0,2046776200,0,0,0,1,1
1033,RIVERSIDE SCHOOL,MYSTERY LAKE SCHOOL DISTRICT,102,119 RIVERSIDE DRIVE,,THOMPSON,R8N 0X1,riversec@mysterynet.mb.ca,( 29)-1033-0102, K-8, IM,2046774823.0,2046776115,0,1,1,1,0
1403,WAPANOHK COMMUNITY SCHOOL,MYSTERY LAKE SCHOOL DISTRICT,102,453 PRINCETON DRIVE,,THOMPSON,R8N 1W8,wcssec@mysterynet.mb.ca,( 39)-1403-0102, K-8, ,2046776176.0,2046776140,0,1,1,1,0
1495,WESTWOOD ELEMENTARY,MYSTERY LAKE SCHOOL DISTRICT,102,46 MALLARD CRESCENT,,THOMPSON,R8N 0X9,westsec@mysterynet.mb.ca,( 28)-1495-0102, K-8, ,2046773660.0,2046776190,0,1,1,1,0
1580,AIRPORT COLONY SCHOOL,NON-FUNDED SCHOOLS,197,P.O. BOX 967,,PORTAGE LA PRAIRIE,R1N 3C4,,()-1580-0197, K-12, ,2042742316.0,2042742412,0,1,1,1,1
2307,ASSINIBOINE VALLEY CHRISTIAN SCHOOL,NON-FUNDED SCHOOLS,197,"SITE 170, BOX 37, R.R. #1",,BRANDON,R7A 5Y1,,()-2307-0197, 1-9, ,2047283229.0,2047283229,0,0,1,1,0
2069,BORDER VIEW CHRISTIAN DAY SCHOOL,NON-FUNDED SCHOOLS,197,BOX 103,,STUARTBURN,R0A 2B0,,()-2069-0197, 1-10, ,,2044272932,0,0,1,1,1
2268,CASA MONTESSORI AND ORFF SCHOOL,NON-FUNDED SCHOOLS,197,80 FENNELL STREET,,WINNIPEG,R3T 3M4,admin@montessoriandorff.ca,()-2268-0197, K-6,FR ,2044758112.0,2044758063,0,1,1,0,0
2318,CGF Mitchell Academy,NON-FUNDED SCHOOLS,197,BOX 3143,,STEINBACH,R5G 1P5,,()-2318-0197, 1-4, ,2040000000.0,2043469799,0,0,1,0,0
2220,CHRIST FULL GOSPEL ACADEMY,NON-FUNDED SCHOOLS,197,BOX 107,75 ELM STREET,PLUM COULEE,R0G 1R0,cfgfpcstorgerri@mymts.net,()-2220-0197, 1-12, ,2048293212.0,2048293212,0,0,1,1,1
2237,CHURCH OF GOD ACADEMY,NON-FUNDED SCHOOLS,197,P.O. BOX 3368,,STEINBACH,R5G 1P6,,()-2237-0197, 1-12, ,,2044346643,0,0,1,1,1
1526,COUNTRY VIEW SCHOOL,NON-FUNDED SCHOOLS,197,BOX 3910,,STEINBACH,R5G 1P9,,()-1526-0197, 1-9, ,2043264788.0,2043261481,0,0,1,1,0
2287,CRYSTAL CREEK SCHOOL,NON-FUNDED SCHOOLS,197,BOX 266,,CRYSTAL CITY,R0K 0N0,crystalcreekschool@gmail.com,()-2287-0197, 2-9, ,2048732469.0,2048732458,0,0,1,1,0
2150,EDRANS CHRISTIAN SCHOOL,NON-FUNDED SCHOOLS,197,BOX 1,"R.R. #1, GRP 15",AUSTIN,R0H 0C0,info@echurchnet.ca,()-2150-0197, K-12, ,2044662994.0,2044662865,0,1,1,1,1
2317,FREEDOM INTERNATIONAL SCHOOL,NON-FUNDED SCHOOLS,197,376 NOTRE DAME AVENUE,,WINNIPEG,R3B 1P8,,()-2317-0197, 8-12, ,2040000000.0,2046613399,0,0,0,1,1
2311,GONZAGA MIDDLE SCHOOL,NON-FUNDED SCHOOLS,197,174 MAPLE STREET NORTH,,WINNIPEG,R2W 3L4,,(  7)-2311-0197, 6-7, ,2040000000.0,2049497101,0,0,1,1,0
2108,GRACE VALLEY MENNONITE ACADEMY,NON-FUNDED SCHOOLS,197,BOX 839,,WINKLER,R6W 4A9,,()-2108-0197, K-12, ,2048293038.0,2048293301,0,1,1,1,1
1176,GREENLAND SCHOOL,NON-FUNDED SCHOOLS,197,"BOX 22, GRP. 15, R.R.#1",,STE. ANNE,R5H 1R1,,()-1176-0197, 1-9, ,2043559280.0,2043554922,0,0,1,1,0
1963,HORNDEAN CHRISTIAN DAY SCHOOL,NON-FUNDED SCHOOLS,197,BOX 79,,HORNDEAN,R0G 0Z0,horndeanschool@gmail.com,()-1963-0197, 1-12, ,,2048293354,0,0,1,1,1
2263,HOSANNA CHRISTIAN SCHOOL,NON-FUNDED SCHOOLS,197,UNIT C-1,431 THAMES STREET,WINNIPEG,R2L 0V4,office@hscwwinnipeg.org,()-2263-0197, 1-12, ,2049448235.0,2049448237,0,0,1,1,1
2308,INSPIRED EXPLORATIONS LEARNING COMMUNITY,NON-FUNDED SCHOOLS,197,"PO BOX 413, STN MAIN",,WINNIPEG,R3C 2H6,,(  1)-2308-0197, K-3, ,2040000000.0,2043961787,0,1,1,0,0
1236,INTERLAKE MENNONITE FELLOWSHIP SCHOOL,NON-FUNDED SCHOOLS,197,BOX 388,,ARBORG,R0C 0A0,imfschool@gmail.com,()-1236-0197, 1-12, ,0.0,2043642328,0,0,1,1,1
1509,LAKE CENTRE MENNONITE FELLOWSHIP SCH.,NON-FUNDED SCHOOLS,197,BOX 838,,ARBORG,R0C 0A0,,()-1509-0197, K-10, ,0.0,2043642201,0,1,1,1,1
2273,LIGHTFIELD MENNONITE SCHOOL,NON-FUNDED SCHOOLS,197,BOX 41,,HORDEAN,R0G 0Z0,,()-2273-0197, 1-10, ,,2043625665,0,0,1,1,1
2145,LIGHTHOUSE CHRISTIAN SCHOOL,NON-FUNDED SCHOOLS,197,BOX 1360,,PORTAGE LA PRAIRIE,R1N 3N9,,()-2145-0197, K-12, ,2044285386.0,2044285332,0,1,1,1,1
2296,LITTLE CREEK SCHOOL,NON-FUNDED SCHOOLS,197,BOX 205,247 JUBILEE ROAD,MARQUETTE,R0H 0V0,,()-2296-0197, 1-12, ,2043532216.0,2043532110,0,0,1,1,1
1995,LIVING HOPE SCHOOL,NON-FUNDED SCHOOLS,197,BOX 2158,,NEEPAWA,R0J 1H0,,()-1995-0197, K-12, ,,2049663274,0,1,1,1,1
2057,MENNONITE CHRISTIAN ACADEMY,NON-FUNDED SCHOOLS,197,BOX 149,,GRUNTHAL,R0A 0R0,,()-2057-0197, K-12, ,,2044349315,0,1,1,1,1
1110,MILLTOWN ACADEMY,NON-FUNDED SCHOOLS,197,BOX 250,,ELIE,R0H 0H0,,()-1110-0197, K-12, ,2043532729.0,2043534111,0,1,1,1,1
2265,MORNING GLORY SCHOOL,NON-FUNDED SCHOOLS,197,35062 ROAD 32 EAST,,MITCHELL,R5G 2N1,,()-2265-0197, K-12, ,,2043202716,0,1,1,1,1
2272,NEW LIFE FELLOWSHIP SCHOOL,NON-FUNDED SCHOOLS,197,RR1  BOX 247,,WINKLER,R6W 4A1,,()-2272-0197, K-12, ,,2043120781,0,1,1,1,1
2300,OLD COLONY MENNONITE SCHOOL,NON-FUNDED SCHOOLS,197,5 REINFELD STREET SOUTH,,REINFELD,R6W 1L6,,()-2300-0197, K-12, ,,2043127426,0,1,1,1,1
2279,PARADISE MONTESSORI SCHOOL,NON-FUNDED SCHOOLS,197,1341 KENASTON BLVD.,,WINNIPEG,R3P 2P2,,(  1)-2279-0197, N-K, ,2044873469.0,2048320866,1,1,0,0,0
1086,PARKLAND CHRISTIAN SCHOOL,NON-FUNDED SCHOOLS,197,BOX 480,,ROBLIN,R0L 1P0,roblinpcs@gmail.com,()-1086-0197, 1-9, ,,2049372870,0,0,1,1,0
2218,PINE CREEK CHRISTIAN DAY SCHOOL,NON-FUNDED SCHOOLS,197,BOX 219,,AUSTIN,R0H 0C0,,()-2218-0197, 1-9, ,2043853025.0,2043853025,0,0,1,1,0
2199,PINE RIVER COUNTRY SCHOOL,NON-FUNDED SCHOOLS,197,P.O. BOX 242,,PINE RIVER,R0L 1M0,p.r.countryschool@gmail.com,()-2199-0197, 1-9, ,2042632001.0,2042632001,0,0,1,1,0
1207,POPLAR GROVE SCHOOL,NON-FUNDED SCHOOLS,197,BOX 70,,GRANDVIEW,R0L 0Y0,,()-1207-0197, 1-9, ,2045462691.0,2045462691,0,0,1,1,0
1095,PRAIRIE MENNONITE SCHOOL,NON-FUNDED SCHOOLS,197,BOX 50,,PLUM COULEE,R0G 1R0,,()-1095-0197, K-12, ,2043241879.0,2048293336,0,1,1,1,1
2264,PRAIRIE VIEW AMISH SCHOOL,NON-FUNDED SCHOOLS,197,BOX 390,,GLADSTONE,R0J 0T0,,()-2264-0197, 1-8, ,,2049999999,0,0,1,1,0
1534,PRAIRIE VIEW SCHOOL,NON-FUNDED SCHOOLS,197,BOX 117,,ROSENORT,R0G 1W0,,()-1534-0197, K-9, ,,2047468837,0,1,1,1,0
1401,RIVERDALE SCHOOL,NON-FUNDED SCHOOLS,197,R.R. #1,,KENVILLE,R0L 0Z0,Riverdaleschool77@gmail.com,()-1401-0197, K-9, ,2045392480.0,2045392660,0,1,1,1,0
1463,RIVERSIDE SCHOOL,NON-FUNDED SCHOOLS,197,BOX 136,,ELMA,R0E 0Z0,,()-1463-0197, 1-9, ,,2043482686,0,0,1,1,0
1416,ROCK LAKE SCHOOL,NON-FUNDED SCHOOLS,197,BOX 69,,CARTWRIGHT,R0K 0L0,,()-1416-0197, 1-9, ,2045292184.0,2045292349,0,0,1,1,0
1899,SHADY OAK CHRISTIAN SCHOOL,NON-FUNDED SCHOOLS,197,BOX 14,,BIRNIE,R0J 0J0,,()-1899-0197, K-9, ,,2049663477,0,1,1,1,0
2246,SOLID ROCK MINISTRIES CHRISTIAN SCHOOL,NON-FUNDED SCHOOLS,197,125 - 4TH AVENUE,,PORTAGE LA PRAIRIE,R1N 0E9,,()-2246-0197, K-12, ,2042396785.0,2042396785,0,1,1,1,1
1126,STONY CREEK SCHOOL,NON-FUNDED SCHOOLS,197,BOX 5,,SINCLAIR,R0M 2A0,,()-1126-0197, 1-9, ,2046624539.0,2046624431,0,0,1,1,0
2128,SUNFLOWER VALLEY CHRISTIAN SCHOOL,NON-FUNDED SCHOOLS,197,BOX 2484,,ALTONA,R0G 0B0,,()-2128-0197, 1-9, ,2043245810.0,2043241564,0,0,1,1,0
2247,TWELVE TRIBES SCHOOL,NON-FUNDED SCHOOLS,197,89 EAST GATE,,WINNIPEG,R3C 2C2,,()-2247-0197, 1-12, ,,2047991118,0,0,1,1,1
2146,TWIN RIVERS COUNTRY SCHOOL,NON-FUNDED SCHOOLS,197,BOX 30,,ELMA,R0E 0Z0,,()-2146-0197, 1-9, ,,2044265611,0,0,1,1,0
2056,VALLEY MENNONITE ACADEMY,NON-FUNDED SCHOOLS,197,BOX 139 GRP 7 RR 1,,WINKLER,R6W 4A1,,()-2056-0197, K-12, ,2043313199.0,2043258172,0,1,1,1,1
1454,WILD ROSE SCHOOL,NON-FUNDED SCHOOLS,197,33157 ROAD 27E,,KLEEFELD,R0A 0V1,,()-1454-0197, 1-9, ,2043774778.0,2043774778,0,0,1,1,0
1599,WILLOW GROVE SCHOOL,NON-FUNDED SCHOOLS,197,BOX 59,,BEAUSEJOUR,R0E 0C0,,()-1599-0197, K-9, ,,2042684035,0,1,1,1,0
2093,WINNIPEG MONTESSORI SCHOOL INC.,NON-FUNDED SCHOOLS,197,1525 WILSON PLACE,,WINNIPEG,R3T 4H1,admin@winnipegmontessori.com,()-2093-0197, K-K, ,2044523315.0,2044523315,0,1,0,0,0
1705,BINSCARTH ELEMENTARY,PARK WEST SCHOOL DIVISION,194,BOX 130,,BINSCARTH,R0J 0G0,binscarth@pwsd.ca,(  8)-1705-0194, K-8, ,2045322294.0,2048422802,0,1,1,1,0
1042,BIRTLE COLLEGIATE,PARK WEST SCHOOL DIVISION,194,BOX 370,,BIRTLE,R0M 0C0,bci@pwsd.ca,( 13)-1042-0194, 5-12, ,2048425317.0,2048423315,0,0,1,1,1
1426,BIRTLE ELEMENTARY,PARK WEST SCHOOL DIVISION,194,BOX 340,,BIRTLE,R0M 0C0,bes@pwsd.ca,(  7)-1426-0194, K-4, ,2048423463.0,2048423463,0,1,1,0,0
1014,DECKER COLONY SCHOOL,PARK WEST SCHOOL DIVISION,194,DECKER COLONY,BOX 8,DECKER,R0M 0K0,dcs@pwsd.ca,(  5)-1014-0194, K-12, ,2047642538.0,2047642225,0,1,1,1,1
1554,HAMIOTA COLLEGIATE,PARK WEST SCHOOL DIVISION,194,BOX 200,,HAMIOTA,R0M 0T0,hci@pwsd.ca,( 14)-1554-0194, 6-12, ,2047642725.0,2048422803,0,0,1,1,1
1277,HAMIOTA ELEMENTARY,PARK WEST SCHOOL DIVISION,194,BOX 427,,HAMIOTA,R0M 0T0,hes@pwsd.ca,( 11)-1277-0194, K-5, ,2047642385.0,2048422823,0,1,1,0,0
1057,INGLIS ELEMENTARY,PARK WEST SCHOOL DIVISION,194,BOX 30,,INGLIS,R0J 0X0,inglis@pwsd.ca,(  5)-1057-0194, K-8, ,2045642491.0,2048422806,0,1,1,1,0
1727,MAJOR PRATT SCHOOL,PARK WEST SCHOOL DIVISION,194,GENERAL DELIVERY,,RUSSELL,R0J 1W0,mps@pwsd.ca,( 39)-1727-0194, K-12, ,2047733470.0,2048422812,0,1,1,1,1
1093,MINIOTA SCHOOL,PARK WEST SCHOOL DIVISION,194,BOX 190,,MINIOTA,R0M 1M0,mcs@pwsd.ca,(  6)-1093-0194, K-8, ,2045673506.0,2048422826,0,1,1,1,0
2313,MONARCH COLONY SCHOOL,PARK WEST SCHOOL DIVISION,194,MONARCH COLONY FARMS LTD.,BOX 226,FOXWARREN,R0J 0R0,monarch@pwsd.ca,(  2)-2313-0194, K-12, ,2040000000.0,2048472008,0,1,1,1,1
1546,ROSSBURN COLLEGIATE,PARK WEST SCHOOL DIVISION,194,BOX 370,,ROSSBURN,R0J 1V0,rci@pwsd.ca,( 11)-1546-0194, 9-12, ,2048593044.0,2048422810,0,0,0,1,1
1827,ROSSBURN ELEMENTARY,PARK WEST SCHOOL DIVISION,194,BOX 160,,ROSSBURN,R0J 1V0,res@pwsd.ca,(  9)-1827-0194, K-8, ,2048592016.0,2048422804,0,1,1,1,0
1566,SHOAL LAKE SCHOOL,PARK WEST SCHOOL DIVISION,194,BOX 10,,SHOAL LAKE,R0J 1Z0,sls@pwsd.ca,( 17)-1566-0194, K-12, ,2047592697.0,2048422822,0,1,1,1,1
1125,STRATHCLAIR COMMUNITY SCHOOL,PARK WEST SCHOOL DIVISION,194,BOX 130,,STRATHCLAIR,R0J 2C0,scs@pwsd.ca,( 12)-1125-0194, K-12, ,2043652085.0,2048422801,0,1,1,1,1
1555,WAYWAYSEECAPPO COMMUNITY SCHOOL,PARK WEST SCHOOL DIVISION,194,BOX 9,,WAYWAYSEECAPPO,R0J 1S0,waywayschool@yahoo.ca,( 31)-1555-0194, N-8, ,2048592992.0,2048592811,1,1,1,1,0
1138,ACADIA JUNIOR HIGH SCHOOL,PEMBINA TRAILS SCHOOL DIVISION,188,175 KILLARNEY AVENUE,,WINNIPEG,R3T 3B3,acadia@pembinatrails.ca,( 48)-1138-0188, 7-9, ,2042692369.0,2042696210,0,0,0,1,0
1104,ARTHUR A. LEACH JUNIOR HIGH,PEMBINA TRAILS SCHOOL DIVISION,188,1827 CHANCELLOR DRIVE,,WINNIPEG,R3T 4C4,arthuraleach@pembinatrails.ca,( 38)-1104-0188, 5-9, ,2042697832.0,2042691674,0,0,1,1,0
1958,BAIRDMORE SCHOOL,PEMBINA TRAILS SCHOOL DIVISION,188,700 BAIRDMORE BOULEVARD,,WINNIPEG,R3T 5R3,bairdmore20@pembinatrails.ca,( 27)-1958-0188, K-6, ,2042699946.0,2042613350,0,1,1,0,0
1676,BEAUMONT SCHOOL,PEMBINA TRAILS SCHOOL DIVISION,188,5880 BETSWORTH AVENUE,,WINNIPEG,R3R 0J7,beaumont@pembinatrails.ca,( 16)-1676-0188, K-5, ,2048953196.0,2048952820,0,1,1,0,0
1754,BEAVERLODGE SCHOOL,PEMBINA TRAILS SCHOOL DIVISION,188,6691 RANNOCK AVENUE,,WINNIPEG,R3R 1Z3,beaverlodge@pembinatrails.ca,( 11)-1754-0188, K-5, ,2048950804.0,2048958213,0,1,1,0,0
1914,CHANCELLOR ELEMENTARY,PEMBINA TRAILS SCHOOL DIVISION,188,1520 CHANCELLOR DRIVE,,WINNIPEG,R3T 4P8,chancellor@pembinatrails.ca,( 31)-1914-0188, K-6, ,2042756571.0,2042619535,0,1,1,0,0
1378,DALHOUSIE SCHOOL,PEMBINA TRAILS SCHOOL DIVISION,188,262 DALHOUSIE DRIVE,,WINNIPEG,R3T 2Z1,dalhousie@pembinatrails.ca,( 40)-1378-0188, K-6, ,2042618374.0,2042694101,0,1,1,0,0
1896,ÉCOLE CHARLESWOOD SCHOOL,PEMBINA TRAILS SCHOOL DIVISION,188,505 OAKDALE DRIVE,,WINNIPEG,R3R 0Z9,charleswood@pembinatrails.ca,( 39)-1896-0188, 5-8, IM,2048963860.0,2048899332,0,0,1,1,0
1608,ÉCOLE CRANE,PEMBINA TRAILS SCHOOL DIVISION,188,888 AVENUE CRANE,,WINNIPEG,R3T 1T9,crane@pembinatrails.ca,( 18)-1608-0188, M-4, IM,2044770783.0,2044530539,0,1,1,0,0
1511,ÉCOLE DIEPPE,PEMBINA TRAILS SCHOOL DIVISION,188,530 CHEMIN DIEPPE,,WINNIPEG,R3R 1C4,dieppe@pembinatrails.ca,( 28)-1511-0188, M-4, IM,2048892430.0,2048891034,0,1,1,0,0
1638,ÉCOLE SAINT-AVILA,PEMBINA TRAILS SCHOOL DIVISION,188,633 AVENUE PATRICIA,,WINNIPEG,R3T 3A8,stavila@pembinatrails.ca,( 20)-1638-0188, M-6, IM,2042693759.0,2042695677,0,1,1,0,0
2302,ÉCOLE SOUTH POINTE SCHOOL,PEMBINA TRAILS SCHOOL DIVISION,188,615 KIRKBRIDGE DRIVE,,WINNIPEG,R3T 6B4,southpointe@pembinatrails.ca,( 62)-2302-0188, K-8, IM,2042753605.0,2045944434,0,1,1,1,0
1789,ÉCOLE TUXEDO PARK,PEMBINA TRAILS SCHOOL DIVISION,188,2300 AVENUE CORYDON,,WINNIPEG,R3P 0N6,tuxedopark@pembinatrails.ca,( 13)-1789-0188, M-4, IM,2048893609.0,2048893602,0,1,1,0,0
1262,ÉCOLE VISCOUNT ALEXANDER,PEMBINA TRAILS SCHOOL DIVISION,188,810 AVENUE WATERFORD,,WINNIPEG,R3T 1G7,viscountalexander2@pembinatrails.ca,( 23)-1262-0188, 5-8, IM,2044745131.0,2044528945,0,0,1,1,0
1281,FORT RICHMOND COLLEGIATE,PEMBINA TRAILS SCHOOL DIVISION,188,99 KILLARNEY AVENUE,,WINNIPEG,R3T 3B3,frc@pembinatrails.ca,( 78)-1281-0188, 10-12, ,2042617624.0,2042757520,0,0,0,0,1
1231,GENERAL BYNG SCHOOL,PEMBINA TRAILS SCHOOL DIVISION,188,1250 BEAUMONT STREET,,WINNIPEG,R3T 0L8,generalbyng@pembinatrails.ca,( 27)-1231-0188, K-9, ,2042849287.0,2044523040,0,1,1,1,0
2132,HENRY G. IZATT MIDDLE SCHOOL,PEMBINA TRAILS SCHOOL DIVISION,188,960 SCURFIELD BLVD.,,WINNIPEG,R3Y 1N6,izatt@pembinatrails.ca,( 41)-2132-0188, 5-9, ,2044891370.0,2044891239,0,0,1,1,0
1273,LAIDLAW SCHOOL,PEMBINA TRAILS SCHOOL DIVISION,188,515 LAIDLAW BOULEVARD,,WINNIPEG,R3P 0L2,laidlaw@pembinatrails.ca,( 18)-1273-0188, K-8, ,2048882058.0,2048881678,0,1,1,1,0
2030,LINDEN MEADOWS SCHOOL,PEMBINA TRAILS SCHOOL DIVISION,188,335 LINDENWOOD DRIVE EAST,,WINNIPEG,R3P 2H1,lindenmeadows@pembinatrails.ca,( 38)-2030-0188, K-8, ,2044898803.0,2044890799,0,1,1,1,0
1691,OAK PARK HIGH,PEMBINA TRAILS SCHOOL DIVISION,188,820 CHARLESWOOD ROAD,,WINNIPEG,R3R 1K6,oakpark@pembinatrails.ca,( 52)-1691-0188, 9-12, IM,2048958889.0,2048957221,0,0,0,1,1
1227,OAKENWALD SCHOOL,PEMBINA TRAILS SCHOOL DIVISION,188,666 OAKENWALD AVENUE,,WINNIPEG,R3T 1M4,oakenwald@pembinatrails.ca,( 20)-1227-0188, K-6, ,2044778504.0,2044740269,0,1,1,0,0
1975,PACIFIC JUNCTION SCHOOL,PEMBINA TRAILS SCHOOL DIVISION,188,715 CATHCART STREET,,WINNIPEG,R3R 3M7,pacificjunction@pembinatrails.ca,( 14)-1975-0188, K-5, ,2048325754.0,2048317099,0,1,1,0,0
2304,PEMBINA TRAILS ALTERNATIVE HIGH SCHOOL,PEMBINA TRAILS SCHOOL DIVISION,188,315 CHANCELLOR MATHESON ROAD,,WINNIPEG,R3T 1Z2,ptalthigh@pembinatrails.ca,(  3)-2304-0188, 11-12, ,,2044887357,0,0,0,0,1
1263,R.H.G. BONNYCASTLE SCHOOL,PEMBINA TRAILS SCHOOL DIVISION,188,1100 CHANCELLOR DRIVE,,WINNIPEG,R3T 4W8,bonnycastle@pembinatrails.ca,( 35)-1263-0188, K-4, IM,2042693797.0,2042619400,0,1,1,0,0
1393,RALPH MAYBANK SCHOOL,PEMBINA TRAILS SCHOOL DIVISION,188,20 DONNELLY STREET,,WINNIPEG,R3T 0S4,ralphmaybank@pembinatrails.ca,( 15)-1393-0188, K-6, ,2044526399.0,2044534631,0,1,1,0,0
1202,RIVER WEST PARK SCHOOL,PEMBINA TRAILS SCHOOL DIVISION,188,30 STACK STREET,,WINNIPEG,R3R 2H3,riverwestpark@pembinatrails.ca,( 17)-1202-0188, K-8, ,2048882515.0,2048957225,0,1,1,1,0
1472,ROYAL SCHOOL,PEMBINA TRAILS SCHOOL DIVISION,188,450 LAXDAL ROAD,,WINNIPEG,R3R 0W4,royal@pembinatrails.ca,( 16)-1472-0188, K-5, ,2048896665.0,2048896650,0,1,1,0,0
1498,RYERSON ELEMENTARY,PEMBINA TRAILS SCHOOL DIVISION,188,10 RYERSON AVENUE,,WINNIPEG,R3T 3P9,ryerson@pembinatrails.ca,( 22)-1498-0188, K-6, ,2042616908.0,2042691400,0,1,1,0,0
1114,SHAFTESBURY HIGH,PEMBINA TRAILS SCHOOL DIVISION,188,2240 GRANT AVENUE,,WINNIPEG,R3P 0P7,shaftesbury@pembinatrails.ca,( 49)-1114-0188, 9-12, ,2048965492.0,2048885898,0,0,0,1,1
1976,VAN WALLEGHEM SCHOOL,PEMBINA TRAILS SCHOOL DIVISION,188,1 PRINCEMERE ROAD,,WINNIPEG,R3P 1K9,vanwalleghem@pembinatrails.ca,( 43)-1976-0188, K-8, IM,2044893792.0,2044890995,0,1,1,1,0
1062,VINCENT MASSEY COLLEGIATE,PEMBINA TRAILS SCHOOL DIVISION,188,975 DOWKER AVENUE,,WINNIPEG,R3T 1R7,vmc@pembinatrails.ca,( 82)-1062-0188, 9-12, IM,2042840448.0,2044538023,0,0,0,1,1
1398,WESTDALE JUNIOR HIGH,PEMBINA TRAILS SCHOOL DIVISION,188,6720 BETSWORTH AVENUE,,WINNIPEG,R3R 1W3,westdale@pembinatrails.ca,( 18)-1398-0188, 6-8, ,2048950011.0,2048958205,0,0,1,1,0
1512,WESTGROVE SCHOOL,PEMBINA TRAILS SCHOOL DIVISION,188,50 WESTGROVE WAY,,WINNIPEG,R3R 1R7,westgrove@pembinatrails.ca,( 11)-1512-0188, K-5, ,2048950801.0,2048958208,0,1,1,0,0
2065,WHYTE RIDGE ELEMENTARY,PEMBINA TRAILS SCHOOL DIVISION,188,400 SCURFIELD BOULEVARD,,WINNIPEG,R3Y 1L3,whyteridge@pembinatrails.ca,( 35)-2065-0188, K-4, ,2044891857.0,2044884245,0,1,1,0,0
1864,AUSTIN ELEMENTARY,PINE CREEK SCHOOL DIVISION,127,BOX 130,,AUSTIN,R0H 0C0,aes@pinecreeksd.mb.ca,( 10)-1864-0127, K-8, ,,2046372240,0,1,1,1,0
1859,BEAVER CREEK SCHOOL,PINE CREEK SCHOOL DIVISION,127,ASPENHEIM COLONY,BOX 179,AUSTIN,R0H 0C0,colonies@pinecreeksd.mb.ca,(  1)-1859-0127, K-12, ,,2042742722,0,1,1,1,1
2003,CASCADE COLONY SCHOOL,PINE CREEK SCHOOL DIVISION,127,BOX 179,,AUSTIN,R0H 0C0,colonies@pinecreeksd.mb.ca,(  2)-2003-0127, K-12, ,2046852931.0,2046852912,0,1,1,1,1
2283,EMERALD COLONY SCHOOL,PINE CREEK SCHOOL DIVISION,127,SE 35-14-12W,BOX 179,AUSTIN,R0H 0C0,colonies@pinecreeksd.mb.ca,(  2)-2283-0127, K-12, ,2043853164.0,2043853475,0,1,1,1,1
1817,FOREST HOME SCHOOL,PINE CREEK SCHOOL DIVISION,127,RIVERDALE COLONY,BOX 179,AUSTIN,R0H 0C0,colonies@pinecreeksd.mb.ca,(  1)-1817-0127, K-12, ,2043852227.0,2043852227,0,1,1,1,1
1753,GLADSTONE ELEMENTARY,PINE CREEK SCHOOL DIVISION,127,BOX 690,,GLADSTONE,R0J 0T0,ges@pinecreeksd.mb.ca,( 13)-1753-0127, K-6, ,2043853030.0,2043852613,0,1,1,0,0
1220,HIDDEN VALLEY SCHOOL,PINE CREEK SCHOOL DIVISION,127,HIDDEN VALLEY COLONY,BOX 179,AUSTIN,R0H 0C0,colonies@pinecreeksd.mb.ca,(  2)-1220-0127, K-12, ,2046372312.0,2046372312,0,1,1,1,1
1023,LANGRUTH ELEMENTARY,PINE CREEK SCHOOL DIVISION,127,BOX 148,,LANGRUTH,R0H 0N0,les@pinecreeksd.mb.ca,(  3)-1023-0127, K-8, ,2044452274.0,2044452001,0,1,1,1,0
1465,MACGREGOR COLLEGIATE,PINE CREEK SCHOOL DIVISION,127,BOX 160,,MACGREGOR,R0H 0R0,mci@pinecreeksd.mb.ca,( 16)-1465-0127, 9-12, ,,2046852047,0,0,0,1,1
1447,MACGREGOR ELEMENTARY,PINE CREEK SCHOOL DIVISION,127,BOX 10,,MACGREGOR,R0H 0R0,mes@pinecreeksd.mb.ca,( 21)-1447-0127, K-8, ,2046852755.0,2046852249,0,1,1,1,0
1898,MULLER SCHOOL,PINE CREEK SCHOOL DIVISION,127,BOX 179,,AUSTIN,R0H 0C0,colonies@pinecreeksd.mb.ca,(  1)-1898-0127, K-12, ,2042742240.0,2042742463,0,1,1,1,1
1726,PLUMAS ELEMENTARY,PINE CREEK SCHOOL DIVISION,127,BOX 40,,PLUMAS,R0J 1P0,pes@pinecreeksd.mb.ca,(  4)-1726-0127, K-8, ,2043862137.0,2043862250,0,1,1,1,0
1146,WEST PLAINS SCHOOL,PINE CREEK SCHOOL DIVISION,127,BOX 179,,AUSTIN,R0H 0C0,colonies@pinecreeksd.mb.ca,(  3)-1146-0127, K-12, ,2043852941.0,2043852980,0,1,1,1,1
1874,WILLIAM MORTON COLLEGIATE,PINE CREEK SCHOOL DIVISION,127,BOX 510,,GLADSTONE,R0J 0T0,wmci@pinecreeksd.mb.ca,( 14)-1874-0127, 7-12, ,2043853031.0,2043852845,0,0,0,1,1
1989,BRANTWOOD SCHOOL,PORTAGE LA PRAIRIE SCHOOL DIVISION,121,BRANTWOOD COLONY,65  - 3RD STREET SW,PORTAGE LA PRAIRIE,R1N 2B6,,(  2)-1989-0121, K-12, ,2042672094.0,2042672094,0,1,1,1,1
1703,BRENNAN SCHOOL,PORTAGE LA PRAIRIE SCHOOL DIVISION,121,ELM RIVER COLONY-NEWTON SIDING,65 - 3RD STREET SW,PORTAGE LA PRAIRIE,R1N 2B6,,(  5)-1703-0121, K-12, ,2042672040.0,2042672700,0,1,1,1,1
1142,ÉCOLE ARTHUR MEIGHEN SCHOOL,PORTAGE LA PRAIRIE SCHOOL DIVISION,121,201 RIVER ROAD,,PORTAGE LA PRAIRIE,R1N 3W2,,( 25)-1142-0121, 5-8, IM,2042395943.0,2048573405,0,0,1,1,0
1634,ÉCOLE CRESCENTVIEW SCHOOL,PORTAGE LA PRAIRIE SCHOOL DIVISION,121,751 CRESCENT ROAD EAST,,PORTAGE LA PRAIRIE,R1N 0Y2,,( 30)-1634-0121, K-4, IM,2042395930.0,2048573475,0,1,1,0,0
1269,FORT LA REINE SCHOOL,PORTAGE LA PRAIRIE SCHOOL DIVISION,121,36 - 13TH STREET N.W.,,PORTAGE LA PRAIRIE,R1N 2T5,,( 17)-1269-0121, K-6, ,2042395740.0,2048577687,0,1,1,0,0
1438,GOOD HOPE COLONY SCHOOL,PORTAGE LA PRAIRIE SCHOOL DIVISION,121,GOOD HOPE COLONY,65 - 3RD STREET SW,PORTAGE LA PRAIRIE,R1N 2B6,,(  3)-1438-0121, K-12, ,2042522986.0,2042522568,0,1,1,1,1
1539,INGLESIDE SCHOOL,PORTAGE LA PRAIRIE SCHOOL DIVISION,121,GRANDE COLONY (OAKVILLE),65 - 3RD STREET SW,PORTAGE LA PRAIRIE,R1N 2B6,,(  2)-1539-0121, K-12, ,2042672265.0,2042672265,0,1,1,1,1
1837,LA VERENDRYE SCHOOL,PORTAGE LA PRAIRIE SCHOOL DIVISION,121,500 - 7TH AVENUE N.W.,,PORTAGE LA PRAIRIE,R1N 0A5,,( 31)-1837-0121, K-8, ,2042395927.0,2048573478,0,1,1,1,0
2040,NORQUAY COLONY SCHOOL,PORTAGE LA PRAIRIE SCHOOL DIVISION,121,C/O PORTAGE LA PRARIE SD,65 - 3RD STREET SW,PORTAGE LA PRAIRIE,R1N 2B6,,(  2)-2040-0121, K-12, ,2042672641.0,2042672133,0,1,1,1,1
1849,NORTH MEMORIAL SCHOOL,PORTAGE LA PRAIRIE SCHOOL DIVISION,121,410 - 6TH AVENUE N.E.,,PORTAGE LA PRAIRIE,R1N 0B4,,( 17)-1849-0121, K-6, ,2042395964.0,2048574564,0,1,1,0,0
2134,NORTHERN BREEZE COLONY SCHOOL,PORTAGE LA PRAIRIE SCHOOL DIVISION,121,C/O PORTAGE LA PRAIRIE SD,65 - 3RD STREET SW,PORTAGE LA PRAIRIE,R1N 2B6,,(  2)-2134-0121, K-12, ,2042394414.0,2048577521,0,1,1,1,1
1237,OAKVILLE SCHOOL,PORTAGE LA PRAIRIE SCHOOL DIVISION,121,BOX 130,,OAKVILLE,R0H 0Y0,,( 17)-1237-0121, K-8, ,2042672603.0,2042672733,0,1,1,1,0
1029,PORTAGE COLLEGIATE INSTITUTE,PORTAGE LA PRAIRIE SCHOOL DIVISION,121,65 - 3RD STREET S.W.,,PORTAGE LA PRAIRIE,R1N 2B6,,( 72)-1029-0121, 9-12, IM,2042395905.0,2048576843,0,0,0,1,1
1757,SOMMERFELD COLONY SCHOOL,PORTAGE LA PRAIRIE SCHOOL DIVISION,121,SOMMERFELD COLONY (HIGH BLUFF),65 - 3RD STREET SW,PORTAGE LA PRAIRIE,R1N 2B6,,(  2)-1757-0121, K-12, ,2042432050.0,2042432487,0,1,1,1,1
1055,SUNNYSIDE SCHOOL,PORTAGE LA PRAIRIE SCHOOL DIVISION,121,SUNNYSIDE COLONY,65 - 3RD STREET SW,PORTAGE LA PRAIRIE,R1N 2B6,,(  1)-1055-0121, K-12, ,2042672632.0,2042672632,0,1,1,1,1
2063,WESTROC SCHOOL,PORTAGE LA PRAIRIE SCHOOL DIVISION,121,C/O PORTAGE LA PRAIRIE SD,65 - 3RD STREET SW,PORTAGE LA PRAIRIE,R1N 2B6,,(  2)-2063-0121, K-12, ,2042742078.0,2042742786,0,1,1,1,1
1003,WOODLAND COLONY SCHOOL,PORTAGE LA PRAIRIE SCHOOL DIVISION,121,WOODLAND COLONY (POPLAR POINT),65 - 3RD STREET SW,PORTAGE LA PRAIRIE,R1N 2B6,,(  1)-1003-0121, K-12, ,2042432465.0,2042432435,0,1,1,1,1
1858,YELLOWQUILL SCHOOL,PORTAGE LA PRAIRIE SCHOOL DIVISION,121,BOX 1000,,PORTAGE LA PRAIRIE,R1N 3C4,,( 30)-1858-0121, K-8, ,2042395906.0,2048578714,0,1,1,1,0
1871,BARRICKMAN COLONY SCHOOL,PRAIRIE ROSE SCHOOL DIVISION,195,BOX 56,#3 PR 248 SOUTH,ELIE,R0H 0H0,huttadmin@prsdmb.ca,(  2)-1871-0195, K-12, ,2043532706.0,2043532297,0,1,1,1,1
2276,BLOOMING PRAIRIE COLONY SCHOOL,PRAIRIE ROSE SCHOOL DIVISION,195,BOX 56,#3 PR 248 SOUTH,ELIE,R0H 0H0,huttadmin@prsdmb.ca,(  1)-2276-0195, K-12, ,2043532706.0,2043532297,0,1,1,1,1
1422,BON HOMME COLONY SCHOOL,PRAIRIE ROSE SCHOOL DIVISION,195,BOX 56,#3 PR 248 SOUTH,ELIE,R0H 0H0,huttadmin@prsdmb.ca,(  2)-1422-0195, K-12, ,2043532706.0,2043532297,0,1,1,1,1
1230,BOYNE VIEW SCHOOL,PRAIRIE ROSE SCHOOL DIVISION,195,BOX 56,#3 PR 248 SOUTH,ELIE,R0H 0H0,huttadmin@prsdmb.ca,(  1)-1230-0195, K-12, ,2043532706.0,2043532297,0,1,1,1,1
1800,CARMAN COLLEGIATE,PRAIRIE ROSE SCHOOL DIVISION,195,BOX 1510,,CARMAN,R0G 0J0,carmancollegiate@prsdmb.ca,( 26)-1800-0195, 6-12, ,2047456288.0,2047452001,0,0,1,1,1
1872,CARMAN ELEMENTARY,PRAIRIE ROSE SCHOOL DIVISION,195,BOX 1510,,CARMAN,R0G 0J0,ces@prsdmb.ca,( 24)-1872-0195, K-5, IM,2047453295.0,2047452623,0,1,1,0,0
1369,CLEARVIEW COLONY SCHOOL,PRAIRIE ROSE SCHOOL DIVISION,195,BOX 56,#3 PR 248 SOUTH,ELIE,R0H 0H0,huttadmin@prsdmb.ca,(  1)-1369-0195, K-12, ,2043532706.0,2043532297,0,1,1,1,1
2312,EAGLE CREEK COLONY SCHOOL,PRAIRIE ROSE SCHOOL DIVISION,195,BOX 56,#3 PR 248 SOUTH,ELIE,R0H 0H0,huttadmin@prsdmb.ca,(  1)-2312-0195, K-12, ,2043532706.0,2043532297,0,1,1,1,1
1268,ÉCOLE SAINT-EUSTACHE,PRAIRIE ROSE SCHOOL DIVISION,195,CASE POSTALE 182,,ST. EUSTACHE,R0H 1H0,steuoff@prsdmb.ca,( 10)-1268-0195, M-6, IM,2043532137.0,2043532869,0,1,1,0,0
1289,ELM CREEK SCHOOL,PRAIRIE ROSE SCHOOL DIVISION,195,BOX 40,,ELM CREEK,R0G 0N0,ecadmin@prsdmb.ca,( 20)-1289-0195, K-12, ,2044362659.0,2044362354,0,1,1,1,1
1527,HURON COLONY SCHOOL,PRAIRIE ROSE SCHOOL DIVISION,195,BOX 56,#3 PR 248 SOUTH,ELIE,R0H 0H0,huttadmin@prsdmb.ca,(  1)-1527-0195, K-12, ,2043532706.0,2043532704,0,1,1,1,1
1751,IBERVILLE COLONY SCHOOL,PRAIRIE ROSE SCHOOL DIVISION,195,BOX 56,#3 PR 248 SOUTH,ELIE,R0H 0H0,huttadmin@prsdmb.ca,(  2)-1751-0195, K-12, ,2043532706.0,2043532297,0,1,1,1,1
1052,JAMES VALLEY COLONY SCHOOL,PRAIRIE ROSE SCHOOL DIVISION,195,BOX 56,#3 PR 248 SOUTH,ELIE,R0H 0H0,huttadmin@prsdmb.ca,(  3)-1052-0195, K-12, ,2043532706.0,2043532297,0,1,1,1,1
1053,LAKESIDE COLONY SCHOOL,PRAIRIE ROSE SCHOOL DIVISION,195,BOX 56,#3 PR 248 SOUTH,ELIE,R0H 0H0,huttadmin@prsdmb.ca,(  2)-1053-0195, K-12, ,2043532706.0,2043532297,0,1,1,1,1
1290,MAPLE CREEK SCHOOL,PRAIRIE ROSE SCHOOL DIVISION,195,BOX 56,#3 PR 248 SOUTH,ELIE,R0H 0H0,huttadmin@prsdmb.ca,(  2)-1290-0195, K-12, ,2044352803.0,2044352299,0,1,1,1,1
1642,MAXWELL COLONY SCHOOL,PRAIRIE ROSE SCHOOL DIVISION,195,BOX 56,#3 PR 248 SOUTH,ELIE,R0H 0H0,huttadmin@prsdmb.ca,(  1)-1642-0195, K-12, ,2043532706.0,2043532297,0,1,1,1,1
1514,MIAMI SCHOOL,PRAIRIE ROSE SCHOOL DIVISION,195,BOX 220,,MIAMI,R0G 1H0,miamischool@prsdmb.ca,( 19)-1514-0195, K-12, ,2044352464.0,2044352441,0,1,1,1,1
1581,ROLAND ELEMENTARY,PRAIRIE ROSE SCHOOL DIVISION,195,BOX 93,,ROLAND,R0G 1T0,rolandschool@prsdmb.ca,(  8)-1581-0195, K-6, ,2043432254.0,2043432023,0,1,1,0,0
2033,ROSEBANK COLONY SCHOOL,PRAIRIE ROSE SCHOOL DIVISION,195,BOX 56,#3 PR 248 SOUTH,ELIE,R0H 0H0,huttadmin@prsdmb.ca@prsdmb.ca,(  2)-2033-0195, K-12, ,2044352269.0,2044352269,0,1,1,1,1
1722,ROSEDALE COLONY SCHOOL,PRAIRIE ROSE SCHOOL DIVISION,195,BOX 56,#3 PR 248 SOUTH,ELIE,R0H 0H0,huttadmin@prsdmb.ca,(  1)-1722-0195, K-12, ,2043532706.0,2043532297,0,1,1,1,1
2071,SKY VIEW SCHOOL,PRAIRIE ROSE SCHOOL DIVISION,195,BOX 56,#3 PR 248 SOUTH,ELIE,R0H 0H0,huttadmin@prsdmb.ca,(  1)-2071-0195, K-12, ,2044352659.0,2044352517,0,1,1,1,1
1054,ST. FRANCOIS XAVIER COMMUNITY SCHOOL,PRAIRIE ROSE SCHOOL DIVISION,195,991 HIGHWAY 26,,ST. FRANCOIS XAVIER,R4L 1A4,sfx@prsdmb.ca,( 13)-1054-0195, K-6, ,2048642022.0,2048642868,0,1,1,0,0
1558,ST. LAURENT SCHOOL,PRAIRIE ROSE SCHOOL DIVISION,195,447 VETERAN'S MEMORIAL ROAD,,ST. LAURENT,R0C 2S0,stlschool@prsdmb.ca,( 19)-1558-0195, K-12, ,2046462034.0,2046462209,0,1,1,1,1
1070,ST. PAUL'S COLLEGIATE,PRAIRIE ROSE SCHOOL DIVISION,195,P.O. BOX 70,,ELIE,R0H 0H0,spc@prsdmb.ca,( 17)-1070-0195, 7-12, IM,2043532624.0,2043532084,0,0,0,1,1
2045,STARLITE COLONY SCHOOL,PRAIRIE ROSE SCHOOL DIVISION,195,BOX 56,#3 PR 248 SOUTH,ELIE,R0H 0H0,huttadmin@prsdmb.ca,(  2)-2045-0195, K-12, ,2043532706.0,2043532297,0,1,1,1,1
1443,WALDHEIM ELEMENTARY,PRAIRIE ROSE SCHOOL DIVISION,195,BOX 56,#3 PR 248 SOUTH,ELIE,R0H 0H0,huttadmin@prsdmb.capo0,(  1)-1443-0195, K-12, ,0.0,2043532297,0,1,1,1,1
1439,BALDUR SCHOOL,PRAIRIE SPIRIT SCHOOL DIVISION,193,BOX 340,,BALDUR,R0K 0B0,baldur@prspirit.org,(  9)-1439-0193, K-12, ,,2045352314,0,1,1,1,1
1092,BOYNE VALLEY SCHOOL,PRAIRIE SPIRIT SCHOOL DIVISION,193,OAK RIDGE COLONY,BOX 279,HOLLAND,R0G 0X0,boyne@prspirit.org,(  3)-1092-0193, K-12, ,,2045262533,0,1,1,1,1
2072,CARTWRIGHT SCHOOL,PRAIRIE SPIRIT SCHOOL DIVISION,193,GENERAL DELIVERY,,CARTWRIGHT,R0K 0L0,cartwright@prspirit.org,(  6)-2072-0193, K-11, ,2045292455.0,2045292357,0,1,1,1,1
1445,CRYSTAL CITY EARLY YEARS SCHOOL,PRAIRIE SPIRIT SCHOOL DIVISION,193,BOX 220,,CRYSTAL CITY,R0K 0N0,ccey@prspirit.org,(  8)-1445-0193, K-4, ,,2048732476,0,1,1,0,0
1559,EVERGREEN COLONY SCHOOL,PRAIRIE SPIRIT SCHOOL DIVISION,193,EVERGREEN COLONY,BOX 297,SOMERSET,R0G 2L0,evergreen@prspirit.org,(  2)-1559-0193, K-12, ,2047442790.0,2047442030,0,1,1,1,1
1635,FAIRHOLME COLONY SCHOOL,PRAIRIE SPIRIT SCHOOL DIVISION,193,FAIRHOLME COLONY,BOX 550,PORTAGE LA PRAIRIE,R1N 3B9,fairholme@prspirit.org,(  2)-1635-0193, K-12, ,,2042522289,0,1,1,1,1
1909,GLENBORO SCHOOL,PRAIRIE SPIRIT SCHOOL DIVISION,193,BOX 550,,GLENBORO,R0K 0X0,glenboro@prspirit.org,( 18)-1909-0193, K-12, ,,2048272593,0,1,1,1,1
2278,HARMONY COLONY SCHOOL,PRAIRIE SPIRIT SCHOOL DIVISION,193,BOX 171,,RATHWELL,R0G 1S0,harmony@prspirit.org,(  1)-2278-0193, K-12, ,,2047492356,0,1,1,1,1
1322,HOLLAND ELEMENTARY,PRAIRIE SPIRIT SCHOOL DIVISION,193,BOX 10,,HOLLAND,R0G 0X0,holland@prspirit.org,(  7)-1322-0193, K-8, ,2045262221.0,2045262179,0,1,1,1,0
2047,KAMSLEY SCHOOL,PRAIRIE SPIRIT SCHOOL DIVISION,193,BOX 403,,N.-D.-DE-LOURDES,R0G 1M0,kamsley@prspirit.org,(  2)-2047-0193, K-12, ,2047442799.0,2047442145,0,1,1,1,1
1591,MANITOU ELEMENTARY,PRAIRIE SPIRIT SCHOOL DIVISION,193,BOX 66,,MANITOU,R0G 1G0,mes@prspirit.org,( 13)-1591-0193, K-6, ,,2042422844,0,1,1,0,0
1096,NELLIE MCCLUNG COLLEGIATE,PRAIRIE SPIRIT SCHOOL DIVISION,193,BOX 339,,MANITOU,R0G 1G0,nmc@prspirit.org,( 12)-1096-0193, 7-12, ,2042422981.0,2042422640,0,0,0,1,1
1348,NEW ROSEDALE SCHOOL,PRAIRIE SPIRIT SCHOOL DIVISION,193,NEW ROSEDALE COLONY,BOX 460,PORTAGE LA PRAIRIE,R1N 3B7,nrs@prspirit.org,(  3)-1348-0193, K-12, ,,2042522870,0,1,1,1,1
1301,PILOT MOUND SCHOOL,PRAIRIE SPIRIT SCHOOL DIVISION,193,BOX 299,,PILOT MOUND,R0G 1P0,pmci@prspirit.org,(  7)-1301-0193, 9-12, ,,2048252559,0,0,0,1,1
1553,PRAIRIE MOUNTAIN ELEMENTARY SCHOOL,PRAIRIE SPIRIT SCHOOL DIVISION,193,BOX 340,,SWAN LAKE,R0G 2S0,pmes@prspirit.org,( 14)-1553-0193, K-8, IM,2048362286.0,2048362855,0,1,1,1,0
1370,PRAIRIE MOUNTAIN HIGH SCHOOL,PRAIRIE SPIRIT SCHOOL DIVISION,193,BOX 250,,SOMERSET,R0G 2L0,pmhs@prspirit.org,( 10)-1370-0193, 9-12,FR ,2047442054.0,2047442751,0,0,0,1,1
1644,SANDY BANK SCHOOL,PRAIRIE SPIRIT SCHOOL DIVISION,193,GENERAL DELIVERY,CYPRESS RIVER COLONY,CYPRESS RIVER,R0K 0P0,sandybank@prspirit.org,(  3)-1644-0193, K-12, ,,2047432208,0,1,1,1,1
2084,SHADY LANE SCHOOL,PRAIRIE SPIRIT SCHOOL DIVISION,193,BOX 26,,TREHERNE,R0G 2V0,shadylane@prspirit.org,(  3)-2084-0193, K-12, ,,2047232097,0,1,1,1,1
1977,SHAMROCK SCHOOL,PRAIRIE SPIRIT SCHOOL DIVISION,193,BOX 212,,BALDUR,R0K 0B0,shamrock@prspirit.org,(  3)-1977-0193, K-12, ,,2045352120,0,1,1,1,1
1340,ST. CLAUDE SCHOOL COMPLEX,PRAIRIE SPIRIT SCHOOL DIVISION,193,BOX 250,,ST. CLAUDE,R0G 1Z0,stclaude@prspirit.org,( 15)-1340-0193, K-12,FR ,,2043792441,0,1,1,1,1
1455,STE. MARIE SCHOOL,PRAIRIE SPIRIT SCHOOL DIVISION,193,GENERAL DELIVERY,,BRUXELLES,R0G 0G0,stemarie@prspirit.org,(  3)-1455-0193, K-8, ,,2045262185,0,1,1,1,0
1841,THOMAS GREENWAY MIDDLE YEARS SCHOOL,PRAIRIE SPIRIT SCHOOL DIVISION,193,BOX 280,,CRYSTAL CITY,R0K 0N0,tgms@prspirit.org,(  4)-1841-0193, 5-8, ,,2048732147,0,0,1,1,0
1873,TREHERNE COLLEGIATE,PRAIRIE SPIRIT SCHOOL DIVISION,193,BOX 269,,TREHERNE,R0G 2V0,tci@prspirit.org,(  7)-1873-0193, 9-12, ,,2047232781,0,0,0,1,1
1238,TREHERNE ELEMENTARY,PRAIRIE SPIRIT SCHOOL DIVISION,193,BOX 110,,TREHERNE,R0G 2V0,tes@prspirit.org,(  7)-1238-0193, K-8, ,,2047232737,0,1,1,1,0
1842,VALLEYVIEW SCHOOL,PRAIRIE SPIRIT SCHOOL DIVISION,193,VALLEYVIEW COLONY,BOX 119,SWAN LAKE,R0G 2S0,valleyv@prspirit.org,(  2)-1842-0193, K-12, ,,2048362212,0,1,1,1,1
1643,WEST VALLEY SCHOOL,PRAIRIE SPIRIT SCHOOL DIVISION,193,PEMBINA COLONY,BOX 38,DARLINGFORD,R0G 0L0,westvalley@prspirit.org,(  3)-1643-0193, K-12, ,,2042462255,0,1,1,1,1
2088,WHISTLING WIND SCHOOL,PRAIRIE SPIRIT SCHOOL DIVISION,193,BOX 249,,GLENBORO,R0K 0X0,whistlingwind@prspirit.org,(  2)-2088-0193, K-12, ,,2048272309,0,1,1,1,1
2073,WILLOW CREEK COLONY SCHOOL,PRAIRIE SPIRIT SCHOOL DIVISION,193,BOX 307,WILLOW CREEK COLONY,CARTWRIGHT,R0K 0L0,willowcreek@prspirit.org,(  3)-2073-0193, K-12, ,2045292624.0,2045292567,0,1,1,1,1
1978,WINDY BAY SCHOOL,PRAIRIE SPIRIT SCHOOL DIVISION,193,BOX 60,,PILOT MOUND,R0G 1P0,windybay@prspirit.org,(  1)-1978-0193, K-12, ,,2048252049,0,1,1,1,1
2052,ALBRIGHT SCHOOL,RED RIVER VALLEY SCHOOL DIVISION,190,OAK BLUFF COLONY,BOX 819,MORRIS,R0G 1K0,albright@rrvsd.ca,(  4)-2052-0190, K-12, ,2047466802.0,2047468518,0,1,1,1,1
1763,DOMAIN ELEMENTARY,RED RIVER VALLEY SCHOOL DIVISION,190,BOX 54,,DOMAIN,R0G 0M0,domain@rrvsd.ca,(  3)-1763-0190, K-8, ,2047364483.0,2047364083,0,1,1,1,0
2087,ÉCOLE HÉRITAGE IMMERSION,RED RIVER VALLEY SCHOOL DIVISION,190,CASE POSTALE 489,,ST. PIERRE-JOLYS,R0A 1V0,heritage@rrvsd.ca,( 17)-2087-0190, M-8, IM,2044337175.0,2044333460,0,1,1,1,0
1035,ÉCOLE SAINT-MALO SCHOOL,RED RIVER VALLEY SCHOOL DIVISION,190,P.O. BOX 190,,ST. MALO,R0A 1T0,stmalo@rrvsd.ca,( 22)-1035-0190, K-8,FR ,2043475021.0,2043475255,0,1,1,1,0
1824,INST. COLL. SAINT-PIERRE,RED RIVER VALLEY SCHOOL DIVISION,190,CASE POSTALE 188,,ST. PIERRE-JOLYS,R0A 1V0,icsp@rrvsd.ca,( 11)-1824-0190, 9-12, IM,2044337412.0,2044337938,0,0,0,1,1
1771,J. A. CUDDY ELEMENTARY,RED RIVER VALLEY SCHOOL DIVISION,190,BOX 148,,SANFORD,R0G 2J0,jacuddy@rrvsd.ca,( 15)-1771-0190, K-8, ,2047364196.0,2047362282,0,1,1,1,0
1792,LOWE FARM SCHOOL,RED RIVER VALLEY SCHOOL DIVISION,190,BOX 250,,LOWE FARM,R0G 1E0,lowefarm@rrvsd.ca,(  9)-1792-0190, K-8, ,2047466123.0,2047468068,0,1,1,1,0
1084,MORRIS SCHOOL,RED RIVER VALLEY SCHOOL DIVISION,190,BOX 548,,MORRIS,R0G 1K0,morris@rrvsd.ca,( 39)-1084-0190, K-12, ,2047462126.0,2047462612,0,1,1,1,1
1893,OAK BLUFF COMMUNITY SCHOOL,RED RIVER VALLEY SCHOOL DIVISION,190,155 AGRI PARK ROAD,,OAK BLUFF,R4G 0A5,oakbluff@rrvsd.ca,( 10)-1893-0190, K-8, ,2048970347.0,2048950004,0,1,1,1,0
1069,PEACE VALLEY SCHOOL,RED RIVER VALLEY SCHOOL DIVISION,190,HOMEWOOD COLONY,,STARBUCK,R0G 2P0,peacevalley@rrvsd.ca,(  5)-1069-0190, K-12, ,2047352825.0,2047352863,0,1,1,1,1
1579,ROSENORT SCHOOL,RED RIVER VALLEY SCHOOL DIVISION,190,BOX 70,,ROSENORT,R0G 1W0,rosenort@rrvsd.ca,( 21)-1579-0190, K-12, ,2047462069.0,2047468355,0,1,1,1,1
1191,SANFORD COLLEGIATE,RED RIVER VALLEY SCHOOL DIVISION,190,BOX 70,130 BLYTHEFIELD ROAD,SANFORD,R0G 2J0,sanfordcollegiate@rrvsd.ca,( 21)-1191-0190, 9-12, ,2047364177.0,2047362366,0,0,0,1,1
1633,STARBUCK SCHOOL,RED RIVER VALLEY SCHOOL DIVISION,190,BOX 10,,STARBUCK,R0G 2P0,starbuck@rrvsd.ca,( 11)-1633-0190, K-8, ,2047352213.0,2047352779,0,1,1,1,0
1299,SUNCREST COLONY SCHOOL,RED RIVER VALLEY SCHOOL DIVISION,190,BOX 4,,TOUROND,R0A 2G0,suncrest@rrvsd.ca,(  4)-1299-0190, K-12, ,2044333161.0,2044337970,0,1,1,1,1
1944,VERMILLION COLONY SCHOOL,RED RIVER VALLEY SCHOOL DIVISION,190,VERMILLION COLONY,BOX 238,SANFORD,R0G 2J0,vermillion@rrvsd.ca,(  5)-1944-0190, K-12, ,2047364795.0,2047364223,0,1,1,1,1
1621,ANGUS MCKAY SCHOOL,RIVER EAST TRANSCONA SCHOOL DIVISION,196,850 WOODVALE STREET,,WINNIPEG,R2K 2G8,am@retsd.mb.ca,(  9)-1621-0196, K-5, ,2046689283.0,2046612378,0,1,1,0,0
1762,ARTHUR DAY MIDDLE SCHOOL,RIVER EAST TRANSCONA SCHOOL DIVISION,196,43 WHITEHALL BOULEVARD,,WINNIPEG,R2C 0Y3,ad@retsd.mb.ca,( 31)-1762-0196, 6-8, ,2042224865.0,2049586522,0,0,1,1,0
1869,BERNIE WOLFE COMMUNITY SCHOOL,RIVER EAST TRANSCONA SCHOOL DIVISION,196,95 BOURNAIS DRIVE,,WINNIPEG,R2C 3Z2,bw@retsd.mb.ca,( 51)-1869-0196, K-8, ,2046679871.0,2049586532,0,1,1,1,0
1139,BERTRUN E. GLAVIN ELEMENTARY,RIVER EAST TRANSCONA SCHOOL DIVISION,196,166 ANTRIM ROAD,,WINNIPEG,R2K 3L2,beg@retsd.mb.ca,( 23)-1139-0196, K-5, ,2046689361.0,2046691277,0,1,1,0,0
1367,BIRD'S HILL SCHOOL,RIVER EAST TRANSCONA SCHOOL DIVISION,196,3950 RALEIGH STREET,,EAST ST. PAUL,R2E 0G9,bh@retsd.mb.ca,( 19)-1367-0196, K-5, ,2046689378.0,2046637669,0,1,1,0,0
1805,CHIEF PEGUIS JUNIOR HIGH,RIVER EAST TRANSCONA SCHOOL DIVISION,196,1400 ROTHESAY STREET,,WINNIPEG,R2G 1V2,cp@retsd.mb.ca,( 37)-1805-0196, 6-8, ,2046674506.0,2046689442,0,0,1,1,0
2032,COLLÈGE PIERRE-ELLIOTT-TRUDEAU,RIVER EAST TRANSCONA SCHOOL DIVISION,196,216 RUE REDONDA,,WINNIPEG,R2C 1L6,cpet@retsd.mb.ca,( 20)-2032-0196, 9-12, IM,2042224883.0,2049586888,0,0,0,1,1
1747,DONWOOD SCHOOL,RIVER EAST TRANSCONA SCHOOL DIVISION,196,400 DONWOOD DRIVE,,WINNIPEG,R2G 0X4,don@retsd.mb.ca,( 24)-1747-0196, K-5, ,2046689269.0,2046689438,0,1,1,0,0
1109,DR. F.W.L. HAMILTON SCHOOL,RIVER EAST TRANSCONA SCHOOL DIVISION,196,3225 HENDERSON HWY,,EAST ST. PAUL,R2E 0J2,dh@retsd.mb.ca,( 16)-1109-0196, K-5, ,2046697001.0,2046612500,0,1,1,0,0
1144,ÉCOLE CENTRALE,RIVER EAST TRANSCONA SCHOOL DIVISION,196,604 RUE DAY,,WINNIPEG,R2C 1B6,ec@retsd.mb.ca,( 20)-1144-0196, M-4, IM,2042224873.0,2049586426,0,1,1,0,0
1856,ÉCOLE MARGARET-UNDERHILL,RIVER EAST TRANSCONA SCHOOL DIVISION,196,25 PLACE REGINA,,WINNIPEG,R2C 0S5,emu@retsd.mb.ca,( 21)-1856-0196, M-4, IM,2042224998.0,2049586832,0,1,1,0,0
1312,ÉCOLE REGENT PARK,RIVER EAST TRANSCONA SCHOOL DIVISION,196,411 RUE MOROZ,,WINNIPEG,R2C 2X4,erp@retsd.mb.ca,( 23)-1312-0196, 5-8, IM,2042224885.0,2049586830,0,0,1,1,0
1748,EMERSON ELEMENTARY,RIVER EAST TRANSCONA SCHOOL DIVISION,196,323 EMERSON STREET,,WINNIPEG,R2G 1G3,emer@retsd.mb.ca,( 17)-1748-0196, K-5, ,2046678911.0,2046694430,0,1,1,0,0
1519,HAMPSTEAD SCHOOL,RIVER EAST TRANSCONA SCHOOL DIVISION,196,920 HAMPSTEAD AVENUE,,WINNIPEG,R2K 2A3,hampstead@retsd.mb.ca,( 16)-1519-0196, K-5, ,2046689417.0,2046541818,0,1,1,0,0
1776,HAROLD HATCHER SCHOOL,RIVER EAST TRANSCONA SCHOOL DIVISION,196,500 REDONDA STREET,,WINNIPEG,R2C 3T7,hh@retsd.mb.ca,( 30)-1776-0196, K-5, ,2042244702.0,2049586880,0,1,1,0,0
1265,JOHN DE GRAFF SCHOOL,RIVER EAST TRANSCONA SCHOOL DIVISION,196,1020 LOUELDA STREET,,WINNIPEG,R2K 3Z4,jdg@retsd.mb.ca,( 33)-1265-0196, K-5, ,2046689413.0,2046691280,0,1,1,0,0
2136,JOHN G. STEWART SCHOOL,RIVER EAST TRANSCONA SCHOOL DIVISION,196,2069 HENDERSON HIGHWAY,,WINNIPEG,R2G 1P7,jgs@retsd.mb.ca,( 11)-2136-0196, 5-12, ,2043340074.0,2043383670,0,0,1,1,1
1538,JOHN HENDERSON JUNIOR HIGH SCHOOL,RIVER EAST TRANSCONA SCHOOL DIVISION,196,930 BRAZIER STREET,,WINNIPEG,R2K 2P3,jh@retsd.mb.ca,( 37)-1538-0196, 6-8, IM,2046689353.0,2046612503,0,0,1,1,0
1556,JOHN PRITCHARD SCHOOL,RIVER EAST TRANSCONA SCHOOL DIVISION,196,1490 HENDERSON HIGHWAY,,WINNIPEG,R2G 1N5,jp@retsd.mb.ca,( 35)-1556-0196, K-8, ,2043349899.0,2043391984,0,1,1,1,0
1663,JOHN W. GUNN MIDDLE SCHOOL,RIVER EAST TRANSCONA SCHOOL DIVISION,196,351 HAROLD AVENUE WEST,,WINNIPEG,R2C 2C9,jwg@retsd.mb.ca,( 31)-1663-0196, 6-8, ,2042224967.0,2049586500,0,0,1,1,0
1992,JOSEPH TERES SCHOOL,RIVER EAST TRANSCONA SCHOOL DIVISION,196,131 SANFORD FLEMING DRIVE,,WINNIPEG,R2C 5B8,jt@retsd.mb.ca,( 28)-1992-0196, K-5, ,2042244749.0,2049586860,0,1,1,0,0
1847,KILDONAN-EAST COLLEGIATE,RIVER EAST TRANSCONA SCHOOL DIVISION,196,845 CONCORDIA AVENUE,,WINNIPEG,R2K 2M6,kec@retsd.mb.ca,( 86)-1847-0196, 9-12, ,2046671203.0,2046672960,0,0,0,1,1
1011,LORD WOLSELEY SCHOOL,RIVER EAST TRANSCONA SCHOOL DIVISION,196,939 HENDERSON HWY,,WINNIPEG,R2K 2M2,lw@retsd.mb.ca,( 12)-1011-0196, K-5, ,2046689363.0,2046612384,0,1,1,0,0
1740,MAPLE LEAF SCHOOL,RIVER EAST TRANSCONA SCHOOL DIVISION,196,251 MCIVOR AVENUE,,WINNIPEG,R2G 0Z7,ml@retsd.mb.ca,( 13)-1740-0196, K-5, ,2046675853.0,2046619509,0,1,1,0,0
1233,MILES MACDONELL COLLEGIATE,RIVER EAST TRANSCONA SCHOOL DIVISION,196,757 ROCH STREET,,WINNIPEG,R2K 2R1,mmc@retsd.mb.ca,( 74)-1233-0196, 9-12, IM,2046543803.0,2046671103,0,0,0,1,1
1462,MUNROE JUNIOR HIGH SCHOOL,RIVER EAST TRANSCONA SCHOOL DIVISION,196,405 MUNROE AVENUE,,WINNIPEG,R2K 1H5,mun@retsd.mb.ca,( 21)-1462-0196, 6-8, IM,2046676211.0,2046614451,0,0,1,1,0
1379,MURDOCH MACKAY COLLEGIATE,RIVER EAST TRANSCONA SCHOOL DIVISION,196,260 REDONDA STREET,,WINNIPEG,R2C 1L6,mur@retsd.mb.ca,( 57)-1379-0196, 9-12, ,2042245920.0,2049586460,0,0,0,1,1
1709,NEIL CAMPBELL SCHOOL,RIVER EAST TRANSCONA SCHOOL DIVISION,196,845 GOLSPIE STREET,,WINNIPEG,R2K 2V5,nc@retsd.mb.ca,( 24)-1709-0196, K-5, IM,2046689291.0,2046612848,0,1,1,0,0
1662,POLSON SCHOOL,RIVER EAST TRANSCONA SCHOOL DIVISION,196,491 MUNROE AVENUE,,WINNIPEG,R2K 1H5,pol@retsd.mb.ca,( 13)-1662-0196, K-5, ,2046689343.0,2046694490,0,1,1,0,0
1264,PRINCE EDWARD SCHOOL,RIVER EAST TRANSCONA SCHOOL DIVISION,196,649 BRAZIER STREET,,WINNIPEG,R2K 2N4,pe@retsd.mb.ca,( 13)-1264-0196, K-5, ,2046689345.0,2046675727,0,1,1,0,0
1741,PRINCESS MARGARET SCHOOL,RIVER EAST TRANSCONA SCHOOL DIVISION,196,367 HAWTHORNE AVENUE,,WINNIPEG,R2G 0H6,pm@retsd.mb.ca,( 28)-1741-0196, K-5, ,2046685659.0,2046635073,0,1,1,0,0
1687,RADISSON SCHOOL,RIVER EAST TRANSCONA SCHOOL DIVISION,196,1105 WINONA STREET,,WINNIPEG,R2C 2P9,rad@retsd.mb.ca,( 15)-1687-0196, K-5, ,2042225037.0,2049586591,0,1,1,0,0
1755,RIVER EAST COLLEGIATE,RIVER EAST TRANSCONA SCHOOL DIVISION,196,295 SUTTON AVENUE,,WINNIPEG,R2G 0T1,rec@retsd.mb.ca,( 73)-1755-0196, 9-12, ,2043389515.0,2043384611,0,0,0,1,1
1394,ROBERT ANDREWS SCHOOL,RIVER EAST TRANSCONA SCHOOL DIVISION,196,3230 MANLIUS STREET,,EAST ST. PAUL,R2E 0H7,ra@retsd.mb.ca,( 20)-1394-0196, 6-8, ,2046697002.0,2046615838,0,0,1,1,0
1783,SALISBURY MORSE PLACE SCHOOL,RIVER EAST TRANSCONA SCHOOL DIVISION,196,795 PRINCE RUPERT AVENUE,,WINNIPEG,R2K 1W6,smp@retsd.mb.ca,( 49)-1783-0196, K-8, IM,2046689390.0,2046689304,0,1,1,1,0
1746,SHERWOOD SCHOOL,RIVER EAST TRANSCONA SCHOOL DIVISION,196,509 GREY STREET,,WINNIPEG,R2K 2Z1,sher@retsd.mb.ca,( 12)-1746-0196, K-5, ,2046689406.0,2046670413,0,1,1,0,0
1298,SPRINGFIELD HEIGHTS SCHOOL,RIVER EAST TRANSCONA SCHOOL DIVISION,196,505 SHARRON BAY,,WINNIPEG,R2G 0H8,shs@retsd.mb.ca,( 36)-1298-0196, K-5, IM,2046689285.0,2046635078,0,1,1,0,0
1957,SUN VALLEY SCHOOL,RIVER EAST TRANSCONA SCHOOL DIVISION,196,125 SUN VALLEY DRIVE,,WINNIPEG,R2G 2W4,sv@retsd.mb.ca,( 32)-1957-0196, K-5, IM,2046689360.0,2046637664,0,1,1,0,0
1081,TRANSCONA COLLEGIATE,RIVER EAST TRANSCONA SCHOOL DIVISION,196,1305 WINONA STREET,,WINNIPEG,R2C 2P9,tc@retsd.mb.ca,( 39)-1081-0196, 9-12, ,2049586521.0,2049586440,0,0,0,1,1
1105,VALLEY GARDENS JUNIOR HIGH,RIVER EAST TRANSCONA SCHOOL DIVISION,196,220 ANTRIM ROAD,,WINNIPEG,R2K 3L2,vg@retsd.mb.ca,( 33)-1105-0196, 6-8, ,2046689367.0,2046686249,0,0,1,1,0
1020,WAYOATA SCHOOL,RIVER EAST TRANSCONA SCHOOL DIVISION,196,605 WAYOATA STREET,,WINNIPEG,R2C 1J8,way@retsd.mb.ca,( 20)-1020-0196, K-5, ,2042225053.0,2049586840,0,1,1,0,0
1806,WESTVIEW SCHOOL,RIVER EAST TRANSCONA SCHOOL DIVISION,196,600 HOKA STREET,,WINNIPEG,R2C 2V1,west@retsd.mb.ca,( 15)-1806-0196, K-5, ,2042224829.0,2049586412,0,1,1,0,0
1163,COOL SPRING COLONY SCHOOL,ROLLING RIVER SCHOOL DIVISION,156,COOL SPRING COLONY,BOX 1015,MINNEDOSA,R0J 1E0,coolspring@rrsd.mb.ca,(  4)-1163-0156, K-12, ,2048652350.0,2048652350,0,1,1,1,1
1728,DEERBOINE COLONY SCHOOL,ROLLING RIVER SCHOOL DIVISION,156,DEERBOINE COLONY,R. R. #1,ALEXANDER,R0K 0A0,deerboine@rrsd.mb.ca,(  3)-1728-0156, K-12, ,2047276260.0,2047281106,0,1,1,1,1
1169,DOUGLAS ELEMENTARY,ROLLING RIVER SCHOOL DIVISION,156,BOX 197,,DOUGLAS,R0K 0R0,douglaselem@rrsd.mb.ca,(  7)-1169-0156, K-8, ,2047634893.0,2047634480,0,1,1,1,0
1723,ELTON COLLEGIATE,ROLLING RIVER SCHOOL DIVISION,156,205 HILLMAN AVENUE,,FORREST,R0K 0W0,eltoncoll@rrsd.mb.ca,( 11)-1723-0156, 9-12, ,2047275142.0,2047287676,0,0,0,1,1
1818,ERICKSON COLLEGIATE INSTITUTE,ROLLING RIVER SCHOOL DIVISION,156,BOX 370,,ERICKSON,R0J 0P0,ericksoncoll@rrsd.mb.ca,( 10)-1818-0156, 7-12, ,2046362383.0,2046362605,0,0,0,1,1
1918,ERICKSON ELEMENTARY,ROLLING RIVER SCHOOL DIVISION,156,GENERAL DELIVERY,,ERICKSON,R0J 0P0,ericksonelem@rrsd.mb.ca,( 12)-1918-0156, K-6, ,2046362503.0,2046362266,0,1,1,0,0
1876,FORREST ELEMENTARY,ROLLING RIVER SCHOOL DIVISION,156,GENERAL DELIVERY,,FORREST,R0K 0W0,forrestelem@rrsd.mb.ca,( 16)-1876-0156, K-8, ,2047265803.0,2047287674,0,1,1,1,0
1679,GLENDALE SCHOOL,ROLLING RIVER SCHOOL DIVISION,156,HILLSIDE COLONY,GENERAL DELIVERY,JUSTICE,R0K 1C0,glendale@rrsd.mb.ca,(  2)-1679-0156, K-12, ,2047634963.0,2047634963,0,1,1,1,1
1501,MINNEDOSA COLLEGIATE,ROLLING RIVER SCHOOL DIVISION,156,BOX 1230,,MINNEDOSA,R0J 1E0,mci@rrsd.mb.ca,( 12)-1501-0156, 9-12, ,2048675170.0,2048672794,0,0,0,1,1
2139,OAK RIVER COLONY SCHOOL,ROLLING RIVER SCHOOL DIVISION,156,BOX 38,,OAK RIVER,R0K 1T0,oakrivercolony@rrsd.mb.ca,(  1)-2139-0156, K-12, ,2042728052.0,2042728051,0,1,1,1,1
1158,OAK RIVER ELEMENTARY,ROLLING RIVER SCHOOL DIVISION,156,BOX 89,,OAK RIVER,R0K 1T0,oakriverelem@rrsd.mb.ca,(  3)-1158-0156, K-6, ,2045662118.0,2045662167,0,1,1,0,0
1924,ONANOLE ELEMENTARY,ROLLING RIVER SCHOOL DIVISION,156,BOX 8,,ONANOLE,R0J 1N0,onanoleelem@rrsd.mb.ca,(  7)-1924-0156, K-8, ,2048482182.0,2048482402,0,1,1,1,0
1324,RAPID CITY SCHOOL,ROLLING RIVER SCHOOL DIVISION,156,BOX 100,,RAPID CITY,R0K 1W0,rcelem@rrsd.mb.ca,(  9)-1324-0156, K-8, ,2048262305.0,2048262824,0,1,1,1,0
1794,RIVERS COLLEGIATE,ROLLING RIVER SCHOOL DIVISION,156,BOX 519,,RIVERS,R0K 1X0,riverscoll@rrsd.mb.ca,( 13)-1794-0156, 7-12, ,2043287592.0,2043285364,0,0,0,1,1
1636,RIVERS ELEMENTARY,ROLLING RIVER SCHOOL DIVISION,156,BOX 610,,RIVERS,R0K 1X0,res@rrsd.mb.ca,( 17)-1636-0156, K-6, ,2043287918.0,2043287416,0,1,1,0,0
1560,TANNER'S CROSSING SCHOOL,ROLLING RIVER SCHOOL DIVISION,156,BOX 1110,,MINNEDOSA,R0J 1E0,tcs@rrsd.mb.ca,( 28)-1560-0156, K-8, ,2048672959.0,2048672591,0,1,1,1,0
2297,WESTVIEW COLONY SCHOOL,ROLLING RIVER SCHOOL DIVISION,156,BOX 250,,NEWDALE,R0J 1J0,westview@rrsd.mb.ca,(  2)-2297-0156, K-12, ,,2045662149,0,1,1,1,1
1649,ARBORGATE SCHOOL,SEINE RIVER SCHOOL DIVISION,136,71 NORMANDEAU BAY,,LA BROQUERIE,R0A 0W0,arb@srsd.ca,( 31)-1649-0136, K-8, ,2044245206.0,2044245607,0,1,1,1,0
1115,COLLÈGE LORETTE COLLEGIATE,SEINE RIVER SCHOOL DIVISION,136,1082 DAWSON ROAD,,LORETTE,R0A 0Y0,clc@srsd.ca,( 38)-1115-0136, 9-12, IM,2048783582.0,2048782887,0,0,0,1,1
1475,COLLÈGE SAINT-NORBERT COLLEGIATE,SEINE RIVER SCHOOL DIVISION,136,870 STE. THERESE AVENUE,,ST. NORBERT,R3V 1H8,csnc@srsd.ca,( 31)-1475-0136, 9-12, IM,2042699969.0,2042694920,0,0,0,1,1
1316,DAWSON TRAIL SCHOOL,SEINE RIVER SCHOOL DIVISION,136,P.O. BOX 70,425 SENEZ STREET,LORETTE,R0A 0Y0,dts@srsd.ca,( 29)-1316-0136, K-8, ,2048783576.0,2048782929,0,1,1,1,0
1702,ÉCOLE ÎLE-DES-CHÊNES SCHOOL,SEINE RIVER SCHOOL DIVISION,136,BOX 520,455 D'AUTEUIL STREET,ILE DES CHENES,R0A 0T0,,( 19)-1702-0136, K-8, IM,2048783491.0,2048782898,0,1,1,1,0
2138,ÉCOLE LORETTE IMMERSION,SEINE RIVER SCHOOL DIVISION,136,475 RUE SENEZ,,LORETTE,R0A 0Y0,eli@srsd.ca,( 22)-2138-0136, M-8, IM,2048784237.0,2048784233,0,1,1,1,0
1622,ÉCOLE SAINT-NORBERT IMMERSION,SEINE RIVER SCHOOL DIVISION,136,900 AVENUE SAINTE-THÉRÈSE,,ST. NORBERT,R3V 1H8,sni@srsd.ca,( 17)-1622-0136, M-8, IM,2042690925.0,2042614430,0,1,1,1,0
1609,ÉCOLE SAINTE-ANNE IMMERSION,SEINE RIVER SCHOOL DIVISION,136,167 AVENUE ST-ALPHONSE,,STE. ANNE,R5H 1G3,sai@srsd.ca,( 18)-1609-0136, M-8, IM,2044228498.0,2044228762,0,1,1,1,0
1632,ÉCOLE ST. ADOLPHE SCHOOL,SEINE RIVER SCHOOL DIVISION,136,444 LA SEINE STREET,,ST. ADOLPHE,R5A 1C2,sas@srsd.ca,( 15)-1632-0136, K-8, IM,2048832612.0,2048832182,0,1,1,1,0
2115,LA BARRIERE CROSSINGS SCHOOL,SEINE RIVER SCHOOL DIVISION,136,245 LEMAIRE STREET,,ST. NORBERT,R3V 1M2,lbc@srsd.ca,( 12)-2115-0136, 5-8, ,2042756299.0,2042755048,0,0,1,1,0
1785,LA SALLE SCHOOL,SEINE RIVER SCHOOL DIVISION,136,43 BEAUDRY STREET,,LA SALLE,R0G 0A1,lss@srsd.ca,( 24)-1785-0136, K-8, ,2047362709.0,2047364366,0,1,1,1,0
1716,PARC LA SALLE SCHOOL,SEINE RIVER SCHOOL DIVISION,136,190 HOUDE DRIVE,,ST. NORBERT,R3V 1C5,pls@srsd.ca,( 17)-1716-0136, K-4, ,2042614626.0,2042691503,0,1,1,0,0
1600,RICHER SCHOOL,SEINE RIVER SCHOOL DIVISION,136,BOX 9,DAWSON ROAD,RICHER,R0E 1S0,rch@srsd.ca,( 16)-1600-0136, K-8, ,2044228625.0,2044225490,0,1,1,1,0
2089,STE. ANNE COLLEGIATE,SEINE RIVER SCHOOL DIVISION,136,197 ST. ALPHONSE AVENUE,,STE ANNE,R5H 1G3,sac@srsd.ca,( 27)-2089-0136, 9-12, ,2044225614.0,2044225417,0,0,0,1,1
1442,STE. ANNE ELEMENTARY SCHOOL,SEINE RIVER SCHOOL DIVISION,136,177 ST. ALPHONSE AVENUE,,STE. ANNE,R5H 1G3,sae@srsd.ca,( 18)-1442-0136, K-8, ,2044228262.0,2044228776,0,1,1,1,0
2294,AMBER TRAILS COMMUNITY SCHOOL,SEVEN OAKS SCHOOL DIVISION,118,1575 TEMPLETON AVENUE,,WINNIPEG,R2P 2T5,,( 53)-2294-0118, K-8, ,2046324899.0,2046975965,0,1,1,1,0
1088,ARTHUR E. WRIGHT COMMUNITY SCHOOL,SEVEN OAKS SCHOOL DIVISION,118,1520 JEFFERSON AVENUE,,WINNIPEG,R2P 1K1,,( 37)-1088-0118, K-8, ,2046326198.0,2046326314,0,1,1,1,0
1564,COLLÈGE GARDEN CITY COLLEGIATE,SEVEN OAKS SCHOOL DIVISION,118,711 JEFFERSON AVENUE,,WINNIPEG,R2V 0P7,,( 96)-1564-0118, 9-12, IM,2043347252.0,2043392058,0,0,0,1,1
1410,COLLICUTT SCHOOL,SEVEN OAKS SCHOOL DIVISION,118,75 COTTINGHAM STREET,,WINNIPEG,R2V 3B5,,( 12)-1410-0118, K-5, ,2046638481.0,2043387937,0,1,1,0,0
1940,ÉCOLE BELMONT,SEVEN OAKS SCHOOL DIVISION,118,525 AVENUE BELMONT,,WINNIPEG,R2V 0Z6,,( 18)-1940-0118, M-5, IM,2043347110.0,2043387893,0,1,1,0,0
2019,ÉCOLE CONSTABLE EDWARD FINNEY SCHOOL,SEVEN OAKS SCHOOL DIVISION,118,25 ANGLIA AVENUE,,WINNIPEG,R2P 2R1,julieann.lodge@7oaks.org,( 31)-2019-0118, K-5, IM,2046970139.0,2046948688,0,1,1,0,0
1375,ÉCOLE JAMES NISBET COMMUNITY SCHOOL,SEVEN OAKS SCHOOL DIVISION,118,70 DOUBLEDAY DRIVE,,WINNIPEG,R2P 0P4,,( 38)-1375-0118, K-5, IM,2046326136.0,2046338870,0,1,1,0,0
2064,ÉCOLE LEILA NORTH COMMUNITY SCHOOL,SEVEN OAKS SCHOOL DIVISION,118,20 ALLAN BLYE DRIVE,,WINNIPEG,R2P 2S5,,( 43)-2064-0118, 6-8, IM,2046948383.0,2046948071,0,0,1,1,0
2303,ÉCOLE RIVIERE ROUGE,SEVEN OAKS SCHOOL DIVISION,118,55 SWINFORD WAY,,WINNIPEG,R2V 4X2,cheryl.gaudet@7oaks.org,( 28)-2303-0118, K-5, IM,2045892504.0,2046975962,0,1,1,0,0
2126,ÉCOLE SEVEN OAKS MIDDLE SCHOOL,SEVEN OAKS SCHOOL DIVISION,118,800 SALTER STREET,,WINNIPEG,R2V 2E6,,( 34)-2126-0118, 6-8, IM,2045890121.0,2045860327,0,0,1,1,0
2259,EDMUND PARTRIDGE COMMUNITY SCHOOL,SEVEN OAKS SCHOOL DIVISION,118,1874 MAIN STREET,,WINNIPEG,R2V 2A6,,( 27)-2259-0118, 6-8, ,2043340565.0,2043399889,0,0,1,1,0
1639,ELWICK COMMUNITY SCHOOL,SEVEN OAKS SCHOOL DIVISION,118,30 MABERLEY ROAD,,WINNIPEG,R2P 0B2,,( 37)-1639-0118, K-8, ,2046337168.0,2046335641,0,1,1,1,0
1050,FOREST PARK SCHOOL,SEVEN OAKS SCHOOL DIVISION,118,130 FOREST PARK DRIVE,,WINNIPEG,R2V 2R8,,( 17)-1050-0118, K-5, ,2043344808.0,2043389341,0,1,1,0,0
1295,GOVERNOR SEMPLE SCHOOL,SEVEN OAKS SCHOOL DIVISION,118,150 HARTFORD AVENUE,,WINNIPEG,R2V 0V7,,( 11)-1295-0118, K-5, ,2043347356.0,2043397112,0,1,1,0,0
1333,H. C. AVERY MIDDLE SCHOOL,SEVEN OAKS SCHOOL DIVISION,118,10 MARIGOLD BAY,,WINNIPEG,R2V 2M1,,( 31)-1333-0118, 6-8, ,2043348474.0,2043344391,0,0,1,1,0
1892,MAPLES COLLEGIATE,SEVEN OAKS SCHOOL DIVISION,118,1330 JEFFERSON AVENUE,,WINNIPEG,R2P 1L3,,(105)-1892-0118, 9-12, ,2046947229.0,2046326641,0,0,0,1,1
2306,MAPLES MET SCHOOL,SEVEN OAKS SCHOOL DIVISION,118,1330 JEFFERSON AVENUE,,WINNIPEG,R2P 1L3,,( 11)-2306-0118, 9-12, ,2045892504.0,2045868061,0,0,0,1,1
1769,MARGARET PARK SCHOOL,SEVEN OAKS SCHOOL DIVISION,118,385 CORK AVENUE,,WINNIPEG,R2V 1R6,,( 21)-1769-0118, K-6, ,2043346876.0,2043389384,0,1,1,0,0
2298,MET SCHOOL,SEVEN OAKS SCHOOL DIVISION,118,640 JEFFERSON AVENUE,,WINNIPEG,R2V 0P7,,( 11)-2298-0118, 9-12, ,2043347293.0,2043365050,0,0,0,1,1
1080,O. V. JEWITT ELEMENTARY,SEVEN OAKS SCHOOL DIVISION,118,66 NEVILLE STREET,,WINNIPEG,R2P 1W3,,( 34)-1080-0118, K-8, ,2046941081.0,2046331714,0,1,1,1,0
2096,RIVERBEND COMMUNITY SCHOOL,SEVEN OAKS SCHOOL DIVISION,118,123 RED RIVER BOULEVARD WEST,,WINNIPEG,R2V 3X9,,( 29)-2096-0118, K-5, ,2043349031.0,2043348417,0,1,1,0,0
1078,SHKOLA R.F. MORRISON SCHOOL,SEVEN OAKS SCHOOL DIVISION,118,25 MORRISON STREET,,WINNIPEG,R2V 3B3,,( 23)-1078-0118, K-6, ,2043390540.0,2043387804,0,1,1,0,0
1079,VICTORY SCHOOL,SEVEN OAKS SCHOOL DIVISION,118,395 JEFFERSON AVENUE,,WINNIPEG,R2V 0N3,,( 17)-1079-0118, K-5, ,2045894123.0,2045869716,0,1,1,0,0
1019,WEST KILDONAN COLLEGIATE,SEVEN OAKS SCHOOL DIVISION,118,101 RIDGECREST AVENUE,,WINNIPEG,R2V 4T6,,( 53)-1019-0118, 9-12, ,2043347116.0,2043396959,0,0,0,1,1
1508,WEST ST. PAUL SCHOOL,SEVEN OAKS SCHOOL DIVISION,118,3740 MAIN STREET,,WEST ST. PAUL,R4A 1A4,,( 29)-1508-0118, K-8, ,2043397204.0,2043391964,0,1,1,1,0
1594,DELORAINE SCHOOL,SOUTHWEST HORIZON SCHOOL DIVISION,191,BOX 448,,DELORAINE,R0M 0M0,,( 17)-1594-0191, K-12, ,2047473956.0,2044836296,0,1,1,1,1
2049,GREEN ACRES COLONY SCHOOL,SOUTHWEST HORIZON SCHOOL DIVISION,191,BOX 190,,WAWANESA,R0K 2G0,,(  5)-2049-0191, K-8, ,2048242112.0,2048242340,0,1,1,1,0
1153,HARTNEY SCHOOL,SOUTHWEST HORIZON SCHOOL DIVISION,191,BOX 130,,HARTNEY,R0M 0X0,,( 14)-1153-0191, K-12, ,2048582156.0,2044836295,0,1,1,1,1
1372,MAPLE GROVE COLONY SCHOOL,SOUTHWEST HORIZON SCHOOL DIVISION,191,BOX 40,,LAUDER,R0M 1C0,,(  5)-1372-0191, K-12, ,2048582204.0,2048582204,0,1,1,1,1
1385,MELITA SCHOOL,SOUTHWEST HORIZON SCHOOL DIVISION,191,BOX 579,,MELITA,R0M 1L0,,( 15)-1385-0191, K-12, ,2045223126.0,2044836293,0,1,1,1,1
1186,NATURE VALLEY COLONY SCHOOL,SOUTHWEST HORIZON SCHOOL DIVISION,191,BOX 308,,WAWANESA,R0K 2G0,,(  3)-1186-0191, K-12, ,2048242038.0,2048242038,0,1,1,1,1
1772,NEWDALE COLONY SCHOOL,SOUTHWEST HORIZON SCHOOL DIVISION,191,BOX 396,,SOURIS,R0K 2C0,,(  5)-1772-0191, K-12, ,2047250412.0,2047250412,0,1,1,1,1
2314,OAKLAND SCHOOL,SOUTHWEST HORIZON SCHOOL DIVISION,191,BOX 24,,CARROLL,R0K 0K0,,(  3)-2314-0191, K-12, ,2044837361.0,2044837337,0,1,1,1,1
1615,PIERSON SCHOOL,SOUTHWEST HORIZON SCHOOL DIVISION,191,BOX 250,,PIERSON,R0M 1S0,,(  9)-1615-0191, K-12, ,2046342505.0,2044836292,0,1,1,1,1
1066,SOURIS RIVER COLONY SCHOOL,SOUTHWEST HORIZON SCHOOL DIVISION,191,BOX 178,,SOURIS,R0K 2C0,,(  4)-1066-0191, K-12, ,2047692267.0,2047692267,0,1,1,1,1
1250,SOURIS SCHOOL,SOUTHWEST HORIZON SCHOOL DIVISION,191,BOX 639,,SOURIS,R0K 2C0,,( 31)-1250-0191, K-12, ,2044832828.0,2044832161,0,1,1,1,1
1458,WASKADA SCHOOL,SOUTHWEST HORIZON SCHOOL DIVISION,191,BOX 190,,WASKADA,R0M 2E0,,(  7)-1458-0191, K-12, ,2046732240.0,2044836297,0,1,1,1,1
1396,WAWANESA SCHOOL,SOUTHWEST HORIZON SCHOOL DIVISION,191,BOX 310,,WAWANESA,R0K 2G0,,( 21)-1396-0191, K-12, ,2048242659.0,2044836298,0,1,1,1,1
1466,ATHLONE SCHOOL,ST. JAMES-ASSINIBOIA SCHOOL DIVISION,114,110 ATHLONE DRIVE,,WINNIPEG,R3J 3L4,athlone@sjsd.net,( 15)-1466-0114, K-5, ,2048852273.0,2048321373,0,1,1,0,0
1524,BROOKLANDS SCHOOL,ST. JAMES-ASSINIBOIA SCHOOL DIVISION,114,1950 PACIFIC AVENUE W,,WINNIPEG,R2R 0G4,brooklands@sjsd.net,( 15)-1524-0114, K-5, ,2046337773.0,2046339630,0,1,1,0,0
1467,BRUCE MIDDLE SCHOOL,ST. JAMES-ASSINIBOIA SCHOOL DIVISION,114,333 BOOTH DRIVE,,WINNIPEG,R3J 3M8,bruce@sjsd.net,( 18)-1467-0114, 6-8, ,2048881379.0,2048881990,0,0,1,1,0
1167,BUCHANAN SCHOOL,ST. JAMES-ASSINIBOIA SCHOOL DIVISION,114,815 BUCHANAN BOULEVARD,,WINNIPEG,R2Y 1N1,buchanan@sjsd.net,( 19)-1167-0114, K-5, ,2048317124.0,2048880680,0,1,1,0,0
1135,COLLÈGE STURGEON HEIGHTS COLLEGIATE,ST. JAMES-ASSINIBOIA SCHOOL DIVISION,114,2665 NESS AVENUE,,WINNIPEG,R3J 1A5,sturgeonheights@sjsd.net,( 80)-1135-0114, 9-12, IM,2048890796.0,2048880684,0,0,0,1,1
1358,CRESTVIEW SCHOOL,ST. JAMES-ASSINIBOIA SCHOOL DIVISION,114,333 MORGAN CRESCENT,,WINNIPEG,R2Y 0C9,crestview@sjsd.net,( 19)-1358-0114, K-5, ,2048857711.0,2048857710,0,1,1,0,0
1432,ÉCOLE ASSINIBOINE,ST. JAMES-ASSINIBOIA SCHOOL DIVISION,114,175 CHEMIN WINSTON,,WINNIPEG,R3J 1N1,assiniboine@sjsd.net,( 21)-1432-0114, M-5, IM,2048852217.0,2048852216,0,1,1,0,0
1548,ÉCOLE BANNATYNE,ST. JAMES-ASSINIBOIA SCHOOL DIVISION,114,363 PROMENADE THOMPSON,,WINNIPEG,R3J 3E5,bannatyne@sjsd.net,( 24)-1548-0114, M-5, IM,2048329199.0,2048881101,0,1,1,0,0
1409,ÉCOLE NESS,ST. JAMES-ASSINIBOIA SCHOOL DIVISION,114,3300 NESS AVENUE,,WINNIPEG,R2Y 0G6,ness@sjsd.net,( 25)-1409-0114, 6-8, IM,2048853497.0,2048371361,0,0,1,1,0
1922,ÉCOLE ROBERT-BROWNING,ST. JAMES-ASSINIBOIA SCHOOL DIVISION,114,130 BOULEVARD BROWNING,,WINNIPEG,R3K 0L8,robertbrowning@sjsd.net,( 31)-1922-0114, M-5, IM,2048378382.0,2048378381,0,1,1,0,0
1002,EDUCATIONAL SUPPORT SERVICES,ST. JAMES-ASSINIBOIA SCHOOL DIVISION,114,1 BRAINTREE CRESCENT,,WINNIPEG,R3J 1C7,ess@sjsd.net,( 52)-1002-0114, K-12, ,2048857594.0,2048851334,0,1,1,1,1
2107,GEORGE WATERS MIDDLE SCHOOL,ST. JAMES-ASSINIBOIA SCHOOL DIVISION,114,190 FERRY ROAD,,WINNIPEG,R3J 1V7,georgewaters@sjsd.net,( 25)-2107-0114, 6-8, ,2048327657.0,2048884898,0,0,1,1,0
1627,GOLDEN GATE MIDDLE SCHOOL,ST. JAMES-ASSINIBOIA SCHOOL DIVISION,114,330 BRUCE AVENUE,,WINNIPEG,R3J 0V8,goldengate@sjsd.net,( 22)-1627-0114, 6-8, ,2048899598.0,2048375808,0,0,1,1,0
1517,HEDGES MIDDLE SCHOOL,ST. JAMES-ASSINIBOIA SCHOOL DIVISION,114,369 FAIRLANE AVENUE,,WINNIPEG,R2Y 0B6,hedges@sjsd.net,( 30)-1517-0114, 6-8, ,2048888093.0,2048375843,0,0,1,1,0
1760,HERITAGE SCHOOL,ST. JAMES-ASSINIBOIA SCHOOL DIVISION,114,47 HERITAGE BOULEVARD,,WINNIPEG,R2Y 0N9,heritage@sjsd.net,( 16)-1760-0114, K-5, ,2048326676.0,2048371394,0,1,1,0,0
2260,JAMESWOOD ALTERNATIVE SCHOOL,ST. JAMES-ASSINIBOIA SCHOOL DIVISION,114,1 BRAINTREE CRESCENT,,WINNIPEG,R3J 1C7,jas@sjsd.net,(  6)-2260-0114, 9-12, ,2048857594.0,2048859555,0,0,0,1,1
1342,JOHN TAYLOR COLLEGIATE,ST. JAMES-ASSINIBOIA SCHOOL DIVISION,114,470 HAMILTON AVENUE,,WINNIPEG,R2Y 0H4,johntaylor@sjsd.net,( 35)-1342-0114, 9-12, ,2048899999.0,2048888930,0,0,0,1,1
1597,LAKEWOOD SCHOOL,ST. JAMES-ASSINIBOIA SCHOOL DIVISION,114,55 KAY CRESCENT,,WINNIPEG,R2Y 1L1,lakewood@sjsd.net,( 16)-1597-0114, K-5, ,2048899361.0,2048899360,0,1,1,0,0
1307,LINCOLN MIDDLE SCHOOL,ST. JAMES-ASSINIBOIA SCHOOL DIVISION,114,3180 MCBEY AVENUE,,WINNIPEG,R3K 0T7,lincoln@sjsd.net,( 26)-1307-0114, 6-8, ,2048853368.0,2048378397,0,0,1,1,0
1452,LINWOOD SCHOOL,ST. JAMES-ASSINIBOIA SCHOOL DIVISION,114,266 LINWOOD STREET,,WINNIPEG,R3J 2C6,linwood@sjsd.net,( 15)-1452-0114, K-5, ,2048852234.0,2048899356,0,1,1,0,0
1197,PHOENIX SCHOOL,ST. JAMES-ASSINIBOIA SCHOOL DIVISION,114,111 ALBORO STREET,,HEADINGLEY,R4J 1A3,phoenix@sjsd.net,( 12)-1197-0114, K-5, ,2048895060.0,2048895053,0,1,1,0,0
1655,SANSOME SCHOOL,ST. JAMES-ASSINIBOIA SCHOOL DIVISION,114,181 SANSOME AVENUE,,WINNIPEG,R3K 0N8,sansome@sjsd.net,( 19)-1655-0114, K-5, ,2048896007.0,2048896000,0,1,1,0,0
1781,ST. JAMES COLLEGIATE,ST. JAMES-ASSINIBOIA SCHOOL DIVISION,114,1900 PORTAGE AVENUE,,WINNIPEG,R3J 0J1,stjames@sjsd.net,( 31)-1781-0114, 9-12, ,2048890830.0,2048884867,0,0,0,1,1
1506,STEVENSON SCHOOL,ST. JAMES-ASSINIBOIA SCHOOL DIVISION,114,1777 SILVER AVENUE,,WINNIPEG,R3J 1B1,stevenson@sjsd.net,( 21)-1506-0114, K-5, ,2048321350.0,2048321359,0,1,1,0,0
1895,STRATHMILLAN SCHOOL,ST. JAMES-ASSINIBOIA SCHOOL DIVISION,114,339 STRATHMILLAN ROAD,,WINNIPEG,R3J 2V6,strathmillan@sjsd.net,( 27)-1895-0114, K-5, ,2048318166.0,2048880148,0,1,1,0,0
1252,VOYAGEUR SCHOOL,ST. JAMES-ASSINIBOIA SCHOOL DIVISION,114,37 VOYAGEUR AVENUE,,WINNIPEG,R2Y 0H7,voyageur@sjsd.net,( 11)-1252-0114, K-5, ,2048883391.0,2048883390,0,1,1,0,0
1076,WESTWOOD COLLEGIATE,ST. JAMES-ASSINIBOIA SCHOOL DIVISION,114,360 ROUGE ROAD,,WINNIPEG,R3K 1K3,westwood@sjsd.net,( 41)-1076-0114, 9-12, ,2048890802.0,2048887650,0,0,0,1,1
1027,ANOLA SCHOOL,SUNRISE SCHOOL DIVISION,189,30 ACADEMY STREET,,ANOLA,R0E 0A0,bwelsh@sunrisesd.ca,( 14)-1027-0189, K-8, ,2048663177.0,2048662962,0,1,1,1,0
1361,CENTENNIAL SCHOOL,SUNRISE SCHOOL DIVISION,189,BOX 219,,LAC DU BONNET,R0E 1A0,dogren@sunrisesd.ca,( 15)-1361-0189, K-6, ,2043452458.0,2043452462,0,1,1,0,0
1749,ÉCOLE BEAUSÉJOUR EARLY YEARS,SUNRISE SCHOOL DIVISION,189,BOX 869,,BEAUSEJOUR,R0E 0C0,emyles@sunrisesd.ca,( 31)-1749-0189, K-5, IM,2042684256.0,2042682664,0,1,1,0,0
1888,ÉCOLE DUGALD SCHOOL,SUNRISE SCHOOL DIVISION,189,543 HOLLAND STREET,,DUGALD,R0E 0K0,,( 35)-1888-0189, K-8, IM,2048537395.0,2048537929,0,1,1,1,0
1360,ÉCOLE EDWARD-SCHREYER SCHOOL,SUNRISE SCHOOL DIVISION,189,BOX 20,,BEAUSEJOUR,R0E 0C0,pilchena@sunrisesd.ca,( 48)-1360-0189, 6-12, IM,2042681157.0,2042682423,0,0,1,1,1
1677,ÉCOLE POWERVIEW SCHOOL,SUNRISE SCHOOL DIVISION,189,P.O. BOX 157,,POWERVIEW,R0E 1P0,tried@sunrisesd.mb,( 39)-1677-0189, K-12, IM,2043672773.0,2043672296,0,1,1,1,1
1266,GILLIS SCHOOL,SUNRISE SCHOOL DIVISION,189,BOX 1,,TYNDALL,R0E 2B0,jwielgosh@sunrisesd.ca,( 17)-1266-0189, K-6, ,2042683989.0,2042684353,0,1,1,0,0
1094,GRAFTON SCHOOL,SUNRISE SCHOOL DIVISION,189,BOX 708,R.R. #1,ANOLA,R0E 0A0,scampbell1@sunrisesd.ca,(  1)-1094-0189, K-12, ,2042683451.0,2042682507,0,1,1,1,1
1881,GROSS COLONY SCHOOL,SUNRISE SCHOOL DIVISION,189,WHITESHELL COLONY,BOX 65,RIVER HILLS,R0E 1T0,drichardson@sunrisesd.mb,(  2)-1881-0189, K-12, ,2043482494.0,2043487055,0,1,1,1,1
1531,HAZELRIDGE SCHOOL,SUNRISE SCHOOL DIVISION,189,38 MYRTLE STREET,,HAZELRIDGE,R0E 0Y0,lgardner@sunrisesd.mb,(  6)-1531-0189, K-5, ,2047552374.0,2047552214,0,1,1,0,0
2106,HEARTLAND COLONY SCHOOL,SUNRISE SCHOOL DIVISION,189,BOX 61,,HAZELRIDGE,R0E 0Y0,dmarkham@sunrisesd.mb,(  4)-2106-0189, K-12, ,2047553383.0,2047552342,0,1,1,1,1
1809,HOFER SCHOOL,SUNRISE SCHOOL DIVISION,189,BOX 3140,R. R. #3,BEAUSEJOUR,R0E 0C0,jhofer@sunrisesd.mb,(  5)-1809-0189, K-12, ,2042653481.0,2042653522,0,1,1,1,1
1012,LAC DU BONNET SENIOR,SUNRISE SCHOOL DIVISION,189,BOX 908,,LAC DU BONNET,R0E 1A0,cviznaugh@sunrisesd.mb,( 19)-1012-0189, 7-12, ,2043456347.0,2043452585,0,0,0,1,1
1190,OAK BANK ELEMENTARY,SUNRISE SCHOOL DIVISION,189,826 CEDAR AVENUE,,OAKBANK,R0E 1J0,odeneka@sunrisesd.mb,( 34)-1190-0189, K-5, ,2044442953.0,2044442473,0,1,1,0,0
1352,RICHLAND SCHOOL,SUNRISE SCHOOL DIVISION,189,RIDGELAND COLONY,"R. R. #1, BOX 508",DUGALD,R0E 0K0,rpankratz@sunrisesd.mb,(  2)-1352-0189, K-12, ,2048664649.0,2048663293,0,1,1,1,1
1485,SPRINGFIELD COLLEGIATE,SUNRISE SCHOOL DIVISION,189,841 CEDAR AVENUE,,OAKBANK,R0E 1J1,jjulien@sunrisesd.mb,( 44)-1485-0189, 9-12, ,2044442533.0,2044442404,0,0,0,1,1
1296,SPRINGFIELD MIDDLE SCHOOL,SUNRISE SCHOOL DIVISION,189,860 CEDAR AVENUE,,OAKBANK,R0E 1J0,kdoell@sunrisesd.mb,( 24)-1296-0189, 6-8, ,2044442966.0,2044442995,0,0,1,1,0
1692,SPRINGWELL SCHOOL,SUNRISE SCHOOL DIVISION,189,BRIGHTSTONE COLONY,"BOX 880, RR1",LAC DU BONNET,R0E 1A0,gwaldner@sunrisesd.mb,(  3)-1692-0189, K-12, ,2043459223.0,2043456410,0,1,1,1,1
1699,WHITEMOUTH SCHOOL,SUNRISE SCHOOL DIVISION,189,BOX 187,,WHITEMOUTH,R0E 2G0,mcarter@sunrisesd.mb,( 19)-1699-0189, K-12, ,2043482714.0,2043482595,0,1,1,1,1
1487,BENITO SCHOOL,SWAN VALLEY SCHOOL DIVISION,120,BOX 430,,BENITO,R0L 0C0,BenitoPrincipal@svsd.ca,(  7)-1487-0120, K-8, ,2045392474.0,2045392466,0,1,1,1,0
1515,BIRCH RIVER SCHOOL,SWAN VALLEY SCHOOL DIVISION,120,BOX 310,,BIRCH RIVER,R0L 0E0,BirchPrincipal@svsd.ca,(  3)-1515-0120, K-6, ,2042364209.0,2042364382,0,1,1,0,0
1097,BOWSMAN SCHOOL,SWAN VALLEY SCHOOL DIVISION,120,BOX 248,,BOWSMAN,R0L 0H0,BowsmanPrincipal@svsd.ca,(  7)-1097-0120, K-8, ,2042384917.0,2047344506,0,1,1,1,0
1390,ÉCOLE SWAN RIVER SOUTH SCHOOL,SWAN VALLEY SCHOOL DIVISION,120,BOX 1059,,SWAN RIVER,R0L 1Z0,ESRSSPrincipal@svsd.ca,( 22)-1390-0120, K-8, IM,2047343969.0,2047344518,0,1,1,1,0
1193,HEYES ELEMENTARY,SWAN VALLEY SCHOOL DIVISION,120,BOX 1000,,SWAN RIVER,R0L 1Z0,HeyesPrincipal@svsd.ca,( 12)-1193-0120, K-6, ,2047344202.0,2047343385,0,1,1,0,0
1535,MINITONAS SCHOOL,SWAN VALLEY SCHOOL DIVISION,120,BOX 160,,MINITONAS,R0L 1G0,MinitonasMiddlePrincipal@svsd.ca,( 11)-1535-0120, K-8, ,2045254412.0,2047345222,0,1,1,1,0
1576,SWAN VALLEY REGIONAL SECONDARY SCHOOL,SWAN VALLEY SCHOOL DIVISION,120,BOX 5000,,SWAN RIVER,R0L 1Z0,SVRSSPrincipal@svsd.ca,( 38)-1576-0120, 9-12, IM,2047343855.0,2047344511,0,0,0,1,1
1085,TAYLOR ELEMENTARY,SWAN VALLEY SCHOOL DIVISION,120,BOX 1269,,SWAN RIVER,R0L 1Z0,TaylorPrincipal@svsd.ca,( 16)-1085-0120, K-5, ,2047343112.0,2047344593,0,1,1,0,0
1521,BOISSEVAIN SCHOOL,TURTLE MOUNTAIN SCHOOL DIVISION,141,BOX 1030,,BOISSEVAIN,R0K 0E0,bsoffice@tmsd.mb.ca,( 29)-1521-0141, K-12, ,2045342993.0,2045342494,0,1,1,1,1
2238,CAN AM COLONY SCHOOL,TURTLE MOUNTAIN SCHOOL DIVISION,141,BOX 69,,MARGARET,R0K 1J0,sganske@tmsd.mb.ca,(  3)-2238-0141, K-12, ,,2047762151,0,1,1,1,1
1098,HOLMFIELD COLONY SCHOOL,TURTLE MOUNTAIN SCHOOL DIVISION,141,HOLMFIELD COLONY,BOX 927,KILLARNEY,R0K 1G0,shaney@tmsd.mb.ca,(  3)-1098-0141, K-12, ,2045234088.0,2045234355,0,1,1,1,1
1828,KILLARNEY SCHOOL,TURTLE MOUNTAIN SCHOOL DIVISION,141,GENERAL DELIVERY,,KILLARNEY,R0K 1G0,ksoffice@tmsd.mb.ca,( 36)-1828-0141, K-12, ,2045238545.0,2045234696,0,1,1,1,1
1376,MAYFAIR COLONY SCHOOL,TURTLE MOUNTAIN SCHOOL DIVISION,141,MAYFAIR COLONY,BOX 1438,KILLARNEY,R0K 1G0,pskeoch@tmsd.mb.ca,(  3)-1376-0141, K-12, ,2045238622.0,2045238768,0,1,1,1,1
1471,MINTO SCHOOL,TURTLE MOUNTAIN SCHOOL DIVISION,141,BOX 174,,MINTO,R0K 1M0,lwhite@tmsd.mb.ca,(  4)-1471-0141, K-8, ,2047762160.0,2047762041,0,1,1,1,0
1844,WELLWOOD SCHOOL,TURTLE MOUNTAIN SCHOOL DIVISION,141,WELLWOOD COLONY,BOX 603,KILLARNEY,R0K 1G0,tgudnason@tmsd.mb.ca,(  3)-1844-0141, K-12, ,2047762234.0,2047762344,0,1,1,1,1
1613,ALONSA SCHOOL,TURTLE RIVER SCHOOL DIVISION,128,BOX 6,,ALONSA,R0H 0A0,alonsaschool@trsd.ca,( 13)-1613-0128, K-12, ,2047672279.0,2047672168,0,1,1,1,1
1860,ÉCOLE LAURIER,TURTLE RIVER SCHOOL DIVISION,128,CASE POSTALE 100,,LAURIER,R0J 1A0,ecolelaurier@trsd.ca,(  5)-1860-0128, M-8, IM,2044473048.0,2044472068,0,1,1,1,0
1063,GLENELLA SCHOOL,TURTLE RIVER SCHOOL DIVISION,128,BOX 59,,GLENELLA,R0J 0V0,glenellaschool@trsd.ca,( 12)-1063-0128, K-12, ,2043524330.0,2043524253,0,1,1,1,1
1623,GRASS RIVER SCHOOL,TURTLE RIVER SCHOOL DIVISION,128,GRASS RIVER COLONY,BOX 160,GLENELLA,R0J 0V0,grassriverschool@trsd.ca,(  4)-1623-0128, K-12, ,2043524410.0,2043524410,0,1,1,1,1
1222,MCCREARY SCHOOL,TURTLE RIVER SCHOOL DIVISION,128,BOX 220,,MCCREARY,R0J 1B0,mccrearyschool@trsd.ca,( 13)-1222-0128, K-12, ,2048352660.0,2048352083,0,1,1,1,1
1900,PARKVIEW SCHOOL,TURTLE RIVER SCHOOL DIVISION,128,PARKVIEW COLONY,BOX 60,RIDING MOUNTAIN,R0J 1T0,parkviewschool@trsd.ca,(  3)-1900-0128, K-12, ,2049672572.0,2049672572,0,1,1,1,1
1335,STE. ROSE SCHOOL,TURTLE RIVER SCHOOL DIVISION,128,BOX 129,,STE ROSE DU LAC,R0L 1S0,steroseschool@trsd.ca,( 19)-1335-0128, K-12, ,2044472457.0,2044472088,0,1,1,1,1
1919,MAPLE LEAF ELEMENTARY SCHOOL,WESTERN SCHOOL DIVISION,123,225 - 12TH STREET,,MORDEN,R6M 1Z3,mloff@westernsd.mb.ca,( 33)-1919-0123, K-4, IM,2048225491.0,2048224458,0,1,1,0,0
2029,MINNEWASTA SCHOOL,WESTERN SCHOOL DIVISION,123,1 ACADEMY DRIVE,,MORDEN,R6M 1Z4,minnoff@westernsd.mb.ca,( 21)-2029-0123, K-4, ,2048223253.0,2048224580,0,1,1,0,0
1428,MORDEN COLLEGIATE,WESTERN SCHOOL DIVISION,123,345 - 5TH STREET,,MORDEN,R6M 1Z1,mcioff@westernsd.mb.ca,( 39)-1428-0123, 9-12, IM,2048226455.0,2048224425,0,0,0,1,1
1885,MORDEN MIDDLE SCHOOL,WESTERN SCHOOL DIVISION,123,150 WARDROP STREET,,MORDEN,R6M 1Z2,emmsoff@westernsd.mb.ca,( 40)-1885-0123, 5-8, IM,2048224662.0,2048226225,0,0,1,1,0
1429,F. W. GILBERT SCHOOL,WHITESHELL SCHOOL DISTRICT,113,BOX 160,,PINAWA,R0E 1L0,fwg@sdwhiteshell.mb.ca,(  8)-1429-0113, K-6, ,2047532506.0,2047532559,0,1,1,0,0
1905,PINAWA SECONDARY SCHOOL,WHITESHELL SCHOOL DISTRICT,113,BOX 580,,PINAWA,R0E 1L0,pss@sdwhiteshell.mb.ca,( 15)-1905-0113, 7-12, ,2047532693.0,2047532381,0,0,0,1,1
2230,GRAY ACADEMY OF JEWISH EDUCATION,WINNIPEG BOARD OF JEWISH ED.,165,100 - 123 DONCASTER STREET,,WINNIPEG,R3N 2B4,info@grayacademy.ca,( 47)-2230-0165, N-12, ,2044777413.0,2044777410,1,1,1,1,1
1061,ANDREW MYNARSKI V.C. SCHOOL,WINNIPEG SCHOOL DIVISION,151,1111 MACHRAY AVENUE,,WINNIPEG,R2X 1H6,andrewmynarski@wsd1.org,( 24)-1061-0151, 7-9, ,2045822702.0,2045868497,0,0,0,1,0
1060,ARGYLE ALTERNATIVE HIGH SCHOOL,WINNIPEG SCHOOL DIVISION,151,30 ARGYLE STREET,,WINNIPEG,R3B 0H4,argyle@wsd1.org,( 11)-1060-0151, 10-12, ,2049431759.0,2049424326,0,0,0,0,1
1891,BROCK-CORYDON SCHOOL,WINNIPEG SCHOOL DIVISION,151,1510 CORYDON AVENUE,,WINNIPEG,R3N 0J6,brockcorydon@wsd1.org,( 22)-1891-0151, N-6, ,2044898764.0,2044884422,1,1,1,0,0
1272,CARPATHIA SCHOOL,WINNIPEG SCHOOL DIVISION,151,300 CARPATHIA ROAD,,WINNIPEG,R3N 1T3,carpathia@wsd1.org,( 16)-1272-0151, N-6, ,2044893048.0,2044884514,1,1,1,0,0
1113,CECIL RHODES SCHOOL,WINNIPEG SCHOOL DIVISION,151,1570 ELGIN AVENUE WEST,,WINNIPEG,R3E 1C2,cecilrhodes@wsd1.org,( 38)-1113-0151, N-9, ,2047755438.0,2047839012,1,1,1,1,0
1853,CHAMPLAIN SCHOOL,WINNIPEG SCHOOL DIVISION,151,275 CHURCH AVENUE,,WINNIPEG,R2W 1B7,champlain@wsd1.org,( 17)-1853-0151, N-6, ,2045894607.0,2045865139,1,1,1,0,0
2050,CHILDREN OF THE EARTH HIGH SCHOOL,WINNIPEG SCHOOL DIVISION,151,100 SALTER STREET,,WINNIPEG,R2W 4J6,cote@wsd1.org,( 20)-2050-0151, 9-12, ,2045894822.0,2045896383,0,0,0,1,1
1715,CHURCHILL HIGH SCHOOL,WINNIPEG SCHOOL DIVISION,151,510 HAY STREET,,WINNIPEG,R3L 2L6,churchill@wsd1.org,( 40)-1715-0151, 7-12, ,2044525943.0,2044741301,0,0,0,1,1
1541,CLIFTON SCHOOL,WINNIPEG SCHOOL DIVISION,151,1070 CLIFTON STREET,,WINNIPEG,R3E 2T7,clifton@wsd1.org,( 14)-1541-0151, N-6, ,2047839078.0,2047837792,1,1,1,0,0
1127,CLINICAL SUPPORT SERVICES,WINNIPEG SCHOOL DIVISION,151,1075 WELLINGTON AVENUE,,WINNIPEG,R3E 0J7,cgc@wsd1.org,(145)-1127-0151, K-12, ,2047836068.0,2047867841,0,1,1,1,1
2076,COLLÈGE CHURCHILL,WINNIPEG SCHOOL DIVISION,151,510 RUE HAY,,WINNIPEG,R3L 2L6,collegechurchill@wsd1.org,( 15)-2076-0151, 7-12, IM,2044520290.0,2044741305,0,0,0,1,1
1701,DANIEL MCINTYRE COLLEGIATE INSTITUTE,WINNIPEG SCHOOL DIVISION,151,720 ALVERSTONE STREET,,WINNIPEG,R3E 2H1,dmci@wsd1.org,( 66)-1701-0151, 9-12, ,2047839286.0,2047837131,0,0,0,1,1
1775,DAVID LIVINGSTONE SCHOOL,WINNIPEG SCHOOL DIVISION,151,270 FLORA AVENUE,,WINNIPEG,R2W 2P9,dlg@wsd1.org,( 26)-1775-0151, N-8, ,2045820383.0,2045868346,1,1,1,1,0
1926,DIAGNOSTIC LEARNING CENTRE,WINNIPEG SCHOOL DIVISION,151,C/O ASHLAND SCHOOL,170 ASHLAND AVE,WINNIPEG,R3L 1L1,dlc@wsd1.org,(  2)-1926-0151, K-6, ,2044530739.0,2044535740,0,1,1,0,0
1767,DUFFERIN SCHOOL,WINNIPEG SCHOOL DIVISION,151,545 ALEXANDER AVENUE,,WINNIPEG,R3A 0P1,dufferin@wsd1.org,( 24)-1767-0151, N-6, ,2047746109.0,2047743409,1,1,1,0,0
1022,EARL GREY SCHOOL,WINNIPEG SCHOOL DIVISION,151,340 COCKBURN STREET NORTH,,WINNIPEG,R3M 2P5,earlgrey@wsd1.org,( 19)-1022-0151, N-8, ,2044534054.0,2044741441,1,1,1,1,0
1920,ÉCOLE LA VÉRENDRYE,WINNIPEG SCHOOL DIVISION,151,290 RUE LILAC,,WINNIPEG,R3M 2T5,lav@wsd1.org,( 17)-1920-0151, N-6, IM,2044522742.0,2044525015,1,1,1,0,0
1744,ÉCOLE LANSDOWNE,WINNIPEG SCHOOL DIVISION,151,715 RUE WIGINTON,,WINNIPEG,R2X 2G2,lansdowne@wsd1.org,( 30)-1744-0151, N-8, IM,2043343561.0,2043387039,1,1,1,1,0
1046,ÉCOLE SACRÉ-COEUR,WINNIPEG SCHOOL DIVISION,151,809 RUE FURBY,,WINNIPEG,R3A 1T2,sacrecoeur@wsd1.org,( 28)-1046-0151, N-8, IM,2047830854.0,2047752574,1,1,1,1,0
1759,ÉCOLE SEC. KELVIN HIGH SCHOOL,WINNIPEG SCHOOL DIVISION,151,155 KINGSWAY AVENUE,,WINNIPEG,R3M 0G3,kelvin@wsd1.org,( 78)-1759-0151, 9-12, IM,2044532116.0,2044741492,0,0,0,1,1
1626,ÉCOLE SIR WILLIAM OSLER,WINNIPEG SCHOOL DIVISION,151,1600 GRANT AVENUE,,WINNIPEG,R3N 0M5,swo@wsd1.org,( 10)-1626-0151, N-4, IM,0.0,2044883569,1,1,1,0,0
1867,ELMWOOD HIGH,WINNIPEG SCHOOL DIVISION,151,505 CHALMERS AVENUE,,WINNIPEG,R2L 0G4,elmwood@wsd1.org,( 54)-1867-0151, 7-12, ,2046540028.0,2046678823,0,0,0,1,1
1854,FARADAY SCHOOL,WINNIPEG SCHOOL DIVISION,151,405 PARR STREET,,WINNIPEG,R2W 5G1,faraday@wsd1.org,( 20)-1854-0151, N-6, ,2045897731.0,2045868583,1,1,1,0,0
1436,FORT ROUGE SCHOOL,WINNIPEG SCHOOL DIVISION,151,115 RIVER AVENUE,,WINNIPEG,R3L 0A8,fortrouge@wsd1.org,( 13)-1436-0151, N-6, ,2044779050.0,2044755057,1,1,1,0,0
1166,GARDEN GROVE SCHOOL,WINNIPEG SCHOOL DIVISION,151,2340 BURROWS AVENUE,,WINNIPEG,R2R 1W1,gardengrove@wsd1.org,( 29)-1166-0151, N-6, IM,2046326032.0,2046336477,1,1,1,0,0
1305,GENERAL WOLFE SCHOOL,WINNIPEG SCHOOL DIVISION,151,661 BANNING STREET,,WINNIPEG,R3G 2G3,generalwolfe@wsd1.org,( 29)-1305-0151, 7-9, ,2047752882.0,2047867427,0,0,0,1,0
1830,GEORGE V SCHOOL,WINNIPEG SCHOOL DIVISION,151,265 GREY STREET,,WINNIPEG,R2L 1V6,,( 17)-1830-0151, N-8, IM,2046542891.0,2046694482,1,1,1,1,0
1496,GLADSTONE SCHOOL,WINNIPEG SCHOOL DIVISION,151,500 GERTRUDE AVENUE,,WINNIPEG,R3L 0M8,gladstone@wsd1.org,( 14)-1496-0151, N-6, ,2044755687.0,2044754767,1,1,1,0,0
1196,GLENELM SCHOOL,WINNIPEG SCHOOL DIVISION,151,96 CARMEN AVENUE,,WINNIPEG,R2L 0E6,glenelm@wsd1.org,(  9)-1196-0151, N-6, ,2046542892.0,2046678534,1,1,1,0,0
1440,GORDON BELL HIGH SCHOOL,WINNIPEG SCHOOL DIVISION,151,3 BORROWMAN PLACE,,WINNIPEG,R3G 1M6,gboffice@wsd1.org,( 57)-1440-0151, 7-12, ,2047839469.0,2047745401,0,0,0,1,1
1218,GRANT PARK HIGH SCHOOL,WINNIPEG SCHOOL DIVISION,151,450 NATHANIEL STREET,,WINNIPEG,R3M 3E3,grantpark@wsd1.org,( 73)-1218-0151, 7-12, ,2044775633.0,2044523112,0,0,0,1,1
1431,GREENWAY SCHOOL,WINNIPEG SCHOOL DIVISION,151,390 BURNELL STREET,,WINNIPEG,R3G 2A8,greenway@wsd1.org,( 34)-1431-0151, N-6, ,2047839544.0,2047752455,1,1,1,0,0
1330,GROSVENOR SCHOOL,WINNIPEG SCHOOL DIVISION,151,1045 GROSVENOR AVENUE,,WINNIPEG,R3M 0M8,grosvenor@wsd1.org,( 11)-1330-0151, N-6, ,2044776166.0,2044755242,1,1,1,0,0
1001,HARROW SCHOOL,WINNIPEG SCHOOL DIVISION,151,550 HARROW STREET,,WINNIPEG,R3M 3A2,harrow@wsd1.org,( 13)-1001-0151, N-6, ,2044531135.0,2044533347,1,1,1,0,0
1625,HUGH JOHN MACDONALD SCHOOL,WINNIPEG SCHOOL DIVISION,151,567 BANNATYNE AVENUE,,WINNIPEG,R3A 0G8,hjm@wsd1.org,( 19)-1625-0151, 7-9, ,2047836473.0,2047865631,0,0,0,1,0
1397,INKSTER SCHOOL,WINNIPEG SCHOOL DIVISION,151,633 INKSTER BOULEVARD,,WINNIPEG,R2W 0L3,inkster@wsd1.org,( 21)-1397-0151, N-6, ,2045821736.0,2045894383,1,1,1,0,0
1211,INTERDIVISIONAL STUDENT SERVICES,WINNIPEG SCHOOL DIVISION,151,1075 WELLINGTON AVENUE,,WINNIPEG,R3E 0J7,iss@wsd1.org,( 24)-1211-0151, 1-12, ,2047723911.0,2047880203,0,0,1,1,1
1569,ISAAC BROCK SCHOOL,WINNIPEG SCHOOL DIVISION,151,1265 BARRATT AVENUE,,WINNIPEG,R3G 0L9,isaacbrock@wsd1.org,( 26)-1569-0151, N-9, ,2047831806.0,2047729527,1,1,1,1,0
1331,ISAAC NEWTON SCHOOL,WINNIPEG SCHOOL DIVISION,151,730 ABERDEEN AVENUE,,WINNIPEG,R2W 1W9,isaacnewton@wsd1.org,( 24)-1331-0151, 7-9, ,2045895153.0,2045869606,0,0,0,1,0
1120,J. B. MITCHELL SCHOOL,WINNIPEG SCHOOL DIVISION,151,1720 JOHN BREBEUF PLACE,,WINNIPEG,R3N 0M1,jbmitchell@wsd1.org,( 29)-1120-0151, N-6, IM,2044881465.0,2044884517,1,1,1,0,0
1814,JOHN M. KING SCHOOL,WINNIPEG SCHOOL DIVISION,151,525 AGNES STREET,,WINNIPEG,R3G 1N7,jmking@wsd1.org,( 30)-1814-0151, N-6, ,2047726931.0,2047754404,1,1,1,0,0
1665,KENT ROAD SCHOOL,WINNIPEG SCHOOL DIVISION,151,361 KENT ROAD,,WINNIPEG,R2L 1X9,kentroad@wsd1.org,( 19)-1665-0151, N-6, ,2046542897.0,2046691228,1,1,1,0,0
1210,KING EDWARD COMMUNITY SCHOOL,WINNIPEG SCHOOL DIVISION,151,825 SELKIRK AVENUE,,WINNIPEG,R2X 2Y6,kingedward@wsd1.org,( 22)-1210-0151, N-6, ,2045863984.0,2045868381,1,1,1,0,0
1812,LAURA SECORD SCHOOL,WINNIPEG SCHOOL DIVISION,151,960 WOLSELEY AVENUE,,WINNIPEG,R3G 1E7,,( 36)-1812-0151, N-6, IM,2047837607.0,2047864796,1,1,1,0,0
1695,LORD NELSON SCHOOL,WINNIPEG SCHOOL DIVISION,151,820 MCPHILLIPS STREET,,WINNIPEG,R2X 2J7,lordnelson@wsd1.org,( 26)-1695-0151, N-6, ,2045826558.0,2045869625,1,1,1,0,0
1392,LORD ROBERTS COMMUNITY SCHOOL,WINNIPEG SCHOOL DIVISION,151,665 BERESFORD AVENUE,,WINNIPEG,R3L 1J9,lordroberts@wsd1.org,( 24)-1392-0151, N-6, ,2044750089.0,2044536639,1,1,1,0,0
1137,LORD SELKIRK SCHOOL,WINNIPEG SCHOOL DIVISION,151,170 POPLAR AVENUE,,WINNIPEG,R2L 2B6,lordselkirk@wsd1.org,( 21)-1137-0151, N-6, ,2046670753.0,2046678495,1,1,1,0,0
1479,LUXTON SCHOOL,WINNIPEG SCHOOL DIVISION,151,111 POLSON AVENUE,,WINNIPEG,R2W 0M5,luxton@wsd1.org,( 17)-1479-0151, N-6, IM,2045862450.0,2045894368,1,1,1,0,0
1822,MACHRAY SCHOOL,WINNIPEG SCHOOL DIVISION,151,320 MOUNTAIN AVENUE,,WINNIPEG,R2W 1K1,machray@wsd1.org,( 18)-1822-0151, N-6, ,2045898222.0,2045868085,1,1,1,0,0
1966,MEADOWS WEST SCHOOL,WINNIPEG SCHOOL DIVISION,151,150 INKSTER GARDEN DRIVE,,WINNIPEG,R2R 2R8,mwwebmaster@wsd1.org,( 35)-1966-0151, N-8, ,2046335354.0,2046946755,1,1,1,1,0
1306,MONTCALM SCHOOL,WINNIPEG SCHOOL DIVISION,151,(MAN. ADOL. TREATMENT CENTRE),120 TECUMSEH STREET,WINNIPEG,R3E 2A9,montcalm@wsd1.org,(  3)-1306-0151, 7-12, ,2047838948.0,2044776391,0,0,0,1,1
1745,MONTROSE SCHOOL,WINNIPEG SCHOOL DIVISION,151,691 MONTROSE STREET,,WINNIPEG,R3M 3M4,montrose@wsd1.org,( 19)-1745-0151, N-6, ,2044889895.0,2044888112,1,1,1,0,0
1866,MULVEY SCHOOL,WINNIPEG SCHOOL DIVISION,151,750 WOLSELEY AVENUE,,WINNIPEG,R3G 1C6,mulvey@wsd1.org,( 27)-1866-0151, N-6, ,2047742894.0,2047863469,1,1,1,0,0
2079,NIJI MAHKWA SCHOOL,WINNIPEG SCHOOL DIVISION,151,450 FLORA AVENUE,,WINNIPEG,R2W 2R8,,( 31)-2079-0151, N-12, ,2045827049.0,2045896742,1,1,1,1,1
1685,NORQUAY SCHOOL,WINNIPEG SCHOOL DIVISION,151,132 LUSTED AVENUE,,WINNIPEG,R2W 2P2,norquay@wsd1.org,( 18)-1685-0151, N-6, ,2049434715.0,2049439541,1,1,1,0,0
1025,PINKHAM SCHOOL,WINNIPEG SCHOOL DIVISION,151,765 PACIFIC AVENUE,,WINNIPEG,R3E 1G1,pinkham@wsd1.org,( 14)-1025-0151, N-6, ,2047830597.0,2047865749,1,1,1,0,0
2077,PRAIRIE ROSE ELEMENTARY SCHOOL,WINNIPEG SCHOOL DIVISION,151,105 LUCAS AVENUE,,WINNIPEG,R2R 2S8,prairierose@wsd1.org,( 19)-2077-0151, N-6, ,2046334902.0,2046334092,1,1,1,0,0
2039,PRINCE CHARLES EDU. RESOURCE CENTRE,WINNIPEG SCHOOL DIVISION,151,1075 WELLINGTON AVENUE,,WINNIPEG,R3E 0J7,princecharles@wsd1.org,( 31)-2039-0151, K-12, ,2047723911.0,2047880203,0,1,1,1,1
1293,PRINCIPAL SPARLING SCHOOL,WINNIPEG SCHOOL DIVISION,151,1150 SHERBURN STREET,,WINNIPEG,R3E 2N4,prsparling@wsd1.org,( 18)-1293-0151, N-6, ,2047866373.0,2047836195,1,1,1,0,0
1675,QUEENSTON SCHOOL,WINNIPEG SCHOOL DIVISION,151,245 QUEENSTON STREET,,WINNIPEG,R3N 0W6,queenston@wsd1.org,( 10)-1675-0151, N-6, ,2044886839.0,2044893423,1,1,1,0,0
1547,R.B. RUSSELL VOCATIONAL SCHOOL,WINNIPEG SCHOOL DIVISION,151,364 DUFFERIN AVENUE,,WINNIPEG,R2W 2Y3,rbrussell@wsd1.org,( 44)-1547-0151, 9-12, ,2045861817.0,2045895301,0,0,0,1,1
1363,RALPH BROWN SCHOOL,WINNIPEG SCHOOL DIVISION,151,460 ANDREWS STREET,,WINNIPEG,R2W 4Y1,ralphbrown@wsd1.org,( 14)-1363-0151, N-8, ,2045890100.0,2045897355,1,1,1,1,0
1459,RIVER ELM SCHOOL,WINNIPEG SCHOOL DIVISION,151,500 RIVERTON AVENUE,,WINNIPEG,R2L 0N9,riverelm@wsd1.org,( 19)-1459-0151, N-6, ,2046542899.0,2046679006,1,1,1,0,0
1297,RIVER HEIGHTS SCHOOL,WINNIPEG SCHOOL DIVISION,151,1350 GROSVENOR AVENUE,,WINNIPEG,R3M 0P2,river_heights@wsd1.org,( 33)-1297-0151, 7-8, IM,2044886421.0,2044887090,0,0,0,1,0
1846,RIVERVIEW SCHOOL,WINNIPEG SCHOOL DIVISION,151,253 MAPLEWOOD AVENUE,,WINNIPEG,R3L 2L4,riverview@wsd1.org,( 25)-1846-0151, N-6, IM,2042848326.0,2042845983,1,1,1,0,0
1921,ROBERT H. SMITH SCHOOL,WINNIPEG SCHOOL DIVISION,151,315 OAK STREET,,WINNIPEG,R3M 3P8,rhsmith@wsd1.org,( 26)-1921-0151, N-6, IM,2044871463.0,2044881137,1,1,1,0,0
1720,ROBERTSON SCHOOL,WINNIPEG SCHOOL DIVISION,151,550 ROBERTSON STREET,,WINNIPEG,R2X 2C4,robertson@wsd1.org,( 28)-1720-0151, N-6, ,2045897293.0,2045894745,1,1,1,0,0
1419,ROCKWOOD SCHOOL,WINNIPEG SCHOOL DIVISION,151,350 ROCKWOOD STREET,,WINNIPEG,R3M 3C5,rockwood@wsd1.org,( 14)-1419-0151, N-6, ,2044531970.0,2044524210,1,1,1,0,0
1537,SARGENT PARK SCHOOL,WINNIPEG SCHOOL DIVISION,151,1070 DOMINION STREET,,WINNIPEG,R3E 2P4,sargentpark@wsd1.org,( 52)-1537-0151, N-9, ,2047865859.0,2047758985,1,1,1,1,0
1134,SHAUGHNESSY PARK SCHOOL,WINNIPEG SCHOOL DIVISION,151,1641 MANITOBA AVENUE,,WINNIPEG,R2X 0M3,shaughnessypk@wsd1.org,( 31)-1134-0151, N-8, ,2045866094.0,2045868376,1,1,1,1,0
1646,SISLER HIGH SCHOOL,WINNIPEG SCHOOL DIVISION,151,1360 REDWOOD AVENUE,,WINNIPEG,R2X 0Z1,sislerweb@wsd1.org,(107)-1646-0151, 9-12, IM,2045860625.0,2045898321,0,0,0,1,1
2018,SISTER MACNAMARA SCHOOL,WINNIPEG SCHOOL DIVISION,151,460 SARGENT AVENUE,,WINNIPEG,R3B 1V5,sistermac@wsd1.org,( 31)-2018-0151, N-6, ,2049892224.0,2049426965,1,1,1,0,0
1606,ST. JOHN'S HIGH SCHOOL,WINNIPEG SCHOOL DIVISION,151,401 CHURCH AVENUE,,WINNIPEG,R2W 1C4,stjohns@wsd1.org,( 67)-1606-0151, 7-12, ,2045825891.0,2045894374,0,0,0,1,1
1985,STANLEY KNOWLES SCHOOL,WINNIPEG SCHOOL DIVISION,151,2424 KING EDWARD STREET,,WINNIPEG,R2R 2R2,stanleyknowles@wsd1.org,( 60)-1985-0151, N-8, IM,2046947509.0,2046940483,1,1,1,1,0
1490,STRATHCONA SCHOOL,WINNIPEG SCHOOL DIVISION,151,233 MCKENZIE STREET,,WINNIPEG,R2W 4Z2,strathcona@wsd1.org,( 21)-1490-0151, N-6, ,2045861161.0,2045868493,1,1,1,0,0
1796,TECH-VOCATIONAL HIGH SCHOOL,WINNIPEG SCHOOL DIVISION,151,1555 WALL STREET,,WINNIPEG,R3E 2S2,tecvoc@wsd1.org,( 80)-1796-0151, 9-12, ,2047748375.0,2047861401,0,0,0,1,1
1654,TYNDALL PARK COMMUNITY SCHOOL,WINNIPEG SCHOOL DIVISION,151,2221 KING EDWARD STREET,,WINNIPEG,R2R 1M5,tyndall@wsd1.org,( 30)-1654-0151, N-6, ,2046325953.0,2046330065,1,1,1,0,0
1480,VICTORIA-ALBERT SCHOOL,WINNIPEG SCHOOL DIVISION,151,110 ELLEN STREET,,WINNIPEG,R3A 1A1,vicalbert@wsd1.org,( 26)-1480-0151, N-6, IM,2049577207.0,2049433459,1,1,1,0,0
1251,WELLINGTON SCHOOL,WINNIPEG SCHOOL DIVISION,151,690 BEVERLEY STREET,,WINNIPEG,R3E 2A5,wellington@wsd1.org,( 28)-1251-0151, N-6, ,2047722799.0,2047748085,1,1,1,0,0
1280,WESTON SCHOOL,WINNIPEG SCHOOL DIVISION,151,1410 LOGAN AVENUE,,WINNIPEG,R3E 1R9,weston@wsd1.org,( 17)-1280-0151, N-6, ,2047756212.0,2047752591,1,1,1,0,0
1357,WILLIAM WHYTE SCHOOL,WINNIPEG SCHOOL DIVISION,151,200 POWERS STREET,,WINNIPEG,R2W 4P3,wmwhyte@wsd1.org,( 20)-1357-0151, N-8, ,2045860144.0,2045894313,1,1,1,1,0
1497,WINNIPEG ADULT EDUCATION CENTRE,WINNIPEG SCHOOL DIVISION,151,310 VAUGHAN STREET,,WINNIPEG,R3B 2N8,waec@wsd1.org,( 44)-1497-0151, 10-12, ,2049565049.0,2049471674,0,0,0,0,1
1418,WOLSELEY SCHOOL,WINNIPEG SCHOOL DIVISION,151,511 CLIFTON STREET,,WINNIPEG,R3G 2X3,wolseley@wsd1.org,( 13)-1418-0151, N-6, ,2047756241.0,2047833237,1,1,1,0,0
