idx,facility_name,source_id,authority_type,grade_range,address_str,street_addr,postal_code,city,provider,address_str_clean,street_no,street_name
0,Baddeck Academy,96,public,PP - 12,320 Shore Rd Baddeck NS B0E 1B0 NS,320 Shore Rd,B0E 1B0,Baddeck NS,Province of Nova Scotia,320 shore rd baddeck ns b0e 1b0 ns,320,shore rd
1,Boularderie Elementary School,93,public,PP - 5,12065 Kempt Rd Boularderie NS B1X 1J9 NS,12065 Kempt Rd,B1X 1J9,Boularderie NS,Province of Nova Scotia,12065 kempt rd boularderie ns b1x 1j9 ns,12065,kempt rd
2,Bras d'Or Elementary School,101,public,PP - 5,10 Alder Pt. Rd Bras d`Or NS B1Y 2K1 NS,10 Alder Pt. Rd,B1Y 2K1,Bras d`Or NS,Province of Nova Scotia,10 alder pt rd bras d`or ns b1y 2k1 ns,10,alder pt rd bras
3,Breton Education Centre,640,public,06 - 12,667 8th St New Waterford NS B1H 3T4 NS,667 8th St,B1H 3T4,New Waterford NS,Province of Nova Scotia,667 8th st new waterford ns b1h 3t4 ns,667,8th st
4,Brookland Elementary School,995,public,PP - 5,153 Cottage Rd Sydney NS B1P 2E5 NS,153 Cottage Rd,B1P 2E5,Sydney NS,Province of Nova Scotia,153 cottage rd sydney ns b1p 2e5 ns,153,cottage rd
5,Cabot Education Centre,107,public,06 - 12,32039 Cabot Trail Neil's Harbour NS B0C 1N0 NS,32039 Cabot Trail,B0C 1N0,Neil's Harbour NS,Province of Nova Scotia,32039 cabot trail neil's harbour ns b0c 1n0 ns,32039,cabot trail
6,Cape Smokey Elementary School,962,public,PR - 5,39 Brandon Lane Ingonish NS B0C 1K0 NS,39 Brandon Lane,B0C 1K0,Ingonish NS,Province of Nova Scotia,39 brandon lane ingonish ns b0c 1k0 ns,39,brandon lane
7,CBVRCE Adult High School,1169,public,10 - 12,290 Whitney Ave Sydney NS B1P 5A6 NS,290 Whitney Ave,B1P 5A6,Sydney NS,Province of Nova Scotia,290 whitney ave sydney ns b1p 5a6 ns,290,whitney ave
8,Coxheath Elementary School,186,public,PP - 5,30 Mt. Florence St Coxheath NS B1R 1T8 NS,30 Mt. Florence St,B1R 1T8,Coxheath NS,Province of Nova Scotia,30 mt florence st coxheath ns b1r 1t8 ns,30,mt florence st
9,Cusack School,1101,public,PP - 5,500 Birch Hill Dr Sydney NS B1P 3V9 NS,500 Birch Hill Dr,B1P 3V9,Sydney NS,Province of Nova Scotia,500 birch hill dr sydney ns b1p 3v9 ns,500,birch hill dr
10,Donkin School,996,public,PP - 8,81 Centre Ave Donkin NS B0A 1G0 NS,81 Centre Ave,B0A 1G0,Donkin NS,Province of Nova Scotia,81 centre ave donkin ns b0a 1g0 ns,81,centre ave
11,Dr. T.L. Sullivan School,98,public,PP - 8,256 Park Rd Florence NS B1Y 1N2 NS,256 Park Rd,B1Y 1N2,Florence NS,Province of Nova Scotia,256 park rd florence ns b1y 1n2 ns,256,park rd
12,Ferrisview Elementary School,1153,public,PP - 5,83 Archibald Ave North Sydney NS B2A 2W9 NS,83 Archibald Ave,B2A 2W9,North Sydney NS,Province of Nova Scotia,83 archibald ave north sydney ns b2a 2w9 ns,83,archibald ave
13,Glace Bay Elementary School,416,public,PP - 5,135 Brookside St Glace Bay NS B1A 1K8 NS,135 Brookside St,B1A 1K8,Glace Bay NS,Province of Nova Scotia,135 brookside st glace bay ns b1a 1k8 ns,135,brookside st
14,Glace Bay High School,8,public,09 - 12,201 Reserve St Glace Bay NS B1A 4W3 NS,201 Reserve St,B1A 4W3,Glace Bay NS,Province of Nova Scotia,201 reserve st glace bay ns b1a 4w3 ns,201,reserve st
15,Greenfield Elementary School,963,public,PP - 5,25 James St River Ryan NS B1H 1B8 NS,25 James St,B1H 1B8,River Ryan NS,Province of Nova Scotia,25 james st river ryan ns b1h 1b8 ns,25,james st
16,Harbourside Elementary School,964,public,PP - 5,15 Church St Sydney NS B1N 2R3 NS,15 Church St,B1N 2R3,Sydney NS,Province of Nova Scotia,15 church st sydney ns b1n 2r3 ns,15,church st
17,John Bernard Croak V.C. Memorial School,549,public,PP - 5,10 Second St Glace Bay NS B1A 5Z4 NS,10 Second St,B1A 5Z4,Glace Bay NS,Province of Nova Scotia,10 second st glace bay ns b1a 5z4 ns,10,second st
18,Jubilee Elementary School,960,public,PP - 5,755 Main St Sydney Mines NS B1V 2L4 NS,755 Main St,B1V 2L4,Sydney Mines NS,Province of Nova Scotia,755 main st sydney mines ns b1v 2l4 ns,755,main st
19,Malcolm Munroe Middle School,202,public,06 - 8,125 Kenwood Dr Sydney NS B1S 1T8 NS,125 Kenwood Dr,B1S 1T8,Sydney NS,Province of Nova Scotia,125 kenwood dr sydney ns b1s 1t8 ns,125,kenwood dr
20,Marion Bridge School,183,public,PR - 5,3845 Gabarus Hwy Marion Bridge NS B1K 1A6 NS,3845 Gabarus Hwy,B1K 1A6,Marion Bridge NS,Province of Nova Scotia,3845 gabarus hwy marion bridge ns b1k 1a6 ns,3845,gabarus hwy
21,Memorial Composite High School,82,public,09 - 12,300 Memorial Dr Sydney Mines NS B1V 2Y5 NS,300 Memorial Dr,B1V 2Y5,Sydney Mines NS,Province of Nova Scotia,300 memorial dr sydney mines ns b1v 2y5 ns,300,memorial dr
22,Middle River Consolidated,83,public,PR - 5,2248 Cabot Trail Middle River NS B0E 1B0 NS,2248 Cabot Trail,B0E 1B0,Middle River NS,Province of Nova Scotia,2248 cabot trail middle river ns b0e 1b0 ns,2248,cabot trail
23,Mountainview Elementary School,997,public,PP - 5,21 Delta Dr Howie Centre NS B1L 1G9 NS,21 Delta Dr,B1L 1G9,Howie Centre NS,Province of Nova Scotia,21 delta dr howie centre ns b1l 1g9 ns,21,delta dr
24,North Highlands Elementary School,961,public,PP - 5,1363 Bay St. Lawrence Rd Aspy Bay NS B0C 1G0 NS,1363 Bay St. Lawrence Rd,B0C 1G0,Aspy Bay NS,Province of Nova Scotia,1363 bay st lawrence rd aspy bay ns b0c 1g0 ns,1363,bay st lawrence rd
25,Oceanview Education Centre,1154,public,06 - 8,60 Wallaces Rd Glace Bay NS B1A 4N5 NS,60 Wallaces Rd,B1A 4N5,Glace Bay NS,Province of Nova Scotia,60 wallaces rd glace bay ns b1a 4n5 ns,60,wallaces rd
26,Rankin School of the Narrows,1142,public,PP - 12,4144 Hwy 223 Iona NS B2C 1A4 NS,4144 Hwy 223,B2C 1A4,Iona NS,Province of Nova Scotia,4144 hwy 223 iona ns b2c 1a4 ns,4144,hwy 223
27,Riverside School,973,public,PP - 8,7430 Hornes Rd Albert Bridge NS B0A 1P0 NS,7430 Hornes Rd,B0A 1P0,Albert Bridge NS,Province of Nova Scotia,7430 hornes rd albert bridge ns b0a 1p0 ns,7430,hornes rd
28,Riverview High School,203,public,09 - 12,57 Coxheath Rd Sydney NS B1R 1R4 NS,57 Coxheath Rd,B1R 1R4,Sydney NS,Province of Nova Scotia,57 coxheath rd sydney ns b1r 1r4 ns,57,coxheath rd
29,Robin Foote Elementary School,182,public,PP - 5,125 Sunnydale Dr Westmount NS B1R 1J4 NS,125 Sunnydale Dr,B1R 1J4,Westmount NS,Province of Nova Scotia,125 sunnydale dr westmount ns b1r 1j4 ns,125,sunnydale dr
30,Seton Elementary School,113,public,PR - 5,25 Wilkie Ave North Sydney NS B2A 1Y5 NS,25 Wilkie Ave,B2A 1Y5,North Sydney NS,Province of Nova Scotia,25 wilkie ave north sydney ns b2a 1y5 ns,25,wilkie ave
31,Sherwood Park Education Centre,646,public,06 - 8,500 Terrace St Sydney NS B1P 6N1 NS,500 Terrace St,B1P 6N1,Sydney NS,Province of Nova Scotia,500 terrace st sydney ns b1p 6n1 ns,500,terrace st
32,Shipyard Elementary School,972,public,PP - 5,30 Mt. Kemmel St Sydney NS B1S 3V6 NS,30 Mt. Kemmel St,B1S 3V6,Sydney NS,Province of Nova Scotia,30 mt kemmel st sydney ns b1s 3v6 ns,30,mt kemmel st
33,St. Anne's Elementary School,561,public,PP - 5,30 Official Row Glace Bay NS B1A 2W9 NS,30 Official Row,B1A 2W9,Glace Bay NS,Province of Nova Scotia,30 official row glace bay ns b1a 2w9 ns,30,official row
34,Sydney Academy,688,public,09 - 12,49 Terrace St Sydney NS B1P 2L4 NS,49 Terrace St,B1P 2L4,Sydney NS,Province of Nova Scotia,49 terrace st sydney ns b1p 2l4 ns,49,terrace st
35,Sydney Mines Middle School,117,public,06 - 8,596 Main St Sydney Mines NS B1V 2K8 NS,596 Main St,B1V 2K8,Sydney Mines NS,Province of Nova Scotia,596 main st sydney mines ns b1v 2k8 ns,596,main st
36,Sydney River Elementary School,185,public,PP - 5,35 Phillips St Sydney River NS B1S 1M8 NS,35 Phillips St,B1S 1M8,Sydney River NS,Province of Nova Scotia,35 phillips st sydney river ns b1s 1m8 ns,35,phillips st
37,Tompkins Memorial Elementary School,175,public,PP - 5,60 Main St Reserve Mines NS B1E 1E5 NS,60 Main St,B1E 1E5,Reserve Mines NS,Province of Nova Scotia,60 main st reserve mines ns b1e 1e5 ns,60,main st
38,Whitney Pier Memorial Middle School,667,public,06 - 8,199 Jamieson St Whitney Pier NS B1N 2P7 NS,199 Jamieson St,B1N 2P7,Whitney Pier NS,Province of Nova Scotia,199 jamieson st whitney pier ns b1n 2p7 ns,199,jamieson st
39,Antigonish Education Centre,934,public,PP - 4,30 Appleseed Dr Antigonish NS B2G 3B6 NS,30 Appleseed Dr,B2G 3B6,Antigonish NS,Province of Nova Scotia,30 appleseed dr antigonish ns b2g 3b6 ns,30,appleseed dr
40,Bayview Education Centre,932,public,PP - 8,133 Company Rd Port Hood NS B0E 2W0 NS,133 Company Rd,B0E 2W0,Port Hood NS,Province of Nova Scotia,133 company rd port hood ns b0e 2w0 ns,133,company rd
41,Cape Breton Highlands Education Centre/Academy,974,public,PP - 12,11070 Cabot Trail Margaree Harbour NS B0E 2B0 NS,11070 Cabot Trail,B0E 2B0,Margaree Harbour NS,Province of Nova Scotia,11070 cabot trail margaree harbour ns b0e 2b0 ns,11070,cabot trail
42,Chedabucto Ed Centre/Guysborough Academy,986,public,PP - 12,27 Green St Guysborough NS B0H 1N0 NS,27 Green St,B0H 1N0,Guysborough NS,Province of Nova Scotia,27 green st guysborough ns b0h 1n0 ns,27,green st
43,Dalbrae Academy,930,public,08 - 12,11156 Hwy 19 SW Mabou Mabou NS B0E 1X0 NS,11156 Hwy 19 SW Mabou,B0E 1X0,Mabou NS,Province of Nova Scotia,11156 hwy 19 sw mabou mabou ns b0e 1x0 ns,11156,hwy 19
44,Dr. John Hugh Gillis Regional High,707,public,09 - 12,105 Braemore Ave Antigonish NS B2G 1L3 NS,105 Braemore Ave,B2G 1L3,Antigonish NS,Province of Nova Scotia,105 braemore ave antigonish ns b2g 1l3 ns,105,braemore ave
45,East Antigonish Education Centre/Academy,975,public,PP - 12,10128 Rte 4 Monastery NS B0H 1W0 NS,10128 Rte 4,B0H 1W0,Monastery NS,Province of Nova Scotia,10128 rte 4 monastery ns b0h 1w0 ns,10128,rte 4
46,East Richmond Education Centre,484,public,PP - 8,9359 Pepperell St St. Peter`s NS B0E 3B0 NS,9359 Pepperell St,B0E 3B0,St. Peter`s NS,Province of Nova Scotia,9359 pepperell st st peter`s ns b0e 3b0 ns,9359,pepperell st st
47,Fanning Education Centre/Canso Academy,266,public,PP - 12,129 Tickle Rd Guysborough NS B0H 1H0 NS,129 Tickle Rd,B0H 1H0,Guysborough NS,Province of Nova Scotia,129 tickle rd guysborough ns b0h 1h0 ns,129,tickle rd
48,Felix Marchand Education Centre,471,public,PP - 4,380 Main St Louisdale NS B0E 1V0 NS,380 Main St,B0E 1V0,Louisdale NS,Province of Nova Scotia,380 main st louisdale ns b0e 1v0 ns,380,main st
49,H.M. MacDonald Elementary School,143,public,PP - 6,2811 Hwy 245 Maryvale NS B2G 2J1 NS,2811 Hwy 245,B2G 2J1,Maryvale NS,Province of Nova Scotia,2811 hwy 245 maryvale ns b2g 2j1 ns,2811,hwy 245
50,Inverness Education Centre/Academy,1106,public,PP - 12,59 Veterans Memorial Crt Inverness NS B0E 1N0 NS,59 Veterans Memorial Crt,B0E 1N0,Inverness NS,Province of Nova Scotia,59 veterans memorial crt inverness ns b0e 1n0 ns,59,veterans memorial crt
51,Pleasant Bay School,390,public,PR - 6,456 Pleasant Bay Rd Pleasant Bay NS B0E 2P0 NS,456 Pleasant Bay Rd,B0E 2P0,Pleasant Bay NS,Province of Nova Scotia,456 pleasant bay rd pleasant bay ns b0e 2p0 ns,456,pleasant bay rd
52,Richmond Education Centre/Academy,931,public,05 - 12,3238 Whiteside Rd Louisdale NS B0E 1V0 NS,3238 Whiteside Rd,B0E 1V0,Louisdale NS,Province of Nova Scotia,3238 whiteside rd louisdale ns b0e 1v0 ns,3238,whiteside rd
53,St. Andrew Junior School,152,public,05 - 8,2 Appleseed Dr Antigonish NS B2G 3B6 NS,2 Appleseed Dr,B2G 3B6,Antigonish NS,Province of Nova Scotia,2 appleseed dr antigonish ns b2g 3b6 ns,2,appleseed dr
54,St. Andrews Consolidated School,149,public,PP - 6,3892 Hwy 316 St. Andrews NS B0H 1X0 NS,3892 Hwy 316,B0H 1X0,St. Andrews NS,Province of Nova Scotia,3892 hwy 316 st andrews ns b0h 1x0 ns,3892,hwy 316
55,St. Mary's Education Centre/Academy,1160,public,PP - 12,121 Old Rd Hill Sherbrooke NS B0J 3C0 NS,121 Old Rd Hill,B0J 3C0,Sherbrooke NS,Province of Nova Scotia,121 old rd hill sherbrooke ns b0j 3c0 ns,121,old rd hill
56,Strait Area Education and Recreation Centre,655,public,09 - 12,304 Pitt St Unit 1 Port Hawkesbury NS B9A 2T9 NS,304 Pitt St Unit 1,B9A 2T9,Port Hawkesbury NS,Province of Nova Scotia,304 pitt st unit 1 port hawkesbury ns b9a 2t9 ns,304,pitt st
57,Tamarac Education Centre,936,public,PP - 8,57 Tamarac Dr Port Hawkesbury NS B9A 3G2 NS,57 Tamarac Dr,B9A 3G2,Port Hawkesbury NS,Province of Nova Scotia,57 tamarac dr port hawkesbury ns b9a 3g2 ns,57,tamarac dr
58,Whycocomagh Education Centre,388,public,PP - 8,50 Norman McLeod Rd Whycocomagh NS B0E 3M0 NS,50 Norman McLeod Rd,B0E 3M0,Whycocomagh NS,Province of Nova Scotia,50 norman mcleod rd whycocomagh ns b0e 3m0 ns,50,norman mcleod rd
59,A. G. Baillie Memorial School,639,public,PP - 6,477 Victoria Ave Ext New Glasgow NS B2H 1X1 NS,477 Victoria Ave Ext,B2H 1X1,New Glasgow NS,Province of Nova Scotia,477 victoria ave ext new glasgow ns b2h 1x1 ns,477,victoria ave ext
60,Advocate District School,248,public,PR - 12,3521 Hwy 209 Advocate Harbour NS B0M 1A0 NS,3521 Hwy 209,B0M 1A0,Advocate Harbour NS,Province of Nova Scotia,3521 hwy 209 advocate harbour ns b0m 1a0 ns,3521,hwy 209
61,Amherst Regional High School,705,public,09 - 12,190 Willow St Amherst NS B4H 3W5 NS,190 Willow St,B4H 3W5,Amherst NS,Province of Nova Scotia,190 willow st amherst ns b4h 3w5 ns,190,willow st
62,Bible Hill Consolidated School,1194,public,PP - 4,103 Pictou Rd Truro NS B2N 2S2 NS,103 Pictou Rd,B2N 2S2,Truro NS,Province of Nova Scotia,103 pictou rd truro ns b2n 2s2 ns,103,pictou rd
63,Bible Hill Junior High School,7,public,08 - 9,741 College Rd Truro NS B2N 5Y9 NS,741 College Rd,B2N 5Y9,Truro NS,Province of Nova Scotia,741 college rd truro ns b2n 5y9 ns,741,college rd
64,Brookfield Elementary School,16,public,PP - 6,233 Hwy 289 Brookfield NS B0N 1C0 NS,233 Hwy 289,B0N 1C0,Brookfield NS,Province of Nova Scotia,233 hwy 289 brookfield ns b0n 1c0 ns,233,hwy 289
65,CCRCE Alternate High School,1198,public,08 - 12,37 Dickie St Trenton NS B0K 1X0 NS,37 Dickie St,B0K 1X0,Trenton NS,Province of Nova Scotia,37 dickie st trenton ns b0k 1x0 ns,37,dickie st
66,Central Colchester Junior High School,20,public,06 - 9,61 Onslow Rd Central Onslow NS B6L 5K4 NS,61 Onslow Rd,B6L 5K4,Central Onslow NS,Province of Nova Scotia,61 onslow rd central onslow ns b6l 5k4 ns,61,onslow rd
67,Chiganois Elementary School,27,public,PP - 5,11145 Hwy 2 Masstown NS B0M 1G0 NS,11145 Hwy 2,B0M 1G0,Masstown NS,Province of Nova Scotia,11145 hwy 2 masstown ns b0m 1g0 ns,11145,hwy 2
68,Cobequid Consolidated Elementary School,14,public,PP - 5,2998 Hwy 236 Old Barns NS B6L 1K3 NS,2998 Hwy 236,B6L 1K3,Old Barns NS,Province of Nova Scotia,2998 hwy 236 old barns ns b6l 1k3 ns,2998,hwy 236
69,Cobequid District Elementary School,36,public,PP - 6,8993 Hwy 354 Noel NS B0N 2C0 NS,8993 Hwy 354,B0N 2C0,Noel NS,Province of Nova Scotia,8993 hwy 354 noel ns b0n 2c0 ns,8993,hwy 354
70,Cobequid Educational Centre,44,public,10 - 12,34 Lorne St Truro NS B2N 3K3 NS,34 Lorne St,B2N 3K3,Truro NS,Province of Nova Scotia,34 lorne st truro ns b2n 3k3 ns,34,lorne st
71,Cumberland North Academy,1104,public,PP - 6,879 Hwy 204 Brookdale NS B4H 3Y1 NS,879 Hwy 204,B4H 3Y1,Brookdale NS,Province of Nova Scotia,879 hwy 204 brookdale ns b4h 3y1 ns,879,hwy 204
72,Cyrus Eaton Elementary School,230,public,PP - 6,171 Queen St Pugwash NS B0K 1L0 NS,171 Queen St,B0K 1L0,Pugwash NS,Province of Nova Scotia,171 queen st pugwash ns b0k 1l0 ns,171,queen st
73,Debert Elementary School,28,public,PP - 6,1320 Masstown Rd Debert NS B0M 1G0 NS,1320 Masstown Rd,B0M 1G0,Debert NS,Province of Nova Scotia,1320 masstown rd debert ns b0m 1g0 ns,1320,masstown rd
74,Dr. W.A. MacLeod Consolidated School,408,public,PR - 8,6193 Trafalgar Rd Riverton NS B0K 1S0 NS,6193 Trafalgar Rd,B0K 1S0,Riverton NS,Province of Nova Scotia,6193 trafalgar rd riverton ns b0k 1s0 ns,6193,trafalgar rd
75,E. B. Chandler Junior High School,750,public,07 - 8,28 Dickey St Amherst NS B4H 4B9 NS,28 Dickey St,B4H 4B9,Amherst NS,Province of Nova Scotia,28 dickey st amherst ns b4h 4b9 ns,28,dickey st
76,East Pictou Middle School,432,public,07 - 8,163 School Rd Thorburn NS B0K 1W0 NS,163 School Rd,B0K 1W0,Thorburn NS,Province of Nova Scotia,163 school rd thorburn ns b0k 1w0 ns,163,school rd
77,Elmsdale District Elementary School,31,public,PR - 5,75 MacMillan Dr Elmsdale NS B2S 1A5 NS,75 MacMillan Dr,B2S 1A5,Elmsdale NS,Province of Nova Scotia,75 macmillan dr elmsdale ns b2s 1a5 ns,75,macmillan dr
78,Enfield District School,30,public,PR - 5,29 Catherine St Enfield NS B2T 1L4 NS,29 Catherine St,B2T 1L4,Enfield NS,Province of Nova Scotia,29 catherine st enfield ns b2t 1l4 ns,29,catherine st
79,F.H. MacDonald Elementary School,414,public,PP - 6,123 School Rd Thorburn NS B0K 1W0 NS,123 School Rd,B0K 1W0,Thorburn NS,Province of Nova Scotia,123 school rd thorburn ns b0k 1w0 ns,123,school rd
80,G.R. Saunders Elementary School,665,public,PR - 6,71 Bridge Avenue Stellarton NS B0K 1S0 NS,71 Bridge Avenue,B0K 1S0,Stellarton NS,Province of Nova Scotia,71 bridge avenue stellarton ns b0k 1s0 ns,71,bridge avenue
81,Great Village Elementary School,26,public,PP - 4,8849 Hwy 2 Great Village NS B0M 1L0 NS,8849 Hwy 2,B0M 1L0,Great Village NS,Province of Nova Scotia,8849 hwy 2 great village ns b0m 1l0 ns,8849,hwy 2
82,Hants East Rural High School,42,public,09 - 12,2331 Hwy 2 Milford NS B0N 1Y0 NS,2331 Hwy 2,B0N 1Y0,Milford NS,Province of Nova Scotia,2331 hwy 2 milford ns b0n 1y0 ns,2331,hwy 2
83,Hants North Rural High School,41,public,07 - 12,4369 Hwy 236 Kennetcook NS B0N 1P0 NS,4369 Hwy 236,B0N 1P0,Kennetcook NS,Province of Nova Scotia,4369 hwy 236 kennetcook ns b0n 1p0 ns,4369,hwy 236
84,Harmony Heights Elementary School,1145,public,PR - 5,25 Cedar Dr Truro NS B2N 5W3 NS,25 Cedar Dr,B2N 5W3,Truro NS,Province of Nova Scotia,25 cedar dr truro ns b2n 5w3 ns,25,cedar dr
85,Hilden Elementary School,15,public,PP - 6,1737 Truro Rd Hilden NS B0N 1C0 NS,1737 Truro Rd,B0N 1C0,Hilden NS,Province of Nova Scotia,1737 truro rd hilden ns b0n 1c0 ns,1737,truro rd
86,Junction Road Elementary School,661,public,PP - 6,19 Junction Rd Springhill NS B0M 1X0 NS,19 Junction Rd,B0M 1X0,Springhill NS,Province of Nova Scotia,19 junction rd springhill ns b0m 1x0 ns,19,junction rd
87,Kennetcook District Elementary School,38,public,PP - 6,4369 Hwy 236 Kennetcook NS B0N 1P0 NS,4369 Hwy 236,B0N 1P0,Kennetcook NS,Province of Nova Scotia,4369 hwy 236 kennetcook ns b0n 1p0 ns,4369,hwy 236
88,Maple Ridge Elementary School,949,public,PR - 5,1066 Hwy 2 Lantz NS B2S 1M8 NS,1066 Hwy 2,B2S 1M8,Lantz NS,Province of Nova Scotia,1066 hwy 2 lantz ns b2s 1m8 ns,1066,hwy 2
89,McCulloch Education Centre,971,public,PR - 8,350 Wellington St Pictou NS B0K 1H0 NS,350 Wellington St,B0K 1H0,Pictou NS,Province of Nova Scotia,350 wellington st pictou ns b0k 1h0 ns,350,wellington st
90,New Glasgow Academy,1189,public,PP - 8,93 Albert St New Glasgow NS B2H 5W8 NS,93 Albert St,B2H 5W8,New Glasgow NS,Province of Nova Scotia,93 albert st new glasgow ns b2h 5w8 ns,93,albert st
91,North Nova Education Centre,988,public,09 - 12,343 Park St New Glasgow NS B2H 6B2 NS,343 Park St,B2H 6B2,New Glasgow NS,Province of Nova Scotia,343 park st new glasgow ns b2h 6b2 ns,343,park st
92,North River Elementary School,9,public,PP - 6,80 Mountain Lee Rd North River NS B6L 6M2 NS,80 Mountain Lee Rd,B6L 6M2,North River NS,Province of Nova Scotia,80 mountain lee rd north river ns b6l 6m2 ns,80,mountain lee rd
93,Northport Consolidated Elementary School,231,public,PR - 6,7110 Hwy 366 Northport NS B0L 1E0 NS,7110 Hwy 366,B0L 1E0,Northport NS,Province of Nova Scotia,7110 hwy 366 northport ns b0l 1e0 ns,7110,hwy 366
94,Northumberland Regional High School,989,public,09 - 12,104 Alma Rd Alma NS B0K 2A0 NS,104 Alma Rd,B0K 2A0,Alma NS,Province of Nova Scotia,104 alma rd alma ns b0k 2a0 ns,104,alma rd
95,Oxford Regional Education Centre,1151,public,PP - 12,249 Lower Main St Oxford NS B0M 1P0 NS,249 Lower Main St,B0M 1P0,Oxford NS,Province of Nova Scotia,249 lower main st oxford ns b0m 1p0 ns,249,lower main st
96,Parrsboro Regional Elementary School,649,public,PP - 6,43 School St Parrsboro NS B0M 1S0 NS,43 School St,B0M 1S0,Parrsboro NS,Province of Nova Scotia,43 school st parrsboro ns b0m 1s0 ns,43,school st
97,Parrsboro Regional High School,715,public,07 - 12,109 King St Parrsboro NS B0M 1S0 NS,109 King St,B0M 1S0,Parrsboro NS,Province of Nova Scotia,109 king st parrsboro ns b0m 1s0 ns,109,king st
98,Pictou Academy,650,public,09 - 12,200 Louise St Pictou NS B0K 1H0 NS,200 Louise St,B0K 1H0,Pictou NS,Province of Nova Scotia,200 louise st pictou ns b0k 1h0 ns,200,louise st
99,Pugwash District High School,252,public,07 - 12,192 Church St Pugwash NS B0K 1L0 NS,192 Church St,B0K 1L0,Pugwash NS,Province of Nova Scotia,192 church st pugwash ns b0k 1l0 ns,192,church st
100,Rawdon District Elementary School,39,public,PP - 6,3713 Hwy 354 Upper Rawdon NS B0N 2N0 NS,3713 Hwy 354,B0N 2N0,Upper Rawdon NS,Province of Nova Scotia,3713 hwy 354 upper rawdon ns b0n 2n0 ns,3713,hwy 354
101,Redcliff Middle School,916,public,05 - 7,33 Sunset Lane Valley NS B6L 4K1 NS,33 Sunset Lane,B6L 4K1,Valley NS,Province of Nova Scotia,33 sunset lane valley ns b6l 4k1 ns,33,sunset lane valley ns b6l
102,River Hebert District School,251,public,PP - 12,2843 Barronsfield Rd River Hebert NS B0L 1G0 NS,2843 Barronsfield Rd,B0L 1G0,River Hebert NS,Province of Nova Scotia,2843 barronsfield rd river hebert ns b0l 1g0 ns,2843,barronsfield rd
103,Riverside Education Centre,923,public,06 - 8,6 Riverside Dr Milford NS B0N 1Y0 NS,6 Riverside Dr,B0N 1Y0,Milford NS,Province of Nova Scotia,6 riverside dr milford ns b0n 1y0 ns,6,riverside dr
104,Salt Springs Elementary School,441,public,PP - 5,2080 West River Stn Rd Pictou NS B0K 1P0 NS,2080 West River Stn Rd,B0K 1P0,Pictou NS,Province of Nova Scotia,2080 west river stn rd pictou ns b0k 1p0 ns,2080,west river stn rd
105,Scotsburn Elementary School,4,public,PP - 5,4100 Scotsburn Rd Scotsburn NS B0K 1R0 NS,4100 Scotsburn Rd,B0K 1R0,Scotsburn NS,Province of Nova Scotia,4100 scotsburn rd scotsburn ns b0k 1r0 ns,4100,scotsburn rd
106,Shubenacadie District Elementary School,34,public,PP - 5,54 Mill Village Rd Shubenacadie NS B0N 2H0 NS,54 Mill Village Rd,B0N 2H0,Shubenacadie NS,Province of Nova Scotia,54 mill village rd shubenacadie ns b0n 2h0 ns,54,mill village rd
107,South Colchester Academy,992,public,07 - 12,207 Hwy 289 Brookfield NS B0N 1C0 NS,207 Hwy 289,B0N 1C0,Brookfield NS,Province of Nova Scotia,207 hwy 289 brookfield ns b0n 1c0 ns,207,hwy 289
108,Spring Street Academy,1105,public,PR - 6,59 Spring St Amherst NS B4H 1S4 NS,59 Spring St,B4H 1S4,Amherst NS,Province of Nova Scotia,59 spring st amherst ns b4h 1s4 ns,59,spring st
109,Springhill Junior-Senior High School,658,public,05 - 12,84 Church St Springhill NS B0M 1X0 NS,84 Church St,B0M 1X0,Springhill NS,Province of Nova Scotia,84 church st springhill ns b0m 1x0 ns,84,church st
110,Tatamagouche Regional Academy,1195,public,PP - 12,92 Blair Ave Tatamagouche NS B0K 1V0 NS,92 Blair Ave,B0K 1V0,Tatamagouche NS,Province of Nova Scotia,92 blair ave tatamagouche ns b0k 1v0 ns,92,blair ave
111,Thorburn Consolidated School,428,public,PP - 8,13 New Row Thorburn NS B0K 1W0 NS,13 New Row,B0K 1W0,Thorburn NS,Province of Nova Scotia,13 new row thorburn ns b0k 1w0 ns,13,new row
112,Trenton Elementary School,692,public,PP - 4,1 Sixth St Trenton NS B0K 1X0 NS,1 Sixth St,B0K 1X0,Trenton NS,Province of Nova Scotia,1 sixth st trenton ns b0k 1x0 ns,1,sixth st
113,Trenton Middle School,690,public,05 - 8,37 Dickie St Trenton NS B0K 1X0 NS,37 Dickie St,B0K 1X0,Trenton NS,Province of Nova Scotia,37 dickie st trenton ns b0k 1x0 ns,37,dickie st
114,Truro Elementary School,1146,public,PR - 5,125 Curtis Dr Truro NS B2N 0C5 NS,125 Curtis Dr,B2N 0C5,Truro NS,Province of Nova Scotia,125 curtis dr truro ns b2n 0c5 ns,125,curtis dr
115,Truro Junior High,45,public,06 - 9,445 Young St Truro NS B2N 7H9 NS,445 Young St,B2N 7H9,Truro NS,Province of Nova Scotia,445 young st truro ns b2n 7h9 ns,445,young st
116,Uniacke District School,40,public,PP - 9,551 Hwy 1 Mount Uniacke NS B0N 1Z0 NS,551 Hwy 1,B0N 1Z0,Mount Uniacke NS,Province of Nova Scotia,551 hwy 1 mount uniacke ns b0n 1z0 ns,551,hwy 1
117,Upper Stewiacke Elementary School,18,public,PR - 6,5327 Hwy 289 Upper Stewiacke NS B0N 2P0 NS,5327 Hwy 289,B0N 2P0,Upper Stewiacke NS,Province of Nova Scotia,5327 hwy 289 upper stewiacke ns b0n 2p0 ns,5327,hwy 289
118,Valley Elementary School,12,public,PR - 4,96 Salmon River Rd Valley NS B6L 2S5 NS,96 Salmon River Rd,B6L 2S5,Valley NS,Province of Nova Scotia,96 salmon river rd valley ns b6l 2s5 ns,96,salmon river rd
119,Wallace Consolidated Elementary School,227,public,PR - 6,3853 Hwy 307 Wallace NS B0K 1Y0 NS,3853 Hwy 307,B0K 1Y0,Wallace NS,Province of Nova Scotia,3853 hwy 307 wallace ns b0k 1y0 ns,3853,hwy 307
120,Walter Duggan Consolidated School,3,public,PP - 6,2370 Spring Garden Rd Westville NS B0K 2A0 NS,2370 Spring Garden Rd,B0K 2A0,Westville NS,Province of Nova Scotia,2370 spring garden rd westville ns b0k 2a0 ns,2370,spring garden rd
121,West Colchester Consolidated School,29,public,PP - 9,27 Maple Ave Bass River NS B0M 1B0 NS,27 Maple Ave,B0M 1B0,Bass River NS,Province of Nova Scotia,27 maple ave bass river ns b0m 1b0 ns,27,maple ave
122,West End Memorial School,662,public,PP - 6,77 McGee St Springhill NS B0M 1X0 NS,77 McGee St,B0M 1X0,Springhill NS,Province of Nova Scotia,77 mcgee st springhill ns b0m 1x0 ns,77,mcgee st
123,West Highlands Elementary School,1190,public,PP - 6,18 Maltby Crt Amherst NS B4H 2L6 NS,18 Maltby Crt,B4H 2L6,Amherst NS,Province of Nova Scotia,18 maltby crt amherst ns b4h 2l6 ns,18,maltby crt
124,West Pictou Consolidated School,407,public,PR - 8,1999 Hwy 376 Pictou NS B0K 1H0 NS,1999 Hwy 376,B0K 1H0,Pictou NS,Province of Nova Scotia,1999 hwy 376 pictou ns b0k 1h0 ns,1999,hwy 376
125,Winding River Consolidated School,1148,public,PP - 6,272 Kitchener St Stewiacke NS B0N 2J0 NS,272 Kitchener St,B0N 2J0,Stewiacke NS,Province of Nova Scotia,272 kitchener st stewiacke ns b0n 2j0 ns,272,kitchener st
126,A. J. Smeltzer Junior High School,228,public,06 - 8,46 Prince St Lower Sackville NS B4C 1L1 NS,46 Prince St,B4C 1L1,Lower Sackville NS,Province of Nova Scotia,46 prince st lower sackville ns b4c 1l1 ns,46,prince st
127,Admiral Westphal Elementary School,512,public,PP - 6,6 Fourth St Dartmouth NS B2X 3A5 NS,6 Fourth St,B2X 3A5,Dartmouth NS,Province of Nova Scotia,6 fourth st dartmouth ns b2x 3a5 ns,6,fourth st
128,Alderney Elementary School,513,public,PP - 6,2 Penhorn Dr Dartmouth NS B2Y 3K1 NS,2 Penhorn Dr,B2Y 3K1,Dartmouth NS,Province of Nova Scotia,2 penhorn dr dartmouth ns b2y 3k1 ns,2,penhorn dr
129,Ash Lee Jefferson Elementary School,317,public,PR - 6,10 Lockview Rd Fall River NS B2T 1J1 NS,10 Lockview Rd,B2T 1J1,Fall River NS,Province of Nova Scotia,10 lockview rd fall river ns b2t 1j1 ns,10,lockview rd
130,Astral Drive Elementary School,739,public,PR - 6,236 Astral Dr Dartmouth NS B2V 1B8 NS,236 Astral Dr,B2V 1B8,Dartmouth NS,Province of Nova Scotia,236 astral dr dartmouth ns b2v 1b8 ns,236,astral dr
131,Astral Drive Junior High School,749,public,07 - 9,238 Astral Dr Dartmouth NS B2V 1B8 NS,238 Astral Dr,B2V 1B8,Dartmouth NS,Province of Nova Scotia,238 astral dr dartmouth ns b2v 1b8 ns,238,astral dr
132,Atlantic Memorial-Terence Bay Elementary School,425,public,PP - 5,3591 Prospect Rd Shad Bay NS B3T 1Z3 NS,3591 Prospect Rd,B3T 1Z3,Shad Bay NS,Province of Nova Scotia,3591 prospect rd shad bay ns b3t 1z3 ns,3591,prospect rd
133,Atlantic View Elementary School,326,public,PP - 6,3391 Lawrencetown Rd Lawrencetown NS B2Z 1R5 NS,3391 Lawrencetown Rd,B2Z 1R5,Lawrencetown NS,Province of Nova Scotia,3391 lawrencetown rd lawrencetown ns b2z 1r5 ns,3391,lawrencetown rd
134,Auburn Drive High School,97,public,10 - 12,300 Auburn Dr Dartmouth NS B2W 6E9 NS,300 Auburn Dr,B2W 6E9,Dartmouth NS,Province of Nova Scotia,300 auburn dr dartmouth ns b2w 6e9 ns,300,auburn dr
135,Basinview Drive Community School,104,public,PR - 5,273 Basinview Dr Bedford NS B4A 3X8 NS,273 Basinview Dr,B4A 3X8,Bedford NS,Province of Nova Scotia,273 basinview dr bedford ns b4a 3x8 ns,273,basinview dr
136,Beaver Bank-Kinsac Elementary School,304,public,PR - 6,28 Kinsac Rd Beaver Bank NS B4G 1C5 NS,28 Kinsac Rd,B4G 1C5,Beaver Bank NS,Province of Nova Scotia,28 kinsac rd beaver bank ns b4g 1c5 ns,28,kinsac rd
137,Beaver Bank-Monarch Drive Elementary School,752,public,PR - 6,38 Monarch Dr Beaver Bank NS B4E 3A5 NS,38 Monarch Dr,B4E 3A5,Beaver Bank NS,Province of Nova Scotia,38 monarch dr beaver bank ns b4e 3a5 ns,38,monarch dr
138,Bedford and Forsyth Education Centres,268,public,10 - 12,426 Rocky Lake Dr Bedford NS B4A 2T5 NS,426 Rocky Lake Dr,B4A 2T5,Bedford NS,Province of Nova Scotia,426 rocky lake dr bedford ns b4a 2t5 ns,426,rocky lake dr
139,Bedford South School,937,public,PR - 6,2 Oceanview Dr Bedford NS B4A 4J6 NS,2 Oceanview Dr,B4A 4J6,Bedford NS,Province of Nova Scotia,2 oceanview dr bedford ns b4a 4j6 ns,2,oceanview dr
140,Beechville Lakeside Timberlea Jr. Elementary School,291,public,PR - 2,22 James St Timberlea NS B3T 1G9 NS,22 James St,B3T 1G9,Timberlea NS,Province of Nova Scotia,22 james st timberlea ns b3t 1g9 ns,22,james st
141,Beechville Lakeside Timberlea Sr. Elementary School,290,public,03 - 5,24 James St Timberlea NS B3T 1G9 NS,24 James St,B3T 1G9,Timberlea NS,Province of Nova Scotia,24 james st timberlea ns b3t 1g9 ns,24,james st
142,Bel Ayr Elementary School,514,public,PR - 6,4 Bell St Dartmouth NS B2W 2P3 NS,4 Bell St,B2W 2P3,Dartmouth NS,Province of Nova Scotia,4 bell st dartmouth ns b2w 2p3 ns,4,bell st
143,Bell Park Academic Centre,322,public,PP - 6,4 Thomas St Lake Echo NS B3E 1M6 NS,4 Thomas St,B3E 1M6,Lake Echo NS,Province of Nova Scotia,4 thomas st lake echo ns b3e 1m6 ns,4,thomas st
144,Bicentennial School,515,public,PP - 9,85 Victoria Rd Dartmouth NS B3A 1T9 NS,85 Victoria Rd,B3A 1T9,Dartmouth NS,Province of Nova Scotia,85 victoria rd dartmouth ns b3a 1t9 ns,85,victoria rd
145,Brookhouse Elementary School,519,public,PP - 6,15 Christopher Ave Dartmouth NS B2W 3G2 NS,15 Christopher Ave,B2W 3G2,Dartmouth NS,Province of Nova Scotia,15 christopher ave dartmouth ns b2w 3g2 ns,15,christopher ave
146,Brookside Junior High School,286,public,06 - 9,2239 Prospect Rd Hatchet Lake NS B3T 1R8 NS,2239 Prospect Rd,B3T 1R8,Hatchet Lake NS,Province of Nova Scotia,2239 prospect rd hatchet lake ns b3t 1r8 ns,2239,prospect rd
147,Burton Ettinger Elementary School,595,public,PP - 6,52 Alex St Halifax NS B3N 2W4 NS,52 Alex St,B3N 2W4,Halifax NS,Province of Nova Scotia,52 alex st halifax ns b3n 2w4 ns,52,alex st
148,Caldwell Road Elementary School,319,public,PP - 6,280 Caldwell Rd Dartmouth NS B2V 1A3 NS,280 Caldwell Rd,B2V 1A3,Dartmouth NS,Province of Nova Scotia,280 caldwell rd dartmouth ns b2v 1a3 ns,280,caldwell rd
149,Caledonia Junior High School,516,public,07 - 9,38 Caledonia Rd Dartmouth NS B2X 1K8 NS,38 Caledonia Rd,B2X 1K8,Dartmouth NS,Province of Nova Scotia,38 caledonia rd dartmouth ns b2x 1k8 ns,38,caledonia rd
150,Caudle Park Elementary School,312,public,PP - 5,35 McGee Dr Lower Sackville NS B4C 2J1 NS,35 McGee Dr,B4C 2J1,Lower Sackville NS,Province of Nova Scotia,35 mcgee dr lower sackville ns b4c 2j1 ns,35,mcgee dr
151,Cavalier Drive School,743,public,PP - 5,116 Cavalier Dr Lower Sackville NS B4C 3L9 NS,116 Cavalier Dr,B4C 3L9,Lower Sackville NS,Province of Nova Scotia,116 cavalier dr lower sackville ns b4c 3l9 ns,116,cavalier dr
152,Central Spryfield School,611,public,PP - 6,364 Herring Cove Rd Halifax NS B3R 1V8 NS,364 Herring Cove Rd,B3R 1V8,Halifax NS,Province of Nova Scotia,364 herring cove rd halifax ns b3r 1v8 ns,364,herring cove rd
153,Charles P. Allen High School,1183,public,10 - 12,200 Innovation Dr Bedford NS B4B 0G4 NS,200 Innovation Dr,B4B 0G4,Bedford NS,Province of Nova Scotia,200 innovation dr bedford ns b4b 0g4 ns,200,innovation dr
154,Chebucto Heights Elementary School,596,public,PP - 6,230 Cowie Hill Rd Halifax NS B3P 2M3 NS,230 Cowie Hill Rd,B3P 2M3,Halifax NS,Province of Nova Scotia,230 cowie hill rd halifax ns b3p 2m3 ns,230,cowie hill rd
155,Citadel High School,1109,public,10 - 12,1855 Trollope St Halifax NS B3H 0A4 NS,1855 Trollope St,B3H 0A4,Halifax NS,Province of Nova Scotia,1855 trollope st halifax ns b3h 0a4 ns,1855,trollope st halifax ns b3h
156,Clayton Park Junior High School,600,public,07 - 9,45 Plateau Cres Halifax NS B3M 2V7 NS,45 Plateau Cres,B3M 2V7,Halifax NS,Province of Nova Scotia,45 plateau cres halifax ns b3m 2v7 ns,45,plateau cres
157,Colby Village Elementary School,352,public,PP - 6,92 Colby Dr Dartmouth NS B2V 1J7 NS,92 Colby Dr,B2V 1J7,Dartmouth NS,Province of Nova Scotia,92 colby dr dartmouth ns b2v 1j7 ns,92,colby dr
158,Cole Harbour District High School,357,public,10 - 12,2 Chameau Cres Cole Harbour NS B2W 4X4 NS,2 Chameau Cres,B2W 4X4,Cole Harbour NS,Province of Nova Scotia,2 chameau cres cole harbour ns b2w 4x4 ns,2,chameau cres
159,Colonel John Stuart Elementary School,339,public,PR - 6,5 John Stewart Dr Cole Harbour NS B2W 4J7 NS,5 John Stewart Dr,B2W 4J7,Cole Harbour NS,Province of Nova Scotia,5 john stewart dr cole harbour ns b2w 4j7 ns,5,john stewart dr
160,Crichton Park Elementary School,517,public,PR - 6,49 Lyngby Ave Dartmouth NS B3A 3V1 NS,49 Lyngby Ave,B3A 3V1,Dartmouth NS,Province of Nova Scotia,49 lyngby ave dartmouth ns b3a 3v1 ns,49,lyngby ave
161,Cunard Junior High School,605,public,07 - 9,121 Williams Lake Rd Halifax NS B3P 1T6 NS,121 Williams Lake Rd,B3P 1T6,Halifax NS,Province of Nova Scotia,121 williams lake rd halifax ns b3p 1t6 ns,121,williams lake rd
162,Dartmouth High School,518,public,09 - 12,95 Victoria Rd Dartmouth NS B3A 1V2 NS,95 Victoria Rd,B3A 1V2,Dartmouth NS,Province of Nova Scotia,95 victoria rd dartmouth ns b3a 1v2 ns,95,victoria rd
163,Dartmouth South Academy,1193,public,PR - 8,111 Prince Arthur Ave Dartmouth NS B2Y 0C5 NS,111 Prince Arthur Ave,B2Y 0C5,Dartmouth NS,Province of Nova Scotia,111 prince arthur ave dartmouth ns b2y 0c5 ns,111,prince arthur ave
164,Duc d'Anville Elementary School,601,public,PP - 6,12 Clayton Park Dr Halifax NS B3M 1L3 NS,12 Clayton Park Dr,B3M 1L3,Halifax NS,Province of Nova Scotia,12 clayton park dr halifax ns b3m 1l3 ns,12,clayton park dr
165,Duncan MacMillan High School,328,public,PP - 12,481 Church Point Rd Sheet Harbour NS B0J 3B0 NS,481 Church Point Rd,B0J 3B0,Sheet Harbour NS,Province of Nova Scotia,481 church point rd sheet harbour ns b0j 3b0 ns,481,church point rd
166,Dutch Settlement Elementary School,343,public,PP - 6,990 Hwy 277 Dutch Settlement NS B2S 2J5 NS,990 Hwy 277,B2S 2J5,Dutch Settlement NS,Province of Nova Scotia,990 hwy 277 dutch settlement ns b2s 2j5 ns,990,hwy 277
167,East St. Margarets Elementary School,283,public,PP - 6,8671 Peggy's Cove Rd Indian Harbour NS B3Z 3P5 NS,8671 Peggy's Cove Rd,B3Z 3P5,Indian Harbour NS,Province of Nova Scotia,8671 peggy's cove rd indian harbour ns b3z 3p5 ns,8671,peggy's cove rd
168,Eastern Passage Education Centre,351,public,06 - 8,93 Samuel Danial Dr Eastern Passage NS B3G 1P7 NS,93 Samuel Danial Dr,B3G 1P7,Eastern Passage NS,Province of Nova Scotia,93 samuel danial dr eastern passage ns b3g 1p7 ns,93,samuel danial dr
169,Eastern Shore District High School,334,public,10 - 12,35 West Petpeswick Rd Musquodoboit Harbour NS B0J 2L0 NS,35 West Petpeswick Rd,B0J 2L0,Musquodoboit Harbour NS,Province of Nova Scotia,35 west petpeswick rd musquodoboit harbour ns b0j 2l0 ns,35,west petpeswick rd
170,Elizabeth Sutherland School,614,public,PP - 9,66 Rockingstone Rd Halifax NS B3R 2C9 NS,66 Rockingstone Rd,B3R 2C9,Halifax NS,Province of Nova Scotia,66 rockingstone rd halifax ns b3r 2c9 ns,66,rockingstone rd
171,Ellenvale Junior High School,538,public,07 - 9,88 Belle Vista Dr Dartmouth NS B2W 2X7 NS,88 Belle Vista Dr,B2W 2X7,Dartmouth NS,Province of Nova Scotia,88 belle vista dr dartmouth ns b2w 2x7 ns,88,belle vista dr
172,Eric Graves Memorial Junior High School,564,public,07 - 9,70 Dorothea Dr Dartmouth NS B2W 4M3 NS,70 Dorothea Dr,B2W 4M3,Dartmouth NS,Province of Nova Scotia,70 dorothea dr dartmouth ns b2w 4m3 ns,70,dorothea dr
173,Fairview Heights Elementary School,599,public,PP - 6,210 Coronation Ave Halifax NS B3N 2N3 NS,210 Coronation Ave,B3N 2N3,Halifax NS,Province of Nova Scotia,210 coronation ave halifax ns b3n 2n3 ns,210,coronation ave
174,Fairview Junior High School,578,public,07 - 9,155 Rosedale Ave Halifax NS B3N 2K2 NS,155 Rosedale Ave,B3N 2K2,Halifax NS,Province of Nova Scotia,155 rosedale ave halifax ns b3n 2k2 ns,155,rosedale ave
175,Five Bridges Junior High School,288,public,07 - 9,66 Hubley Rd Hubley NS B3Z 1B9 NS,66 Hubley Rd,B3Z 1B9,Hubley NS,Province of Nova Scotia,66 hubley rd hubley ns b3z 1b9 ns,66,hubley rd
176,Gaetz Brook Junior High School,356,public,07 - 9,6856 Hwy 7 Head of Chezzetcook NS B0J 1N0 NS,6856 Hwy 7,B0J 1N0,Head of Chezzetcook NS,Province of Nova Scotia,6856 hwy 7 head of chezzetcook ns b0j 1n0 ns,6856,hwy 7
177,George Bissett Elementary School,731,public,PP - 6,170 Arklow Dr Dartmouth NS B2W 4R6 NS,170 Arklow Dr,B2W 4R6,Dartmouth NS,Province of Nova Scotia,170 arklow dr dartmouth ns b2w 4r6 ns,170,arklow dr
178,Georges P. Vanier Junior High School,314,public,07 - 8,1410 Fall River Rd Fall River NS B2T 1J1 NS,1410 Fall River Rd,B2T 1J1,Fall River NS,Province of Nova Scotia,1410 fall river rd fall river ns b2t 1j1 ns,1410,fall river rd
179,Gorsebrook Junior High School,568,public,07 - 9,5966 South St Halifax NS B3H 1S6 NS,5966 South St,B3H 1S6,Halifax NS,Province of Nova Scotia,5966 south st halifax ns b3h 1s6 ns,5966,south st
180,Graham Creighton Junior High School,318,public,07 - 9,72 Cherry Brook Rd Cherry Brook NS B2Z 1A8 NS,72 Cherry Brook Rd,B2Z 1A8,Cherry Brook NS,Province of Nova Scotia,72 cherry brook rd cherry brook ns b2z 1a8 ns,72,cherry brook rd
181,Grosvenor-Wentworth Park Elementary School,602,public,PP - 6,4 Downing St Halifax NS B3M 2G4 NS,4 Downing St,B3M 2G4,Halifax NS,Province of Nova Scotia,4 downing st halifax ns b3m 2g4 ns,4,downing st
182,Halifax Central Junior High School,567,public,07 - 9,1787 Preston St Halifax NS B3H 3V7 NS,1787 Preston St,B3H 3V7,Halifax NS,Province of Nova Scotia,1787 preston st halifax ns b3h 3v7 ns,1787,preston st
183,Halifax West High School,592,public,10 - 12,283 Thomas Raddall Dr Halifax NS B3S 1R1 NS,283 Thomas Raddall Dr,B3S 1R1,Halifax NS,Province of Nova Scotia,283 thomas raddall dr halifax ns b3s 1r1 ns,283,thomas raddall dr
184,Hammonds Plains Consolidated School,306,public,PR - 5,2180 Hammonds Plains Rd Hammonds Plains NS B4B 1M5 NS,2180 Hammonds Plains Rd,B4B 1M5,Hammonds Plains NS,Province of Nova Scotia,2180 hammonds plains rd hammonds plains ns b4b 1m5 ns,2180,hammonds plains rd
185,Harbour View Elementary School,521,public,PP - 6,25 Alfred St Dartmouth NS B3A 4E8 NS,25 Alfred St,B3A 4E8,Dartmouth NS,Province of Nova Scotia,25 alfred st dartmouth ns b3a 4e8 ns,25,alfred st
186,Harold T. Barrett Junior High School,740,public,07 - 8,862 Beaver Bank Rd Beaver Bank NS B4G 1A9 NS,862 Beaver Bank Rd,B4G 1A9,Beaver Bank NS,Province of Nova Scotia,862 beaver bank rd beaver bank ns b4g 1a9 ns,862,beaver bank rd
187,Harrietsfield Elementary School,296,public,PP - 6,1150 Old Sambro Rd Harrietsfield NS B3V 1B1 NS,1150 Old Sambro Rd,B3V 1B1,Harrietsfield NS,Province of Nova Scotia,1150 old sambro rd harrietsfield ns b3v 1b1 ns,1150,old sambro rd
188,Harry R. Hamilton Elementary School,313,public,PR - 5,40 Hamilton Dr Middle Sackville NS B4E 3A9 NS,40 Hamilton Dr,B4E 3A9,Middle Sackville NS,Province of Nova Scotia,40 hamilton dr middle sackville ns b4e 3a9 ns,40,hamilton dr
189,Hawthorn Elementary School,522,public,PP - 6,10 Hawthorne St Dartmouth NS B2Y 2Y3 NS,10 Hawthorne St,B2Y 2Y3,Dartmouth NS,Province of Nova Scotia,10 hawthorne st dartmouth ns b2y 2y3 ns,10,hawthorne st
190,Herring Cove Junior High School,293,public,07 - 9,7 Lancaster Dr Herring Cove NS B3V 1H9 NS,7 Lancaster Dr,B3V 1H9,Herring Cove NS,Province of Nova Scotia,7 lancaster dr herring cove ns b3v 1h9 ns,7,lancaster dr
191,Highland Park Junior High School,571,public,07 - 9,3479 Robie St Halifax NS B3K 4S4 NS,3479 Robie St,B3K 4S4,Halifax NS,Province of Nova Scotia,3479 robie st halifax ns b3k 4s4 ns,3479,robie st
192,Hillside Park Elementary School,310,public,PP - 5,15 Hillside Ave Lower Sackville NS B4C 1W6 NS,15 Hillside Ave,B4C 1W6,Lower Sackville NS,Province of Nova Scotia,15 hillside ave lower sackville ns b4c 1w6 ns,15,hillside ave
193,Holland Road Elementary School,747,public,PR - 6,181 Holland Rd Fletchers Lake NS B2T 1A1 NS,181 Holland Rd,B2T 1A1,Fletchers Lake NS,Province of Nova Scotia,181 holland rd fletchers lake ns b2t 1a1 ns,181,holland rd
194,Humber Park Elementary School,327,public,PP - 6,5 Smallwood Ave Dartmouth NS B2W 3R6 NS,5 Smallwood Ave,B2W 3R6,Dartmouth NS,Province of Nova Scotia,5 smallwood ave dartmouth ns b2w 3r6 ns,5,smallwood ave
195,Ian Forsyth Elementary School,523,public,PP - 6,22 Glencoe Dr Dartmouth NS B2X 1J1 NS,22 Glencoe Dr,B2X 1J1,Dartmouth NS,Province of Nova Scotia,22 glencoe dr dartmouth ns b2x 1j1 ns,22,glencoe dr
196,Inglis Street Elementary School,579,public,PP - 6,5985 Inglis St Halifax NS B3H 1K7 NS,5985 Inglis St,B3H 1K7,Halifax NS,Province of Nova Scotia,5985 inglis st halifax ns b3h 1k7 ns,5985,inglis st
197,Island View High School,1196,public,09 - 12,1853 Caldwell Rd Eastern Passage NS B3G 1J3 NS,1853 Caldwell Rd,B3G 1J3,Eastern Passage NS,Province of Nova Scotia,1853 caldwell rd eastern passage ns b3g 1j3 ns,1853,caldwell rd
198,J. L. Ilsley High School,619,public,10 - 12,38 Sylvia Ave Halifax NS B3R 1J9 NS,38 Sylvia Ave,B3R 1J9,Halifax NS,Province of Nova Scotia,38 sylvia ave halifax ns b3r 1j9 ns,38,sylvia ave
199,John MacNeil Elementary School,539,public,PP - 6,62 Leaman Dr Dartmouth NS B3A 2K9 NS,62 Leaman Dr,B3A 2K9,Dartmouth NS,Province of Nova Scotia,62 leaman dr dartmouth ns b3a 2k9 ns,62,leaman dr
200,John Martin Junior High School,524,public,07 - 9,7 Brule St Dartmouth NS B3A 4G2 NS,7 Brule St,B3A 4G2,Dartmouth NS,Province of Nova Scotia,7 brule st dartmouth ns b3a 4g2 ns,7,brule st
201,John W. MacLeod-Fleming Tower Elementary School,607,public,PR - 6,1511 Purcell's Cove Rd Halifax NS B3P 1B7 NS,1511 Purcell's Cove Rd,B3P 1B7,Halifax NS,Province of Nova Scotia,1511 purcell's cove rd halifax ns b3p 1b7 ns,1511,purcell's cove rd
202,Joseph Giles Elementary School,354,public,PR - 6,54 Gregory Dr Dartmouth NS B2W 3M6 NS,54 Gregory Dr,B2W 3M6,Dartmouth NS,Province of Nova Scotia,54 gregory dr dartmouth ns b2w 3m6 ns,54,gregory dr
203,Joseph Howe Elementary School,569,public,PP - 6,2557 Maynard St Halifax NS B3K 3V6 NS,2557 Maynard St,B3K 3V6,Halifax NS,Province of Nova Scotia,2557 maynard st halifax ns b3k 3v6 ns,2557,maynard st
204,Kingswood Elementary School,1103,public,PR - 6,34 Vrege Crt Hammonds Plains NS B4B 1K2 NS,34 Vrege Crt,B4B 1K2,Hammonds Plains NS,Province of Nova Scotia,34 vrege crt hammonds plains ns b4b 1k2 ns,34,vrege crt
205,LeMarchant-St. Thomas Elementary School,1200,public,PR - 6,6141 Watt St Halifax NS B3H 2B7 NS,6141 Watt St,B3H 2B7,Halifax NS,Province of Nova Scotia,6141 watt st halifax ns b3h 2b7 ns,6141,watt st
206,Leslie Thomas Junior High School,353,public,06 - 8,100 Metropolitan Ave Lower Sackville NS B4C 2Z8 NS,100 Metropolitan Ave,B4C 2Z8,Lower Sackville NS,Province of Nova Scotia,100 metropolitan ave lower sackville ns b4c 2z8 ns,100,metropolitan ave
207,Lockview High School,968,public,09 - 12,148 Lockview Rd Fall River NS B2T 1J1 NS,148 Lockview Rd,B2T 1J1,Fall River NS,Province of Nova Scotia,148 lockview rd fall river ns b2t 1j1 ns,148,lockview rd
208,Madeline Symonds Middle School,939,public,06 - 9,290 White Hills Run Hammonds Plains NS B4B 1W6 NS,290 White Hills Run,B4B 1W6,Hammonds Plains NS,Province of Nova Scotia,290 white hills run hammonds plains ns b4b 1w6 ns,290,white hills run
209,Michael Wallace Elementary School,526,public,PR - 6,24 Andover St Dartmouth NS B2X 2L9 NS,24 Andover St,B2X 2L9,Dartmouth NS,Province of Nova Scotia,24 andover st dartmouth ns b2x 2l9 ns,24,andover st
210,Millwood Elementary School,748,public,PP - 5,190 Beaver Bank Cross Rd Lower Sackville NS B4E 1K5 NS,190 Beaver Bank Cross Rd,B4E 1K5,Lower Sackville NS,Province of Nova Scotia,190 beaver bank cross rd lower sackville ns b4e 1k5 ns,190,beaver bank cross rd
211,Millwood High School,745,public,09 - 12,141 Millwood Dr Middle Sackville NS B4E 0A1 NS,141 Millwood Dr,B4E 0A1,Middle Sackville NS,Province of Nova Scotia,141 millwood dr middle sackville ns b4e 0a1 ns,141,millwood dr
212,Mount Edward Elementary School,527,public,PP - 6,3 Windward Ave Dartmouth NS B2W 2G9 NS,3 Windward Ave,B2W 2G9,Dartmouth NS,Province of Nova Scotia,3 windward ave dartmouth ns b2w 2g9 ns,3,windward ave
213,Musquodoboit Rural High School,1149,public,07 - 12,11980 Hwy 224 Middle Musquodoboit NS B0N 1X0 NS,11980 Hwy 224,B0N 1X0,Middle Musquodoboit NS,Province of Nova Scotia,11980 hwy 224 middle musquodoboit ns b0n 1x0 ns,11980,hwy 224
214,Musquodoboit Valley Education Centre,348,public,PP - 6,12046 Hwy 224 Middle Musquodoboit NS B0N 1X0 NS,12046 Hwy 224,B0N 1X0,Middle Musquodoboit NS,Province of Nova Scotia,12046 hwy 224 middle musquodoboit ns b0n 1x0 ns,12046,hwy 224
215,Nelson Whynder Elementary School,324,public,PP - 6,979 North Preston Rd North Preston NS B2Z 1A2 NS,979 North Preston Rd,B2Z 1A2,North Preston NS,Province of Nova Scotia,979 north preston rd north preston ns b2z 1a2 ns,979,north preston rd
216,Ocean View Elementary School,56,public,PP - 3,51 Oceanview School Rd Eastern Passage NS B3G 1J3 NS,51 Oceanview School Rd,B3G 1J3,Eastern Passage NS,Province of Nova Scotia,51 oceanview school rd eastern passage ns b3g 1j3 ns,51,oceanview school rd
217,O'Connell Drive Elementary School,131,public,PP - 6,40 O'Connell Dr Porters Lake NS B3E 1E8 NS,40 O'Connell Dr,B3E 1E8,Porters Lake NS,Province of Nova Scotia,40 o'connell dr porters lake ns b3e 1e8 ns,40,o'connell dr
218,Oldfield Consolidated School,315,public,PP - 6,72 Halls Rd Enfield NS B2T 1C4 NS,72 Halls Rd,B2T 1C4,Enfield NS,Province of Nova Scotia,72 halls rd enfield ns b2t 1c4 ns,72,halls rd
219,Oxford School,572,public,PR - 9,6364 North St Halifax NS B3L 1P6 NS,6364 North St,B3L 1P6,Halifax NS,Province of Nova Scotia,6364 north st halifax ns b3l 1p6 ns,6364,north st
220,Oyster Pond Academy,1141,public,PP - 9,10583 Hwy 7 Oyster Pond NS B0J 1W0 NS,10583 Hwy 7,B0J 1W0,Oyster Pond NS,Province of Nova Scotia,10583 hwy 7 oyster pond ns b0j 1w0 ns,10583,hwy 7
221,Park West School,970,public,PR - 9,206 Langbrae Dr Halifax NS B3S 1L5 NS,206 Langbrae Dr,B3S 1L5,Halifax NS,Province of Nova Scotia,206 langbrae dr halifax ns b3s 1l5 ns,206,langbrae dr
222,Porters Lake Elementary School,1159,public,PR - 6,40 Inspiration Dr Porters Lake NS B3E 0A6 NS,40 Inspiration Dr,B3E 0A6,Porters Lake NS,Province of Nova Scotia,40 inspiration dr porters lake ns b3e 0a6 ns,40,inspiration dr
223,Portland Estates Elementary School,969,public,PR - 6,45 Portland Hills Dr Dartmouth NS B2W 6L5 NS,45 Portland Hills Dr,B2W 6L5,Dartmouth NS,Province of Nova Scotia,45 portland hills dr dartmouth ns b2w 6l5 ns,45,portland hills dr
224,Prince Andrew High School,533,public,10 - 12,31 Woodlawn Rd Dartmouth NS B2W 2R7 NS,31 Woodlawn Rd,B2W 2R7,Dartmouth NS,Province of Nova Scotia,31 woodlawn rd dartmouth ns b2w 2r7 ns,31,woodlawn rd
225,Prospect Road Elementary School,282,public,PR - 5,2199 Prospect Rd Hatchet Lake NS B3T 1R8 NS,2199 Prospect Rd,B3T 1R8,Hatchet Lake NS,Province of Nova Scotia,2199 prospect rd hatchet lake ns b3t 1r8 ns,2199,prospect rd
226,Ridgecliff Middle School,938,public,06 - 9,35 Beech Tree Run Beechville NS B3T 2E5 NS,35 Beech Tree Run,B3T 2E5,Beechville NS,Province of Nova Scotia,35 beech tree run beechville ns b3t 2e5 ns,35,beech tree run
227,Robert K. Turner Elementary School,359,public,PP - 6,141 Circassion Dr Dartmouth NS B2W 4N7 NS,141 Circassion Dr,B2W 4N7,Dartmouth NS,Province of Nova Scotia,141 circassion dr dartmouth ns b2w 4n7 ns,141,circassion dr
228,Rockingham Elementary School,603,public,PP - 6,31 Tremont Dr Halifax NS B3M 1X8 NS,31 Tremont Dr,B3M 1X8,Halifax NS,Province of Nova Scotia,31 tremont dr halifax ns b3m 1x8 ns,31,tremont dr
229,Rockingstone Heights School,609,public,PP - 9,1 Regan Dr Halifax NS B3R 2J1 NS,1 Regan Dr,B3R 2J1,Halifax NS,Province of Nova Scotia,1 regan dr halifax ns b3r 2j1 ns,1,regan dr
230,Rocky Lake Junior High School,1187,public,06 - 9,670 Rocky Lake Dr Bedford NS B4A 2T6 NS,670 Rocky Lake Dr,B4A 2T6,Bedford NS,Province of Nova Scotia,670 rocky lake dr bedford ns b4a 2t6 ns,670,rocky lake dr
231,Ross Road School,321,public,PP - 9,336 Ross Rd Westphal NS B2Z 1H2 NS,336 Ross Rd,B2Z 1H2,Westphal NS,Province of Nova Scotia,336 ross rd westphal ns b2z 1h2 ns,336,ross rd
232,Sackville Heights Elementary School,311,public,PR - 5,1225 Old Sackville Rd Middle Sackville NS B4E 3A6 NS,1225 Old Sackville Rd,B4E 3A6,Middle Sackville NS,Province of Nova Scotia,1225 old sackville rd middle sackville ns b4e 3a6 ns,1225,old sackville rd
233,Sackville Heights Junior High School,303,public,06 - 8,956 Sackville Dr Lower Sackville NS B4E 1S4 NS,956 Sackville Dr,B4E 1S4,Lower Sackville NS,Province of Nova Scotia,956 sackville dr lower sackville ns b4e 1s4 ns,956,sackville dr
234,Sackville High School,297,public,09 - 12,1 Kingfisher Way Lower Sackville NS B4C 2Y9 NS,1 Kingfisher Way,B4C 2Y9,Lower Sackville NS,Province of Nova Scotia,1 kingfisher way lower sackville ns b4c 2y9 ns,1,kingfisher way
235,Saint Mary's Elementary School,581,public,PR - 6,5614 Morris St Halifax NS B3J 1C2 NS,5614 Morris St,B3J 1C2,Halifax NS,Province of Nova Scotia,5614 morris st halifax ns b3j 1c2 ns,5614,morris st
236,Sambro Elementary School,295,public,PP - 6,3725 Old Sambro Rd Sambro NS B3V 1G1 NS,3725 Old Sambro Rd,B3V 1G1,Sambro NS,Province of Nova Scotia,3725 old sambro rd sambro ns b3v 1g1 ns,3725,old sambro rd
237,Seaside Elementary School,941,public,04 - 5,1881 Caldwell Rd Eastern Passage NS B3G 1J3 NS,1881 Caldwell Rd,B3G 1J3,Eastern Passage NS,Province of Nova Scotia,1881 caldwell rd eastern passage ns b3g 1j3 ns,1881,caldwell rd
238,Shannon Park Elementary School,534,public,PR - 6,75 Iroquois Dr Dartmouth NS B3A 4M5 NS,75 Iroquois Dr,B3A 4M5,Dartmouth NS,Province of Nova Scotia,75 iroquois dr dartmouth ns b3a 4m5 ns,75,iroquois dr
239,Shatford Memorial Elementary School,287,public,PR - 6,10089 St. Margaret's Bay Rd Hubbards NS B0J 1T0 NS,10089 St. Margaret's Bay Rd,B0J 1T0,Hubbards NS,Province of Nova Scotia,10089 st margaret's bay rd hubbards ns b0j 1t0 ns,10089,st margaret's bay rd
240,Sir Charles Tupper School,589,public,PP - 6,1930 Cambridge St Halifax NS B3H 4S5 NS,1930 Cambridge St,B3H 4S5,Halifax NS,Province of Nova Scotia,1930 cambridge st halifax ns b3h 4s5 ns,1930,cambridge st
241,Sir John A. Macdonald High School,277,public,10 - 12,31 Scholars Rd Upper Tantallon NS B3Z 0C3 NS,31 Scholars Rd,B3Z 0C3,Upper Tantallon NS,Province of Nova Scotia,31 scholars rd upper tantallon ns b3z 0c3 ns,31,scholars rd
242,Sir Robert Borden Junior High School,320,public,07 - 9,16 Evergreen Dr Dartmouth NS B2W 4A7 NS,16 Evergreen Dr,B2W 4A7,Dartmouth NS,Province of Nova Scotia,16 evergreen dr dartmouth ns b2w 4a7 ns,16,evergreen dr
243,Smokey Drive Elementary School,355,public,PR - 5,241 Smokey Dr Lower Sackville NS B4C 3G1 NS,241 Smokey Dr,B4C 3G1,Lower Sackville NS,Province of Nova Scotia,241 smokey dr lower sackville ns b4c 3g1 ns,241,smokey dr
244,South Woodside School,535,public,PP - 6,5 Everette St Dartmouth NS B2W 1G2 NS,5 Everette St,B2W 1G2,Dartmouth NS,Province of Nova Scotia,5 everette st dartmouth ns b2w 1g2 ns,5,everette st
245,Springvale Elementary School,593,public,PP - 6,92 Downs Ave Halifax NS B3N 1Y6 NS,92 Downs Ave,B3N 1Y6,Halifax NS,Province of Nova Scotia,92 downs ave halifax ns b3n 1y6 ns,92,downs ave
246,St. Agnes Junior High School,575,public,07 - 9,6981 Mumford Rd Halifax NS B3L 2H7 NS,6981 Mumford Rd,B3L 2H7,Halifax NS,Province of Nova Scotia,6981 mumford rd halifax ns b3l 2h7 ns,6981,mumford rd
247,St. Catherine's Elementary School,577,public,PP - 6,3299 Connolly St Halifax NS B3L 3P7 NS,3299 Connolly St,B3L 3P7,Halifax NS,Province of Nova Scotia,3299 connolly st halifax ns b3l 3p7 ns,3299,connolly st
248,St. Joseph's-Alexander McKay Elementary School,580,public,PP - 6,5389 Russell St Halifax NS B3K 1W8 NS,5389 Russell St,B3K 1W8,Halifax NS,Province of Nova Scotia,5389 russell st halifax ns b3k 1w8 ns,5389,russell st
249,St. Margaret's Bay Elementary School,940,public,PR - 6,24 Ridgewood Dr Head of St. Margaret's Bay NS B3Z 2H4 NS,24 Ridgewood Dr,B3Z 2H4,Head of St. Margaret's Bay NS,Province of Nova Scotia,24 ridgewood dr head of st margaret's bay ns b3z 2h4 ns,24,ridgewood dr head of
250,St. Stephen's Elementary School,586,public,PP - 6,3669 Highland Ave Halifax NS B3K 4L9 NS,3669 Highland Ave,B3K 4L9,Halifax NS,Province of Nova Scotia,3669 highland ave halifax ns b3k 4l9 ns,3669,highland ave
251,Sunnyside Elementary School,299,public,PP - 6,210 Eaglewood Dr Bedford NS B4A 3E3 NS,210 Eaglewood Dr,B4A 3E3,Bedford NS,Province of Nova Scotia,210 eaglewood dr bedford ns b4a 3e3 ns,210,eaglewood dr
252,Sycamore Lane Elementary School,307,public,PP - 5,69 Sycamore Lane Lower Sackville NS B4C 1E8 NS,69 Sycamore Lane,B4C 1E8,Lower Sackville NS,Province of Nova Scotia,69 sycamore lane lower sackville ns b4c 1e8 ns,69,sycamore lane
253,Tallahassee Community School,85,public,PP - 3,168 Redoubt Way Eastern Passage NS B3G 1M5 NS,168 Redoubt Way,B3G 1M5,Eastern Passage NS,Province of Nova Scotia,168 redoubt way eastern passage ns b3g 1m5 ns,168,redoubt way
254,Tantallon Junior Elementary School,1186,public,PR - 2,1 French Village Stn Rd Upper Tantallon NS B3Z 1E4 NS,1 French Village Stn Rd,B3Z 1E4,Upper Tantallon NS,Province of Nova Scotia,1 french village stn rd upper tantallon ns b3z 1e4 ns,1,french village stn rd
255,Tantallon Senior Elementary School,284,public,03 - 6,3 French Village Stn Rd Upper Tantallon NS B3Z 1E4 NS,3 French Village Stn Rd,B3Z 1E4,Upper Tantallon NS,Province of Nova Scotia,3 french village stn rd upper tantallon ns b3z 1e4 ns,3,french village stn rd
256,Upper Musquodoboit Consolidated Elementary School,349,public,PP - 6,8416 Hwy 224 Upper Musquodoboit NS B0N 2M0 NS,8416 Hwy 224,B0N 2M0,Upper Musquodoboit NS,Province of Nova Scotia,8416 hwy 224 upper musquodoboit ns b0n 2m0 ns,8416,hwy 224
257,Waverley Memorial Elementary School,1157,public,PR - 6,2393 Rocky Lake Dr Waverley NS B2R 1S4 NS,2393 Rocky Lake Dr,B2R 1S4,Waverley NS,Province of Nova Scotia,2393 rocky lake dr waverley ns b2r 1s4 ns,2393,rocky lake dr
258,Westmount Elementary School,591,public,PR - 6,6700 Edward Arab Ave Halifax NS B3L 2E1 NS,6700 Edward Arab Ave,B3L 2E1,Halifax NS,Province of Nova Scotia,6700 edward arab ave halifax ns b3l 2e1 ns,6700,edward arab ave
259,William King Elementary School,294,public,PP - 6,91 St. Paul's Ave Herring Cove NS B3V 1H6 NS,91 St. Paul's Ave,B3V 1H6,Herring Cove NS,Province of Nova Scotia,91 st paul's ave herring cove ns b3v 1h6 ns,91,st paul's ave
260,Aldershot Elementary School,63,public,PP - 5,446 Aldershot Rd Kentville NS B4N 3A1 NS,446 Aldershot Rd,B4N 3A1,Kentville NS,Province of Nova Scotia,446 aldershot rd kentville ns b4n 3a1 ns,446,aldershot rd
261,Annapolis East Elementary School,746,public,PR - 5,325 Marshall St Middleton NS B0S 1P0 NS,325 Marshall St,B0S 1P0,Middleton NS,Province of Nova Scotia,325 marshall st middleton ns b0s 1p0 ns,325,marshall st
262,Annapolis West Education Centre,133,public,06 - 12,100 Champlain Dr Annapolis Royal NS B0S 1A0 NS,100 Champlain Dr,B0S 1A0,Annapolis Royal NS,Province of Nova Scotia,100 champlain dr annapolis royal ns b0s 1a0 ns,100,champlain dr
263,Avon View High School,993,public,09 - 12,225 Payzant Dr Windsor NS B0N 2T0 NS,225 Payzant Dr,B0N 2T0,Windsor NS,Province of Nova Scotia,225 payzant dr windsor ns b0n 2t0 ns,225,payzant dr
264,Berwick and District School,75,public,PP - 8,249 Veterans Dr Berwick NS B0P 1E0 NS,249 Veterans Dr,B0P 1E0,Berwick NS,Province of Nova Scotia,249 veterans dr berwick ns b0p 1e0 ns,249,veterans dr
265,Bridgetown Regional Community School,1192,public,PP - 12,25 Cromwell Crt Bridgetown NS B0S 1C0 NS,25 Cromwell Crt,B0S 1C0,Bridgetown NS,Province of Nova Scotia,25 cromwell crt bridgetown ns b0s 1c0 ns,25,cromwell crt
266,Brooklyn District Elementary School,363,public,PR - 5,8008 Hwy 14 Newport NS B0N 2A0 NS,8008 Hwy 14,B0N 2A0,Newport NS,Province of Nova Scotia,8008 hwy 14 newport ns b0n 2a0 ns,8008,hwy 14
267,Cambridge and District Elementary School,58,public,PP - 5,6113 Hwy 1 Cambridge NS B0P 1G0 NS,6113 Hwy 1,B0P 1G0,Cambridge NS,Province of Nova Scotia,6113 hwy 1 cambridge ns b0p 1g0 ns,6113,hwy 1
268,Central Kings Rural High School,67,public,04 - 12,6125 Hwy 1 Cambridge NS B0P 1G0 NS,6125 Hwy 1,B0P 1G0,Cambridge NS,Province of Nova Scotia,6125 hwy 1 cambridge ns b0p 1g0 ns,6125,hwy 1
269,Champlain Elementary School,965,public,PP - 5,109 North St Granville Ferry NS B0S 1K0 NS,109 North St,B0S 1K0,Granville Ferry NS,Province of Nova Scotia,109 north st granville ferry ns b0s 1k0 ns,109,north st
270,Clark Rutherford Memorial School,141,public,PP - 5,234 Spinnaker Dr Clementsport NS B0S 1E0 NS,234 Spinnaker Dr,B0S 1E0,Clementsport NS,Province of Nova Scotia,234 spinnaker dr clementsport ns b0s 1e0 ns,234,spinnaker dr
271,Coldbrook and District School,732,public,PP - 8,2305 English Mountain Rd Coldbrook NS B4R 1B6 NS,2305 English Mountain Rd,B4R 1B6,Coldbrook NS,Province of Nova Scotia,2305 english mountain rd coldbrook ns b4r 1b6 ns,2305,english mountain rd
272,Dr. Arthur Hines Elementary School,366,public,PP - 5,75 Musgrave Rd Summerville NS B0N 2K0 NS,75 Musgrave Rd,B0N 2K0,Summerville NS,Province of Nova Scotia,75 musgrave rd summerville ns b0n 2k0 ns,75,musgrave rd
273,Dwight Ross Elementary School,65,public,PP - 5,949 Tremont Mountain Rd Greenwood NS B0P 1N0 NS,949 Tremont Mountain Rd,B0P 1N0,Greenwood NS,Province of Nova Scotia,949 tremont mountain rd greenwood ns b0p 1n0 ns,949,tremont mountain rd
274,Evangeline Middle School,753,public,06 - 8,9387 Commercial St New Minas NS B4N 3G3 NS,9387 Commercial St,B4N 3G3,New Minas NS,Province of Nova Scotia,9387 commercial st new minas ns b4n 3g3 ns,9387,commercial st
275,Falmouth District School,362,public,PR - 5,30 School St Falmouth NS B0P 1L0 NS,30 School St,B0P 1L0,Falmouth NS,Province of Nova Scotia,30 school st falmouth ns b0p 1l0 ns,30,school st
276,Gaspereau Valley Elementary School,60,public,PP - 5,2781 Greenfield Rd Wolfville NS B4P 2R1 NS,2781 Greenfield Rd,B4P 2R1,Wolfville NS,Province of Nova Scotia,2781 greenfield rd wolfville ns b4p 2r1 ns,2781,greenfield rd
277,Glooscap Elementary School,59,public,PP - 5,1017 J Jordan Rd Canning NS B0P 1H0 NS,1017 J Jordan Rd,B0P 1H0,Canning NS,Province of Nova Scotia,1017 j jordan rd canning ns b0p 1h0 ns,1017,j jordan rd
278,Hantsport School,24,public,PP - 8,11 School St Hantsport NS B0P 1P0 NS,11 School St,B0P 1P0,Hantsport NS,Province of Nova Scotia,11 school st hantsport ns b0p 1p0 ns,11,school st
279,Highbury Education Centre,998,public,10 - 12,26 Highbury Rd New Minas NS B4N 3P7 NS,26 Highbury Rd,B4N 3P7,New Minas NS,Province of Nova Scotia,26 highbury rd new minas ns b4n 3p7 ns,26,highbury rd
280,Horton High School,70,public,09 - 12,75 Greenwich Rd S Wolfville NS B4P 2R2 NS,75 Greenwich Rd S,B4P 2R2,Wolfville NS,Province of Nova Scotia,75 greenwich rd s wolfville ns b4p 2r2 ns,75,greenwich rd s
281,Kings County Academy,1158,public,PP - 8,35 Gary Pearl Dr Kentville NS B4N 0H4 NS,35 Gary Pearl Dr,B4N 0H4,Kentville NS,Province of Nova Scotia,35 gary pearl dr kentville ns b4n 0h4 ns,35,gary pearl dr
282,Kings County Adult High School,379,public,10 - 12,26 Highbury Rd New Minas NS B4N 3P7 NS,26 Highbury Rd,B4N 3P7,New Minas NS,Province of Nova Scotia,26 highbury rd new minas ns b4n 3p7 ns,26,highbury rd
283,Kingston and District School,62,public,PR - 5,630 Pine Ridge Ave Kingston NS B0P 1R0 NS,630 Pine Ridge Ave,B0P 1R0,Kingston NS,Province of Nova Scotia,630 pine ridge ave kingston ns b0p 1r0 ns,630,pine ridge ave
284,L.E. Shaw Elementary School,61,public,PP - 5,486 Oak Island Rd Avonport NS B0P 1B0 NS,486 Oak Island Rd,B0P 1B0,Avonport NS,Province of Nova Scotia,486 oak island rd avonport ns b0p 1b0 ns,486,oak island rd
285,Lawrencetown Consolidated School,129,public,PP - 5,10 Middle Rd Lawrencetown NS B0S 1M0 NS,10 Middle Rd,B0S 1M0,Lawrencetown NS,Province of Nova Scotia,10 middle rd lawrencetown ns b0s 1m0 ns,10,middle rd
286,Lawrencetown Education Centre,1108,public,07 - 12,10 Middle Rd Lawrencetown NS B0S 1M0 NS,10 Middle Rd,B0S 1M0,Lawrencetown NS,Province of Nova Scotia,10 middle rd lawrencetown ns b0s 1m0 ns,10,middle rd
287,Middleton Regional High School,712,public,06 - 12,18 Gates Ave Middleton NS B0S 1P0 NS,18 Gates Ave,B0S 1P0,Middleton NS,Province of Nova Scotia,18 gates ave middleton ns b0s 1p0 ns,18,gates ave
288,New Minas Elementary School,73,public,PR - 5,34 Jones Rd New Minas NS B4N 3N1 NS,34 Jones Rd,B4N 3N1,New Minas NS,Province of Nova Scotia,34 jones rd new minas ns b4n 3n1 ns,34,jones rd
289,Northeast Kings Education Centre,967,public,06 - 12,1816 Bains Rd Canning NS B0P 1H0 NS,1816 Bains Rd,B0P 1H0,Canning NS,Province of Nova Scotia,1816 bains rd canning ns b0p 1h0 ns,1816,bains rd
290,Pine Ridge Middle School,966,public,06 - 8,625 Pine Ridge Ave Kingston NS B0P 1R0 NS,625 Pine Ridge Ave,B0P 1R0,Kingston NS,Province of Nova Scotia,625 pine ridge ave kingston ns b0p 1r0 ns,625,pine ridge ave
291,Port Williams Elementary School,72,public,PP - 5,1261 Belcher St Port Williams NS B0P 1T0 NS,1261 Belcher St,B0P 1T0,Port Williams NS,Province of Nova Scotia,1261 belcher st port williams ns b0p 1t0 ns,1261,belcher st
292,Somerset and District Elementary School,55,public,PR - 5,4339 Brooklyn St Berwick NS B0P 1E0 NS,4339 Brooklyn St,B0P 1E0,Berwick NS,Province of Nova Scotia,4339 brooklyn st berwick ns b0p 1e0 ns,4339,brooklyn st
293,St. Mary's Elementary School,54,public,PP - 5,1276 Victoria Rd Aylesford NS B0P 1C0 NS,1276 Victoria Rd,B0P 1C0,Aylesford NS,Province of Nova Scotia,1276 victoria rd aylesford ns b0p 1c0 ns,1276,victoria rd
294,Three Mile Plains District School,360,public,PP - 5,4555 Hwy 1 Windsor NS B0N 2T0 NS,4555 Hwy 1,B0N 2T0,Windsor NS,Province of Nova Scotia,4555 hwy 1 windsor ns b0n 2t0 ns,4555,hwy 1
295,West Hants Education Centre,1110,public,08 - 12,94 Wentworth Rd Windsor NS B0N 2T0 NS,94 Wentworth Rd,B0N 2T0,Windsor NS,Province of Nova Scotia,94 wentworth rd windsor ns b0n 2t0 ns,94,wentworth rd
296,West Hants Middle School,994,public,06 - 12,8009 Hwy 14 Newport NS B0N 2A0 NS,8009 Hwy 14,B0N 2A0,Newport NS,Province of Nova Scotia,8009 hwy 14 newport ns b0n 2a0 ns,8009,hwy 14
297,West Kings District High School,71,public,09 - 12,1941 Hwy 1 Auburn NS B0P 1A0 NS,1941 Hwy 1,B0P 1A0,Auburn NS,Province of Nova Scotia,1941 hwy 1 auburn ns b0p 1a0 ns,1941,hwy 1
298,Windsor Adult High School,376,public,10 - 12,94 Wentworth Rd Windsor NS B0N 2T0 NS,94 Wentworth Rd,B0N 2T0,Windsor NS,Province of Nova Scotia,94 wentworth rd windsor ns b0n 2t0 ns,94,wentworth rd
299,Windsor Elementary School,699,public,PP - 5,100 Tremaine Cr Windsor NS B0N 2T0 NS,100 Tremaine Cr,B0N 2T0,Windsor NS,Province of Nova Scotia,100 tremaine cr windsor ns b0n 2t0 ns,100,tremaine cr
300,Windsor Forks District School,361,public,PP - 5,120 Sangster Bridge Rd Windsor NS B0N 2T0 NS,120 Sangster Bridge Rd,B0N 2T0,Windsor NS,Province of Nova Scotia,120 sangster bridge rd windsor ns b0n 2t0 ns,120,sangster bridge rd
301,Wolfville School,81,public,PR - 8,19 Acadia St Wolfville NS B4P 1K8 NS,19 Acadia St,B4P 1K8,Wolfville NS,Province of Nova Scotia,19 acadia st wolfville ns b4p 1k8 ns,19,acadia st
302,Centre Scolaire de la Rive-Sud,1155,public,PP - 12,"20, chemin Petite vangline Cookville N.-. B4V 8Z9 NS","20, chemin Petite vangline",B4V 8Z9,Cookville N.-.,Province of Nova Scotia,20 chemin petite vangline cookville n  b4v 8z9 ns,20,chemin petite vangline cookville n  b4v
303,Centre scolaire toile de l'Acadie,387,public,PP - 12,"15, rue Inglis Sydney N.-. B1P 7C6 NS","15, rue Inglis",B1P 7C6,Sydney N.-.,Province of Nova Scotia,15 rue inglis sydney n  b1p 7c6 ns,15,rue inglis sydney n
304,cole acadienne de Pomquet,145,public,PP - 12,"791, rue Taylor Pomquet N.-. B2G 2L4 NS","791, rue Taylor",B2G 2L4,Pomquet N.-.,Province of Nova Scotia,791 rue taylor pomquet n  b2g 2l4 ns,791,rue taylor pomquet n 
305,cole acadienne de Truro,433,public,PP - 12,"50, rue Aberdeen Truro N.-. B2N 4V3 NS","50, rue Aberdeen",B2N 4V3,Truro N.-.,Province of Nova Scotia,50 rue aberdeen truro n  b2n 4v3 ns,50,rue aberdeen truro n 
306,cole Beaubassin,947,public,PP - 5,"54, boul. Larry Uteck Halifax N.-. B3M 4R9 NS","54, boul. Larry Uteck",B3M 4R9,Halifax N.-.,Province of Nova Scotia,54 boul larry uteck halifax n  b3m 4r9 ns,54,boul larry uteck halifax n 
307,cole Beau-Port,982,public,PP - 12,"2359, rt. 206 Arichat N.-. B0E 2L0 NS","2359, rt. 206",B0E 2L0,Arichat N.-.,Province of Nova Scotia,2359 rt 206 arichat n  b0e 2l0 ns,2359,rt 206 arichat n 
308,cole Belleville,744,public,PP - 6,"84, chemin Belleville Tusket N.-. B0W 3M0 NS","84, chemin Belleville",B0W 3M0,Tusket N.-.,Province of Nova Scotia,84 chemin belleville tusket n  b0w 3m0 ns,84,chemin belleville tusket n 
309,cole Bois-Joli,948,public,PP - 5,"211, av. du Portage Dartmouth N.-. B2X 3T4 NS","211, av. du Portage",B2X 3T4,Dartmouth N.-.,Province of Nova Scotia,211 av du portage dartmouth n  b2x 3t4 ns,211,av du portage dartmouth n 
310,cole des Beaux-Marais,1173,public,PP - 8,"5261, autoroute 7 Porters Lake N.-. B3E 1J7 NS","5261, autoroute 7",B3E 1J7,Porters Lake N.-.,Province of Nova Scotia,5261 autoroute 7 porters lake n  b3e 1j7 ns,5261,autoroute 7 porters lake n 
311,cole du Carrefour,68,public,06 - 12,"201A, av. du Portage Dartmouth N.-. B2X 3T4 NS","201A, av. du Portage",B2X 3T4,Dartmouth N.-.,Province of Nova Scotia,201a av du portage dartmouth n  b2x 3t4 ns,,201a av du portage dartmouth n 
312,cole du Grand-Portage,1188,public,PP - 6,"100, Stokil Dr Lower Sackville N.-. B4C 2G5 NS","100, Stokil Dr",B4C 2G5,Lower Sackville N.-.,Province of Nova Scotia,100 stokil dr lower sackville n  b4c 2g5 ns,100,stokil dr
313,cole Joseph-Dugas,217,public,PP - 6,"450, ch. Patrice Pointe-de-l'glise N.-. B0W 1M0 NS","450, ch. Patrice",B0W 1M0,Pointe-de-l'glise N.-.,Province of Nova Scotia,450 ch patrice pointe de l'glise n  b0w 1m0 ns,450,ch patrice pointe de l'glise n 
314,cole Mer et Monde,1197,public,PP - 7,"5750, rue Atlantic Halifax N.-. B3H 1G9 NS","5750, rue Atlantic",B3H 1G9,Halifax N.-.,Province of Nova Scotia,5750 rue atlantic halifax n  b3h 1g9 ns,5750,rue atlantic halifax n 
315,cole NDA,378,public,PP - 12,CP 100 Chticamp N.-. B0E 1H0 NS,CP 100,B0E 1H0,Chticamp N.-.,Province of Nova Scotia,chticamp n  b0e 1h0 ns,,chticamp n 
316,cole Pubnico-Ouest,156,public,PP - 6,CP 40 Pubnico-Ouest N.-. B0W 3S0 NS,CP 40,B0W 3S0,Pubnico-Ouest N.-.,Province of Nova Scotia,pubnico ouest n  b0w 3s0 ns,,pubnico ouest n 
317,cole Rose-des-Vents,57,public,PP - 12,"6, ch. Bedford Greenwood N.-. B0P 1N0 NS","6, ch. Bedford",B0P 1N0,Greenwood N.-.,Province of Nova Scotia,6 ch bedford greenwood n  b0p 1n0 ns,6,ch bedford greenwood n
318,cole secondaire de Clare,225,public,07 - 12,"80, ch. Placide Comeau La Butte N.-. B0W 2L0 NS","80, ch. Placide Comeau",B0W 2L0,La Butte N.-.,Province of Nova Scotia,80 ch placide comeau la butte n  b0w 2l0 ns,80,ch placide comeau la butte n 
319,cole secondaire de Par-en-Bas,980,public,07 - 12,"4258, route 308 Tusket N.-. B0W 3M0 NS","4258, route 308",B0W 3M0,Tusket N.-.,Province of Nova Scotia,4258 route 308 tusket n  b0w 3m0 ns,4258,route 308 tusket n 
320,cole secondaire du Sommet,1152,public,06 - 12,"500, boul. Larry Uteck Halifax N.-. B3M 0E6 NS","500, boul. Larry Uteck",B3M 0E6,Halifax N.-.,Province of Nova Scotia,500 boul larry uteck halifax n  b3m 0e6 ns,500,boul larry
321,cole Stella-Maris,219,public,PP - 6,"288, ch. Peter Dugas Meteghan N.-. B0W 2J0 NS","288, ch. Peter Dugas",B0W 2J0,Meteghan N.-.,Province of Nova Scotia,288 ch peter dugas meteghan n  b0w 2j0 ns,288,ch peter dugas meteghan n 
322,cole Wedgeport,160,public,PP - 6,"44, ch. Ditcher Wedgeport N.-. B0W 3P0 NS","44, ch. Ditcher",B0W 3P0,Wedgeport N.-.,Province of Nova Scotia,44 ch ditcher wedgeport n  b0w 3p0 ns,44,ch ditcher wedgeport n 
323,Aspotogan Consolidated Elementary School,925,public,PP - 5,105 Parkwood Dr Mill Cove NS B0J 1T0 NS,105 Parkwood Dr,B0J 1T0,Mill Cove NS,Province of Nova Scotia,105 parkwood dr mill cove ns b0j 1t0 ns,105,parkwood dr
324,Bayview Community School,926,public,PP - 9,110 Clearway St Mahone Bay NS B0J 2E0 NS,110 Clearway St,B0J 2E0,Mahone Bay NS,Province of Nova Scotia,110 clearway st mahone bay ns b0j 2e0 ns,110,clearway st
325,Big Tancook Elementary School,405,public,PR - 5,36 School Rd Big Tancook Island NS B0J 3G0 NS,36 School Rd,B0J 3G0,Big Tancook Island NS,Province of Nova Scotia,36 school rd big tancook island ns b0j 3g0 ns,36,school rd
326,Bluenose Academy,1156,public,PP - 9,18 Tannery Rd Lunenburg NS B0J 2C0 NS,18 Tannery Rd,B0J 2C0,Lunenburg NS,Province of Nova Scotia,18 tannery rd lunenburg ns b0j 2c0 ns,18,tannery rd
327,Bridgewater Elementary School,509,public,PP - 4,130 York St Bridgewater NS B4V 1R3 NS,130 York St,B4V 1R3,Bridgewater NS,Province of Nova Scotia,130 york st bridgewater ns b4v 1r3 ns,130,york st
328,Bridgewater Junior High School,508,public,05 - 12,100 York St Bridgewater NS B4V 1R3 NS,100 York St,B4V 1R3,Bridgewater NS,Province of Nova Scotia,100 york st bridgewater ns b4v 1r3 ns,100,york st
329,Chester Area Middle School,216,public,05 - 8,204 Duke St Chester NS B0J 1J0 NS,204 Duke St,B0J 1J0,Chester NS,Province of Nova Scotia,204 duke st chester ns b0j 1j0 ns,204,duke st
330,Chester District Elementary School,207,public,PP - 4,202 Duke St Chester NS B0J 1J0 NS,202 Duke St,B0J 1J0,Chester NS,Province of Nova Scotia,202 duke st chester ns b0j 1j0 ns,202,duke st
331,Dr. John C. Wickwire Academy,386,public,PP - 5,311 Port Mouton Rd Liverpool NS B0T 1K0 NS,311 Port Mouton Rd,B0T 1K0,Liverpool NS,Province of Nova Scotia,311 port mouton rd liverpool ns b0t 1k0 ns,311,port mouton rd
332,Forest Heights Community School,80,public,09 - 12,847 Hwy 12 Chester Basin NS B0J 1K0 NS,847 Hwy 12,B0J 1K0,Chester Basin NS,Province of Nova Scotia,847 hwy 12 chester basin ns b0j 1k0 ns,847,hwy 12
333,Greenfield Elementary School,1150,public,PR - 6,5060 Hwy 210 Greenfield NS B0T 1E0 NS,5060 Hwy 210,B0T 1E0,Greenfield NS,Province of Nova Scotia,5060 hwy 210 greenfield ns b0t 1e0 ns,5060,hwy 210
334,Hebbville Academy,917,public,PP - 9,16147 Hwy 3 Hebbville NS B4V 6Y1 NS,16147 Hwy 3,B4V 6Y1,Hebbville NS,Province of Nova Scotia,16147 hwy 3 hebbville ns b4v 6y1 ns,16147,hwy 3 hebbville ns b4v
335,Liverpool Regional High School,710,public,09 - 12,104 College St Liverpool NS B0T 1K0 NS,104 College St,B0T 1K0,Liverpool NS,Province of Nova Scotia,104 college st liverpool ns b0t 1k0 ns,104,college st
336,New Germany Elementary School,397,public,PP - 6,150 School St New Germany NS B0R 1E0 NS,150 School St,B0R 1E0,New Germany NS,Province of Nova Scotia,150 school st new germany ns b0r 1e0 ns,150,school st
337,New Germany Rural High School,402,public,07 - 12,44 School St New Germany NS B0R 1E0 NS,44 School St,B0R 1E0,New Germany NS,Province of Nova Scotia,44 school st new germany ns b0r 1e0 ns,44,school st
338,New Ross Consolidated School,214,public,PP - 8,4689 Hwy 12 New Ross NS B0J 2M0 NS,4689 Hwy 12,B0J 2M0,New Ross NS,Province of Nova Scotia,4689 hwy 12 new ross ns b0j 2m0 ns,4689,hwy 12
339,Newcombville Elementary School,404,public,PP - 5,4220 Hwy 325 Newcombville NS B4V 7W2 NS,4220 Hwy 325,B4V 7W2,Newcombville NS,Province of Nova Scotia,4220 hwy 325 newcombville ns b4v 7w2 ns,4220,hwy 325
340,North Queens Community School,459,public,PP - 12,40 West Caledonia Rd Caledonia NS B0T 1E0 NS,40 West Caledonia Rd,B0T 1E0,Caledonia NS,Province of Nova Scotia,40 west caledonia rd caledonia ns b0t 1e0 ns,40,west caledonia rd
341,Park View Education Centre,409,public,10 - 12,1485 King St Bridgewater NS B4V 1C4 NS,1485 King St,B4V 1C4,Bridgewater NS,Province of Nova Scotia,1485 king st bridgewater ns b4v 1c4 ns,1485,king st
342,Pentz Elementary School,400,public,PP - 6,2680 Hwy 331 LaHave NS B0R 1C0 NS,2680 Hwy 331,B0R 1C0,LaHave NS,Province of Nova Scotia,2680 hwy 331 lahave ns b0r 1c0 ns,2680,hwy 331
343,Petite Rivire Elementary School,401,public,PP - 6,123 Wentzell Rd Petite Rivire NS B4V 5Y2 NS,123 Wentzell Rd,B4V 5Y2,Petite Rivire NS,Province of Nova Scotia,123 wentzell rd petite rivire ns b4v 5y2 ns,123,wentzell rd
344,South Queens Middle School,1185,public,06 - 8,157 Old Bridge St Liverpool NS B0T 1K0 NS,157 Old Bridge St,B0T 1K0,Liverpool NS,Province of Nova Scotia,157 old bridge st liverpool ns b0t 1k0 ns,157,old bridge st
345,SSRCE Adult High School,1171,public,10 - 12,137 Old Bridge St Liverpool NS B0T 1K0 NS,137 Old Bridge St,B0T 1K0,Liverpool NS,Province of Nova Scotia,137 old bridge st liverpool ns b0t 1k0 ns,137,old bridge st
346,SSRCE Alternate Programs,1172,public,07 - 12,45 School St Mahone Bay NS B0J 2E0 NS,45 School St,B0J 2E0,Mahone Bay NS,Province of Nova Scotia,45 school st mahone bay ns b0j 2e0 ns,45,school st
347,West Northfield Elementary School,394,public,PP - 6,6 Victoria Acres Dr West Northfield NS B4V 5C7 NS,6 Victoria Acres Dr,B4V 5C7,West Northfield NS,Province of Nova Scotia,6 victoria acres dr west northfield ns b4v 5c7 ns,6,victoria acres dr
348,Barrington Municipal High School,167,public,07 - 12,536 Oak Park Rd Barrington NS B0W 1E0 NS,536 Oak Park Rd,B0W 1E0,Barrington NS,Province of Nova Scotia,536 oak park rd barrington ns b0w 1e0 ns,536,oak park rd
349,Carleton Consolidated School,497,public,PP - 6,4014 Hwy 340 Carleton NS B5A 5P8 NS,4014 Hwy 340,B5A 5P8,Carleton NS,Province of Nova Scotia,4014 hwy 340 carleton ns b5a 5p8 ns,4014,hwy 340
350,Clark's Harbour Elementary School,511,public,PP - 6,29 School St Clark's Harbour NS B0W 1P0 NS,29 School St,B0W 1P0,Clark's Harbour NS,Province of Nova Scotia,29 school st clark's harbour ns b0w 1p0 ns,29,school st
351,Digby Elementary School,541,public,PP - 6,20 Shreve St Digby NS B0V 1A0 NS,20 Shreve St,B0V 1A0,Digby NS,Province of Nova Scotia,20 shreve st digby ns b0v 1a0 ns,20,shreve st
352,Digby Neck Consolidated School,257,public,PR - 6,6203 Sandy Cove Rd Sandy Cove NS B0V 1E0 NS,6203 Sandy Cove Rd,B0V 1E0,Sandy Cove NS,Province of Nova Scotia,6203 sandy cove rd sandy cove ns b0v 1e0 ns,6203,sandy cove rd
353,Digby Regional High School,709,public,07 - 12,107 King St Digby NS B0V 1A0 NS,107 King St,B0V 1A0,Digby NS,Province of Nova Scotia,107 king st digby ns b0v 1a0 ns,107,king st
354,Drumlin Heights Consolidated School,981,public,PP - 12,RR 1 Hwy 3 5428 Glenwood NS B0W 1W0 NS,RR 1 Hwy 3 5428,B0W 1W0,Glenwood NS,Province of Nova Scotia,rr 1 hwy 3 5428 glenwood ns b0w 1w0 ns,,rr 1 hwy 3 5428
355,Evelyn Richardson Memorial Elementary School,733,public,PP - 6,5961 Hwy 3 Shag Harbour NS B0W 3B0 NS,5961 Hwy 3,B0W 3B0,Shag Harbour NS,Province of Nova Scotia,5961 hwy 3 shag harbour ns b0w 3b0 ns,5961,hwy 3
356,Forest Ridge Academy,927,public,PP - 6,59 Forest View Dr Barrington NS B0W 1E0 NS,59 Forest View Dr,B0W 1E0,Barrington NS,Province of Nova Scotia,59 forest view dr barrington ns b0w 1e0 ns,59,forest view dr
357,Hillcrest Academy,79,public,PP - 6,127 King St Shelburne NS B0T 1W0 NS,127 King St,B0T 1W0,Shelburne NS,Province of Nova Scotia,127 king st shelburne ns b0t 1w0 ns,127,king st
358,Islands Consolidated School,259,public,PP - 12,75 Overcove Rd Freeport NS B0V 1B0 NS,75 Overcove Rd,B0V 1B0,Freeport NS,Province of Nova Scotia,75 overcove rd freeport ns b0v 1b0 ns,75,overcove rd
359,Lockeport Elementary School,624,public,PP - 6,73 Beach St Lockeport NS B0T 1L0 NS,73 Beach St,B0T 1L0,Lockeport NS,Province of Nova Scotia,73 beach st lockeport ns b0t 1l0 ns,73,beach st
360,Lockeport Regional High School,711,public,07 - 12,10 Locke St Lockeport NS B0T 1L0 NS,10 Locke St,B0T 1L0,Lockeport NS,Province of Nova Scotia,10 locke st lockeport ns b0t 1l0 ns,10,locke st
361,Maple Grove Education Centre,410,public,07 - 8,52 Grove Memorial Dr Hebron NS B0W 1X0 NS,52 Grove Memorial Dr,B0W 1X0,Hebron NS,Province of Nova Scotia,52 grove memorial dr hebron ns b0w 1x0 ns,52,grove memorial dr
362,Meadowfields Community School,928,public,PP - 6,106 Prospect St Yarmouth NS B5A 4J2 NS,106 Prospect St,B5A 4J2,Yarmouth NS,Province of Nova Scotia,106 prospect st yarmouth ns b5a 4j2 ns,106,prospect st
363,Plymouth School,199,public,PP - 6,849 Hwy 334 Yarmouth NS B0W 1B0 NS,849 Hwy 334,B0W 1B0,Yarmouth NS,Province of Nova Scotia,849 hwy 334 yarmouth ns b0w 1b0 ns,849,hwy 334
364,Port Maitland Consolidated School,498,public,PP - 6,3072 Hwy 1 Port Maitland NS B5A 5T3 NS,3072 Hwy 1,B5A 5T3,Port Maitland NS,Province of Nova Scotia,3072 hwy 1 port maitland ns b5a 5t3 ns,3072,hwy 1
365,Shelburne Regional High School,716,public,07 - 12,415 Woodlawn Dr Shelburne NS B0T 1W0 NS,415 Woodlawn Dr,B0T 1W0,Shelburne NS,Province of Nova Scotia,415 woodlawn dr shelburne ns b0t 1w0 ns,415,woodlawn dr
366,St. Mary's Bay Academy,977,public,07 - 12,4079 Hwy 1 Weymouth NS B0W 3T0 NS,4079 Hwy 1,B0W 3T0,Weymouth NS,Province of Nova Scotia,4079 hwy 1 weymouth ns b0w 3t0 ns,4079,hwy 1
367,Weymouth Consolidated School,256,public,PP - 6,4695 Hwy 1 Weymouth NS B0W 3T0 NS,4695 Hwy 1,B0W 3T0,Weymouth NS,Province of Nova Scotia,4695 hwy 1 weymouth ns b0w 3t0 ns,4695,hwy 1
368,Yarmouth Consolidated Memorial High School,1178,public,09 - 12,146 Forest St Yarmouth NS B5A 0B3 NS,146 Forest St,B5A 0B3,Yarmouth NS,Province of Nova Scotia,146 forest st yarmouth ns b5a 0b3 ns,146,forest st
369,Yarmouth Elementary School,1199,public,PP - 6,5 Brunswick St Yarmouth NS B5A 3A9 NS,5 Brunswick St,B5A 3A9,Yarmouth NS,Province of Nova Scotia,5 brunswick st yarmouth ns b5a 3a9 ns,5,brunswick st
